tipo,lat,lon,name,address,location
restaurant,43.2736308,-2.9179059,Restaurante Txakoli,BI-3741 Carretera de Artxanda / Artxandako errepidea 19,Bilbao
restaurant,43.2588525,-2.9364729,Cevichef,Alameda Recalde / Recalde zumarkalea 53,Bilbao
restaurant,43.351307,-3.0118225,Saigon,NO STREET 9999,Bilbao
restaurant,43.3488362,-3.0113765,Satistegi Jatetxea,NO STREET 9999,Bilbao
restaurant,43.3495058,-3.0147925,NO NAME,NO STREET 9999,Bilbao
restaurant,43.2589382,-2.9370198,Tapachula,NO STREET 9999,Bilbao
restaurant,43.3507493,-3.0037514,Golden Horse,Villaondoeta kalea 14,Bilbao
restaurant,43.3592236,-3.0189795,Cubita,NO STREET 9999,Bilbao
restaurant,43.3307239,-3.0306959,Mandanga-Hogar del Pescador,NO STREET 9999,Bilbao
restaurant,43.3259371,-3.0214156,Nautico's,Muelle Evaristo Churruca 9999,Bilbao
restaurant,43.2644388,-2.9422244,Baden-Baden jatetxea,NO STREET 9999,Bilbao
restaurant,43.2646973,-2.9417709,Guria Jatetxea,Gran Vía Don Diego López de Haro / On Diego Lopez Haroko kale nagusia 66,Bilbao
restaurant,43.2638965,-2.9397437,Estraunza jatetxea,NO STREET 9999,Bilbao
restaurant,43.2636693,-2.9386929,La Tagliatella,NO STREET 9999,Bilbao
restaurant,43.2636175,-2.9369088,Orient Wok,NO STREET 9999,Bilbao
restaurant,43.2640314,-2.9387858,TC jatetxea,NO STREET 9999,Bilbao
restaurant,43.2613197,-2.9254049,Gandhi,Calle Amistad / Adiskidetasun kalea 6,Bilbao
restaurant,43.2613866,-2.9249397,Kubrick Bar,NO STREET 9999,Bilbao
restaurant,43.2611009,-2.9257587,Palillo de oro,NO STREET 9999,Bilbao
restaurant,43.2606211,-2.9262989,Ibaigane,NO STREET 9999,Bilbao
restaurant,43.2622764,-2.9285954,Foodoo,Calle Ledesma / Ledesma kalea 12,Bilbao
restaurant,43.2621785,-2.9281317,Old Shanghai,Calle Ledesma / Ledesma kalea 10,Bilbao
restaurant,43.2627846,-2.9309044,Asia chic,Calle Ledesma / Ledesma kalea 30,Bilbao
restaurant,43.2626899,-2.9305192,Bilbao Berria Jatetxea,NO STREET 9999,Bilbao
restaurant,43.2632763,-2.9316915,Abando,Calle Colón de Larreategui / Colon de Larreategui kalea 31,Bilbao
restaurant,43.2634244,-2.9323312,Valparaiso2,NO STREET 9999,Bilbao
restaurant,43.2646057,-2.9368411,La masía jatetxea,NO STREET 9999,Bilbao
restaurant,43.3497911,-3.0123459,Ugartena,NO STREET 9999,Bilbao
restaurant,43.3497402,-3.0119447,Teilagorri,NO STREET 9999,Bilbao
restaurant,43.3499643,-3.012,Boga,NO STREET 9999,Bilbao
restaurant,43.2584881,-2.9389464,Egaña,Calle Egaña / Egaña kalea 14,Bilbao
restaurant,43.2580424,-2.9372102,Dyodos,NO STREET 9999,Bilbao
restaurant,43.2586912,-2.9370997,Oblib,NO STREET 9999,Bilbao
restaurant,43.2941237,-2.9840513,Wok Luck,NO STREET 9999,Bilbao
restaurant,43.353958,-2.8420888,Goieta taberna/jatetxea,NO STREET 9999,Bilbao
restaurant,43.3541811,-2.8495031,Sutargi pizzeria,NO STREET 9999,Bilbao
restaurant,43.3530323,-2.8493637,Mariñerune Garagardotegia,NO STREET 9999,Bilbao
restaurant,43.264428,-2.9372035,La Fontana Trattoria,Calle Máximo Aguirre / Maximo Aguirre kalea 7,Bilbao
restaurant,43.3269052,-3.0087534,Azkena,NO STREET 9999,Bilbao
restaurant,43.3268089,-3.0125475,Casa Mao,NO STREET 9999,Bilbao
restaurant,43.2582347,-2.9260796,Bar Irrintzi,Calle Santa María / Andra Maria kalea 8,Bilbao
restaurant,43.3307405,-3.0385581,La trainera,NO STREET 9999,Bilbao
restaurant,43.2466759,-2.8935334,Restaurante Ortzi Kafe,Plaza Patxi Bengoa 4,Bilbao
restaurant,43.3576654,-3.0092264,Urrutietxe,NO STREET 9999,Bilbao
restaurant,43.2854468,-2.9951338,Pollito,Avenida La Ribera 1,Bilbao
restaurant,43.2851449,-2.9950038,Kokoxili,NO STREET 9999,Bilbao
restaurant,43.3009024,-2.9419793,San Pankratzio,NO STREET 9999,Bilbao
restaurant,43.321822,-2.8664385,Harria,NO STREET 9999,Bilbao
restaurant,43.327859,-2.8507722,NO NAME,NO STREET 9999,Bilbao
restaurant,43.274448,-2.9194826,Sagardotegia,NO STREET 9999,Bilbao
restaurant,43.274944,-2.9196729,Anton,NO STREET 9999,Bilbao
restaurant,43.2756978,-2.923015,Ballano,NO STREET 9999,Bilbao
restaurant,43.2765453,-2.9188468,Miramar,NO STREET 9999,Bilbao
restaurant,43.2900772,-2.9781738,Argalario Jatetxea,NO STREET 9999,Bilbao
restaurant,43.2595175,-2.9343672,Acomerypunto,NO STREET 9999,Bilbao
restaurant,43.2943215,-2.9931132,Restaurante Japonés Sakura,NO STREET 9999,Bilbao
restaurant,43.2991769,-2.8861367,Rockefeller,NO STREET 9999,Bilbao
restaurant,43.2991164,-2.8857639,Isidro,NO STREET 9999,Bilbao
restaurant,43.2980622,-2.8860562,Zirikada,NO STREET 9999,Bilbao
restaurant,43.2934278,-3.0129801,Restaurante Berri-Alde,NO STREET 9999,Bilbao
restaurant,43.2950598,-3.0137043,Restaurante La Rueda,NO STREET 9999,Bilbao
restaurant,43.2916941,-3.0149247,Restaurante Etxebarri,NO STREET 9999,Bilbao
restaurant,43.2914035,-3.0147016,Gure Toki Berria,Calle Ugarte / Ugarte kalea 2,Bilbao
restaurant,43.3320715,-2.9709768,Alkatele,NO STREET 9999,Bilbao
restaurant,43.3321797,-2.9704591,Lukitxene,NO STREET 9999,Bilbao
restaurant,43.332158,-2.9713131,Txopitea,NO STREET 9999,Bilbao
restaurant,43.2779362,-2.9941646,Bar Restaurante Gorostiza,NO STREET 9999,Bilbao
restaurant,43.2918717,-2.9121877,NO NAME,NO STREET 9999,Bilbao
restaurant,43.2881058,-3.0631857,Meaztegi Golf,Carretera de Triano a La Arboleda 9999,Bilbao
restaurant,43.2650916,-2.935539,KRUNCH,Calle Iparraguirre / Iparraguirre kalea 15,Bilbao
restaurant,43.3200234,-3.0315121,Sidreria Amaike,NO STREET 9999,Bilbao
restaurant,43.3224844,-3.0355968,El Kañonazo,NO STREET 9999,Bilbao
restaurant,43.2888397,-2.9975608,Restaurante Doyuno Café,Ronda Azkue 43,Bilbao
restaurant,43.28937,-2.9987762,Pizza Hut,Plaza López de Ayala 11,Bilbao
restaurant,43.2350234,-2.8324341,Restaurante Andra Mari,NO STREET 9999,Bilbao
restaurant,43.2336081,-2.832799,Aretxondo Jatetxea,NO STREET 9999,Bilbao
restaurant,43.3303123,-3.0324817,La Batea,Capitán Mendizábal 4,Bilbao
restaurant,43.3328527,-3.0367846,Cervecería Santurtzi,Calle Capitán Mendiazábal 44,Bilbao
restaurant,43.2447718,-2.8953816,Asador El Bosque,Calle Jose Maria Asensio 5,Bilbao
restaurant,43.2456285,-2.8913827,Bar Restaurante Beliforanos,Calle Santa Ana 6,Bilbao
restaurant,43.2361442,-2.8833103,Kanela Kook,NO STREET 9999,Bilbao
restaurant,43.236027,-2.8827095,Restaurante Suako,NO STREET 9999,Bilbao
restaurant,43.2666217,-2.9333015,El Charro Loco,Alameda Recalde / Recalde zumarkalea 11,Bilbao
restaurant,43.2623236,-2.9425789,La Tagliatella,NO STREET 9999,Bilbao
restaurant,43.2599907,-2.9352871,La Sauseria,NO STREET 9999,Bilbao
restaurant,43.2624606,-2.928092,Iruña,Calle Colón de Larreategui / Colon de Larreategui kalea 13,Bilbao
restaurant,43.2626405,-2.9288651,La Nueva Nicoletta,NO STREET 9999,Bilbao
restaurant,43.2892416,-2.9982658,Cafetería Restaurante Miragarri,Plaza López de Ayala 8-9,Bilbao
restaurant,43.2787541,-2.9174644,Isidro,NO STREET 9999,Bilbao
restaurant,43.2724799,-2.9445766,Bordatxo,NO STREET 9999,Bilbao
restaurant,43.2767535,-2.9718751,The Rocket Tavern,NO STREET 9999,Bilbao
restaurant,43.356002,-2.8491537,Egoki,NO STREET 9999,Bilbao
restaurant,43.2601585,-2.9344176,El Eme,NO STREET 9999,Bilbao
restaurant,43.3033985,-3.0359389,Trapagarango Batzokia,Avenida Primero de Mayo - Maiatzaren 1a etorbidea 10,Bilbao
restaurant,43.3038292,-3.0390515,Zugazti-Bide Sagardotegia,Calle José Rufino Olaso kalea 5-7,Bilbao
restaurant,43.3016209,-3.0344954,Restaurante Lertxundi,Estrada La Rozada 4,Bilbao
restaurant,43.3030812,-3.0348654,Mesón Gernikako,NO STREET 9999,Bilbao
restaurant,43.2652532,-2.9517136,Restaurante Astillero Euskalduna,NO STREET 9999,Bilbao
restaurant,43.2888707,-2.8615447,Erreka Ondo,Arteaga 80,Bilbao
restaurant,43.2896744,-2.9259651,NO NAME,NO STREET 9999,Bilbao
restaurant,43.2997615,-3.0202927,Asador Ibarbide,NO STREET 9999,Bilbao
restaurant,43.3000348,-3.0204391,Donatto O'clock,NO STREET 9999,Bilbao
restaurant,43.2655584,-2.932638,El Marqués,NO STREET 9999,Bilbao
restaurant,43.2654914,-2.934077,Restaurante Beraia,Alameda Recalde / Recalde zumarkalea 20,Bilbao
restaurant,43.3055086,-3.0446928,Restaurante Hotel Ortuella,Polígono Industrial Granada 1,Bilbao
restaurant,43.3051324,-3.0451161,Restaurante Arrago Meatza,Polígono Industrial Granada 9999,Bilbao
restaurant,43.2617579,-2.9481602,NO NAME,NO STREET 9999,Bilbao
restaurant,43.2557641,-2.9261484,Perrochico,NO STREET 9999,Bilbao
restaurant,43.2589032,-2.9223246,Victor Montes,NO STREET 9999,Bilbao
restaurant,43.2580068,-2.9243841,El Txoko Berria,Calle Bidebarrieta / Bidebarrieta kalea 14,Bilbao
restaurant,43.2595985,-2.9234229,Lautxo,Areatza kalea 2,Bilbao
restaurant,43.2577157,-2.924686,Egiluz,NO STREET 9999,Bilbao
restaurant,43.257632,-2.9250141,Harrobia,NO STREET 9999,Bilbao
restaurant,43.2578378,-2.9250658,Kalderapeko,Calle del Perro / Txakur kalea 1,Bilbao
restaurant,43.2578503,-2.924874,Mandoya,Calle del Perro / Txakur kalea 9999,Bilbao
restaurant,43.2906417,-2.995599,Bar Restaurante Gaztela Berria,NO STREET 9999,Bilbao
restaurant,43.2626773,-2.9227806,Fior,NO STREET 9999,Bilbao
restaurant,43.2750978,-2.9725642,Arrigorri,Kastrexana etorbidea 23,Bilbao
restaurant,43.2844827,-3.0550535,Casa Sabina,NO STREET 9999,Bilbao
restaurant,43.2535276,-2.9114242,Guretxe,NO STREET 9999,Bilbao
restaurant,43.2655063,-2.9221053,Mesón de los Ángeles,Calle del Cristo / Kristo kalea 12,Bilbao
restaurant,43.2572831,-2.9394037,Mesón 1800,Calle Ávila / Avila kalea 1,Bilbao
restaurant,43.2576107,-2.946854,Asador Donosti,Calle Pablo de Alzola / Pablo de Alzola kalea 2,Bilbao
restaurant,43.25698,-2.94452,La Capilla,NO STREET 9999,Bilbao
restaurant,43.2623979,-2.9388115,Bilbao Okala Jatetxea,NO STREET 9999,Bilbao
restaurant,43.2902151,-2.9925045,Bar Boca Arte,NO STREET 9999,Bilbao
restaurant,43.2824051,-2.9623846,Uría Pedro,NO STREET 9999,Bilbao
restaurant,43.2612852,-2.9337526,Lepanto,NO STREET 9999,Bilbao
restaurant,43.2655571,-2.9253735,La Trattoria Napoletana,Paseo Campo Volantín / Campo Volantin pasealekua 14,Bilbao
restaurant,43.3683656,-3.0005318,T1,NO STREET 9999,Bilbao
restaurant,43.3497353,-3.0143699,Karola Etxea,Aretxondo Kalea 22,Bilbao
restaurant,43.2005875,-3.0479265,Batirtze,NO STREET 9999,Bilbao
restaurant,43.2673089,-2.941752,Aizian,NO STREET 9999,Bilbao
restaurant,43.2640966,-2.9313542,Ein Prosit,NO STREET 9999,Bilbao
restaurant,43.2705784,-2.9442947,Deusto,NO STREET 9999,Bilbao
restaurant,43.2702539,-2.9421308,Mei Hao,NO STREET 9999,Bilbao
restaurant,43.270588,-2.9439953,Ta Chien,NO STREET 9999,Bilbao
restaurant,43.2592802,-2.9230307,Gozatu,NO STREET 9999,Bilbao
restaurant,43.2592106,-2.9230372,La Olla,Plaza Nueva / Plaza Barria 2,Bilbao
restaurant,43.2591431,-2.9230437,Víctor,NO STREET 9999,Bilbao
restaurant,43.303007,-3.0343086,Gran Río,NO STREET 9999,Bilbao
restaurant,43.3031223,-3.03406,Bizigarri,Travesía de Llano 10,Bilbao
restaurant,43.295759,-3.0118477,Restaurante-Asador Valle de Trápaga,NO STREET 9999,Bilbao
restaurant,43.2924793,-3.015452,Kar'Esti,NO STREET 9999,Bilbao
restaurant,43.2911475,-3.0163297,Restaurante Siglo XVIII,NO STREET 9999,Bilbao
restaurant,43.3544413,-2.8459383,Eperra,NO STREET 9999,Bilbao
restaurant,43.2594038,-2.9331149,La Tramoya,Calle Elcano / Elcano kalea 26,Bilbao
restaurant,43.2837919,-2.9946079,Don Komilón,NO STREET 9999,Bilbao
restaurant,43.2868824,-2.8913989,NO NAME,NO STREET 9999,Bilbao
restaurant,43.2586002,-2.9214151,La Baldosita,Plaza Miguel De Unamuno / Miguel de Unamuno plaza 1,Bilbao
restaurant,43.2924878,-2.9888599,China King,NO STREET 9999,Bilbao
restaurant,43.2577057,-2.9369099,Bar Restaurante Ana,NO STREET 9999,Bilbao
restaurant,43.2633939,-2.9328512,Udon,Calle Marqués del Puerto / Portuko markesaren kalea 2,Bilbao
restaurant,43.2631961,-2.9404581,Colombo,NO STREET 9999,Bilbao
restaurant,43.2613711,-2.940337,Manila,NO STREET 9999,Bilbao
restaurant,43.2615572,-2.9411727,Indautxuko Batzokia,NO STREET 9999,Bilbao
restaurant,43.2989166,-2.9937531,Beurko Berria,Avenida Miranda 9999,Bilbao
restaurant,43.2942064,-3.004244,Don G,NO STREET 9999,Bilbao
restaurant,43.2576722,-2.9255149,Amarena,Calle Santa María / Andra Maria kalea 18,Bilbao
restaurant,43.2650767,-2.943664,Bykania,NO STREET 9999,Bilbao
restaurant,43.3032716,-3.0340399,Txoko-Txiki,NO STREET 9999,Bilbao
restaurant,43.305797,-3.0382211,Las Cazuelitas,Calle Txurruka kalea 12,Bilbao
restaurant,43.3302067,-3.0321259,Suharri,NO STREET 9999,Bilbao
restaurant,43.2961874,-2.9973318,Cervecera San Vicente,NO STREET 9999,Bilbao
restaurant,43.3107511,-3.0407593,Restaurante Imanol,NO STREET 9999,Bilbao
restaurant,43.3021956,-2.9478254,Katea,NO STREET 9999,Bilbao
restaurant,43.3541131,-3.0108815,Restaurante Chino Algorta,NO STREET 9999,Bilbao
restaurant,43.2979171,-2.9936141,Galtzagorri,NO STREET 9999,Bilbao
restaurant,43.3019648,-2.9851219,Litaliano Pizzeria,Calle La Fandería 3,Bilbao
restaurant,43.2942705,-2.9873786,Mejillonerías La Batea,NO STREET 9999,Bilbao
restaurant,43.2941217,-2.9870208,Pulpería Coruña,NO STREET 9999,Bilbao
restaurant,43.2944266,-2.9905199,Restaurante Cafetería Casa Enol,NO STREET 9999,Bilbao
restaurant,43.2600682,-2.9357673,La Mary,Arriquibar enparantza 3,Bilbao
restaurant,43.3266132,-3.0103082,Hanoi,NO STREET 9999,Bilbao
restaurant,43.3016662,-2.992856,Restaurante Amatxu,NO STREET 9999,Bilbao
restaurant,43.2942616,-3.0047823,Itali Fast,NO STREET 9999,Bilbao
restaurant,43.2941972,-2.9844942,Cafe Rihanna,NO STREET 9999,Bilbao
restaurant,43.2960215,-2.9881147,Gran Muralla,NO STREET 9999,Bilbao
restaurant,43.2552929,-2.9262519,Dando la brasa,Aretxaga kalea 7,Bilbao
restaurant,43.2566022,-2.9286321,Agape,Calle Hernani / Hernani kalea 13,Bilbao
restaurant,43.2604694,-2.9315024,La Barraca,Calle Bertandona 6,Bilbao
restaurant,43.2644936,-2.9328861,Charlotte,Calle Heros / Heros kalea 24,Bilbao
restaurant,43.2643891,-2.9326408,Cascanueces,Calle Heros / Heros kalea 21,Bilbao
restaurant,43.2648356,-2.9331088,Kimtxu,NO STREET 9999,Bilbao
restaurant,43.2649614,-2.9330463,Restaurante Griego,Calle Henao / Henao kalea 30,Bilbao
restaurant,43.2649292,-2.9329019,Bizarre Bilbao,Calle Henao / Henao kalea 28,Bilbao
restaurant,43.2654948,-2.9324434,Green Bistrot,Calle Juan Ajuriaguerra / Juan Ajuriaguerra kalea 13,Bilbao
restaurant,43.2661059,-2.9345443,Alkartetxe,Calle Juan Ajuriaguerra / Juan Ajuriaguerra kalea 26,Bilbao
restaurant,43.2653804,-2.9349222,Los peces,NO STREET 9999,Bilbao
restaurant,43.2652649,-2.9351914,Markina,NO STREET 9999,Bilbao
restaurant,43.3010992,-2.9828114,La Taberna Jatetxea,NO STREET 9999,Bilbao
restaurant,43.2897565,-2.9791073,Restaurante Atenea,NO STREET 9999,Bilbao
restaurant,43.265867,-2.933572,Zazpirain,NO STREET 9999,Bilbao
restaurant,43.3037488,-2.9718024,Sagarrondo,NO STREET 9999,Bilbao
restaurant,43.3036846,-2.971871,Sagarrondo,NO STREET 9999,Bilbao
restaurant,43.3038158,-2.9727609,Kebab mikel,NO STREET 9999,Bilbao
restaurant,43.3020409,-2.9741895,Meson Bulevard,NO STREET 9999,Bilbao
restaurant,43.3024627,-2.9752437,La Estrella jatetxea,NO STREET 9999,Bilbao
restaurant,43.3025918,-2.9746313,Kimetz,NO STREET 9999,Bilbao
restaurant,43.2649984,-2.9504049,San Mamés Jatetxea,NO STREET 9999,Bilbao
restaurant,43.2967135,-2.99159,Arte Gallego,NO STREET 9999,Bilbao
restaurant,43.324302,-2.8519834,Pizzeria Los Argentinos,NO STREET 9999,Bilbao
restaurant,43.2604756,-2.9362004,Ribs Bilbao,NO STREET 9999,Bilbao
restaurant,43.266566,-2.9310654,Mesón Lersundi,Calle Lersundi / Lersundi kalea 6,Bilbao
restaurant,43.2770288,-2.9737016,Batzoki Zorrotza Bilbao,NO STREET 9999,Bilbao
restaurant,43.2575158,-2.9235861,Baster Bilbao,NO STREET 9999,Bilbao
restaurant,43.2717486,-2.9425084,restaurante Gallastegi,Avenida de Ramón y Cajal / Ramón y Cajal etorbidea 4,Bilbao
restaurant,43.3489592,-3.0144788,Itxas Bide Taberna,NO STREET 9999,Bilbao
restaurant,43.2492552,-2.9113346,Vespa Café,NO STREET 9999,Bilbao
restaurant,43.2118409,-2.8730253,Zugasti Jatetxea,Barrio Elejalde 9999,Bilbao
restaurant,43.3562964,-2.8484991,Restaurante - Pizzeria - Self,NO STREET 9999,Bilbao
restaurant,43.2625739,-2.9291455,Copper Delli,Alameda Mazarredo / Mazarredo zumarkalea 6,Bilbao
restaurant,43.2707533,-2.9456259,Dena Ona,NO STREET 9999,Bilbao
restaurant,43.2202173,-2.8853352,Txapó,NO STREET 9999,Bilbao
restaurant,43.2557845,-2.9248652,La Ribera,NO STREET 9999,Bilbao
restaurant,43.26176,-2.9412986,Un Señor de Bilbao USB,NO STREET 9999,Bilbao
restaurant,43.3481528,-3.0099753,Pizzeria Totó,NO STREET 9999,Bilbao
restaurant,43.3241731,-3.0198356,kaia,NO STREET 9999,Bilbao
restaurant,43.3173018,-3.0300895,Astileku Txokoa,NO STREET 9999,Bilbao
restaurant,43.263582,-2.9265014,txoko Piperrak,NO STREET 9999,Bilbao
restaurant,43.2552168,-2.913788,Erronda Berri,Zabalbide kalea 49,Bilbao
restaurant,43.2912559,-2.859279,Kaiona,NO STREET 105,Bilbao
restaurant,43.3267204,-3.0294685,Txitxarragane Sagardotegia,NO STREET 9999,Bilbao
restaurant,43.2535912,-2.9212735,Miren Itziar,Atxuri kalea 17,Bilbao
restaurant,43.2621794,-2.94805,Las Cañitas,NO STREET 9999,Bilbao
restaurant,43.3517467,-3.0124975,Nikkou,NO STREET 9999,Bilbao
restaurant,43.3481881,-3.0079744,Carpanta,Euskal Herria Kalea 17,Bilbao
restaurant,43.3078633,-3.0427809,Batzoki Urioste,NO STREET 9999,Bilbao
restaurant,43.2688611,-2.9325487,Nerua,NO STREET 9999,Bilbao
restaurant,43.297221,-2.9901835,El Rincón,NO STREET 9999,Bilbao
restaurant,43.3592236,-3.0189795,Restaurante Cubíta,NO STREET 9999,Bilbao
restaurant,43.3253942,-3.0064855,Beti Lagunak,NO STREET 9999,Bilbao
restaurant,43.2843959,-3.0550529,Maite,NO STREET 9999,Bilbao
restaurant,43.2841893,-3.0550136,Zuhaztieta,NO STREET 9999,Bilbao
restaurant,43.2844522,-3.0546504,León XIII,NO STREET 9999,Bilbao
restaurant,43.2408867,-2.9229736,Arnotegi,NO STREET 9999,Bilbao
restaurant,43.3006907,-3.0181573,Petisco,NO STREET 9999,Bilbao
restaurant,43.2996061,-3.0073322,Asador-Sidreria Ibarzaharra,NO STREET 9999,Bilbao
restaurant,43.2617063,-2.9253157,El deposito,NO STREET 9999,Bilbao
restaurant,43.262026,-2.9283311,Ledesma N5,Calle Ledesma / Ledesma kalea 5,Bilbao
restaurant,43.262521,-2.9283857,Pura Brasa,Calle Colón de Larreategui / Colon de Larreategui kalea 13,Bilbao
restaurant,43.2997449,-2.9925006,Ibarra-Kaldu,NO STREET 9999,Bilbao
restaurant,43.2576772,-2.9336288,Rimbombin,Hurtado de Amazaga etorbidea / Carril Taxi-Bus 48,Bilbao
restaurant,43.2839241,-2.9664963,wok,NO STREET 9999,Bilbao
restaurant,43.3260297,-2.9869725,Haritzpe,Plaza Jose Ramon Aketxe 6,Bilbao
restaurant,43.3261346,-2.9858823,Palillos De Oro,NO STREET 9999,Bilbao
restaurant,43.3262826,-2.9892803,Sushi Volcán,Avenida Iparragirre 42,Bilbao
restaurant,43.2943773,-2.9885043,Sikera,NO STREET 9999,Bilbao
restaurant,43.2539265,-2.9161001,NO NAME,NO STREET 9999,Bilbao
restaurant,43.2667131,-2.9268105,Campo Volantín,NO STREET 9999,Bilbao
restaurant,43.2663348,-2.9327977,Coppola Bilbao,Calle Barraincua / Barrainkua kalea 6,Bilbao
restaurant,43.2631066,-2.9260706,Nido Bilbao,Calle Barroeta Aldamar / Barroeta Aldamar kalea 3,Bilbao
restaurant,43.2631074,-2.9262437,Bascook,Calle Barroeta Aldamar / Barroeta Aldamar kalea 8,Bilbao
restaurant,43.2565873,-2.9240778,Restaurante Cafeteria Pentxo,Calle Belosticalle / Belostikale 20,Bilbao
restaurant,43.2828006,-2.9648673,Sidrería Ander,NO STREET 9999,Bilbao
restaurant,43.2636077,-2.9227524,La Tortilla,Plaza Ernesto Erkoreka / Ernesto Erkoreka plaza 4,Bilbao
restaurant,43.2629175,-2.922841,Eider,NO STREET 9999,Bilbao
restaurant,43.2628634,-2.9228197,Atxilipu,NO STREET 9999,Bilbao
restaurant,43.259587,-2.9231074,Bar Los Fueros,NO STREET 9999,Bilbao
restaurant,43.2578534,-2.9253992,Arriaga Sagardotegia,Calle Santa María / Andra Maria kalea 13,Bilbao
restaurant,43.2578388,-2.9251391,Asador Arriaga,Calle Santa María / Andra Maria kalea 13,Bilbao
restaurant,43.2582031,-2.9250412,Gran Jardin,NO STREET 9999,Bilbao
restaurant,43.258145,-2.9252646,Bar Restaurante Amboto,NO STREET 9999,Bilbao
restaurant,43.2581245,-2.9253652,Bar Restaurante Bizkaia Bi,NO STREET 9999,Bilbao
restaurant,43.258298,-2.9251979,Restaurante La Cuina d Jardines,NO STREET 9999,Bilbao
restaurant,43.2583867,-2.9247733,Berton,Calle Jardines / Jardines kalea 11,Bilbao
restaurant,43.259011,-2.9255718,Cafeteria Restaurante Amaya,NO STREET 9999,Bilbao
restaurant,43.2585172,-2.9261447,Txapela Taberna,NO STREET 9999,Bilbao
restaurant,43.2584365,-2.9260517,Casa De Comidas,NO STREET 9999,Bilbao
restaurant,43.258211,-2.9256093,Restaurante La Deliciosa,NO STREET 9999,Bilbao
restaurant,43.2582393,-2.9254235,Gorbea Restaurante,NO STREET 9999,Bilbao
restaurant,43.2582625,-2.9253439,Restaurante Horario De Comedor,NO STREET 9999,Bilbao
restaurant,43.2585589,-2.9253209,Zutik,Calle Nueva / Kale Barria 4,Bilbao
restaurant,43.2575248,-2.925645,Pena Athletic Del Casco Viejo,Calle de la Pelota / Pilota kalea 7,Bilbao
restaurant,43.2576039,-2.9255914,Gau~txori,Calle de la Pelota / Pilota kalea 5,Bilbao
restaurant,43.2577602,-2.9255283,Jatetxea,NO STREET 9999,Bilbao
restaurant,43.2578832,-2.9256718,Kasko,NO STREET 9999,Bilbao
restaurant,43.257851,-2.9262244,Laga,NO STREET 9999,Bilbao
restaurant,43.2577002,-2.9249397,NO NAME,NO STREET 9999,Bilbao
restaurant,43.2577226,-2.9245498,Restaurante Bar Rio-Oja,NO STREET 9999,Bilbao
restaurant,43.2577209,-2.9246032,Urbieta Bar Restaurante,NO STREET 9999,Bilbao
restaurant,43.2573294,-2.9242888,Horno Lemona,NO STREET 9999,Bilbao
restaurant,43.257385,-2.9242498,Bizvete Cafe,NO STREET 9999,Bilbao
restaurant,43.2579158,-2.9215554,Aitxiar,NO STREET 9999,Bilbao
restaurant,43.2581097,-2.9209273,Iru-Anai,NO STREET 9999,Bilbao
restaurant,43.2580934,-2.9204257,August Pintxos Asiaticos,NO STREET 9999,Bilbao
restaurant,43.2571253,-2.9221839,Pizza Via,NO STREET 9999,Bilbao
restaurant,43.2573812,-2.9221225,Kalderapeko Sl,NO STREET 9999,Bilbao
restaurant,43.2564376,-2.9226968,Tirauki,NO STREET 9999,Bilbao
restaurant,43.2563967,-2.9227175,Jaynah Restaurante,NO STREET 9999,Bilbao
restaurant,43.2563425,-2.9227462,K2,NO STREET 9999,Bilbao
restaurant,43.2571492,-2.9223462,Pizza Via,NO STREET 9999,Bilbao
restaurant,43.2557406,-2.9232299,Jade,Calle Somera / Goienkale 5,Bilbao
restaurant,43.2564598,-2.9238465,Batzoki Bilbo Zaharra,Calle Tendería / Dendarikale kalea 17,Bilbao
restaurant,43.2566097,-2.9252318,Restaurante Peruano,NO STREET 9999,Bilbao
restaurant,43.2566663,-2.9252023,Ají Colorado,NO STREET 9999,Bilbao
restaurant,43.2568754,-2.9250776,Takeria Txoko Mex,NO STREET 9999,Bilbao
restaurant,43.2574112,-2.9251166,Kukusoak Taberna,NO STREET 9999,Bilbao
restaurant,43.2573399,-2.9251569,Restaurante Lurrina,NO STREET 9999,Bilbao
restaurant,43.257252,-2.9252065,Restaurante Saibigain,Calle Barrenkale Barrena / Barrenkale Barrena 14,Bilbao
restaurant,43.2568759,-2.9254211,Lontz,Calle Barrenkale Barrena / Barrenkale Barrena 6,Bilbao
restaurant,43.2572505,-2.9253801,Kalizo,NO STREET 9999,Bilbao
restaurant,43.2548798,-2.9221483,El Gernikes,NO STREET 9999,Bilbao
restaurant,43.2550589,-2.9225304,Restaurante Jatetxea,NO STREET 9999,Bilbao
restaurant,43.2612528,-2.9258414,Palillos de Oro,Calle Amistad / Adiskidetasun kalea 3,Bilbao
restaurant,43.2619705,-2.9246793,Trate,NO STREET 9999,Bilbao
restaurant,43.2620624,-2.9256615,Pizzeria Panaderia,NO STREET 9999,Bilbao
restaurant,43.2620833,-2.9285839,Marimar,Calle Ledesma / Ledesma kalea 7,Bilbao
restaurant,43.2621507,-2.9288594,Visenta,Calle Ledesma / Ledesma kalea 9999,Bilbao
restaurant,43.2621587,-2.9268343,Colon's,NO STREET 9999,Bilbao
restaurant,43.2621446,-2.9267635,Maider,NO STREET 9999,Bilbao
restaurant,43.2621252,-2.9266821,Mariscos,NO STREET 9999,Bilbao
restaurant,43.2619661,-2.9271956,Harizki,NO STREET 9999,Bilbao
restaurant,43.2619453,-2.9271061,El toxoko de Amaia,NO STREET 9999,Bilbao
restaurant,43.2619897,-2.9273033,La Tagliatella,NO STREET 9999,Bilbao
restaurant,43.2620134,-2.9273867,Aizari,NO STREET 9999,Bilbao
restaurant,43.2620297,-2.927472,Nicolás,NO STREET 9999,Bilbao
restaurant,43.2622557,-2.926038,Kafetegia Gaztedi Berria,NO STREET 9999,Bilbao
restaurant,43.2624453,-2.9262632,Pitxintxu,NO STREET 9999,Bilbao
restaurant,43.2629182,-2.9258711,Asador Ibanezde Bilbao,NO STREET 9999,Bilbao
restaurant,43.2631045,-2.9273225,Aralar,NO STREET 9999,Bilbao
restaurant,43.2630855,-2.927211,Cafeteria Restaurante Arana,NO STREET 9999,Bilbao
restaurant,43.2638937,-2.9274407,NO NAME,NO STREET 9999,Bilbao
restaurant,43.2642166,-2.9281167,Albatros,NO STREET 9999,Bilbao
restaurant,43.264224,-2.9285867,Sakura,NO STREET 9999,Bilbao
restaurant,43.2655752,-2.928931,Avec Moi,NO STREET 9999,Bilbao
restaurant,43.2650951,-2.9278073,Atea,NO STREET 9999,Bilbao
restaurant,43.2665146,-2.9296337,Larruzz,Calle Uribitarte / Uribitarte kalea 24,Bilbao
restaurant,43.2665868,-2.9294111,La pulpería de Marina,NO STREET 9999,Bilbao
restaurant,43.2600419,-2.934735,Marisquería El Taller,NO STREET 9999,Bilbao
restaurant,43.2603558,-2.9345873,Todo Cocinado Bikain!!!,NO STREET 9999,Bilbao
restaurant,43.2603494,-2.9358844,Miu Japones,NO STREET 9999,Bilbao
restaurant,43.2597823,-2.9338631,Colmado Ibérico,NO STREET 9999,Bilbao
restaurant,43.2597961,-2.9333373,Oskaici,NO STREET 9999,Bilbao
restaurant,43.2599618,-2.9334155,La Brasa Canalla,Calle Elcano / Elcano kalea 24,Bilbao
restaurant,43.2600112,-2.9334365,De Boca madre,NO STREET 9999,Bilbao
restaurant,43.2605171,-2.9309586,Krunch,NO STREET 9999,Bilbao
restaurant,43.2608057,-2.9308683,La Tagliatella,Calle Cardenal Gardoqui / Gardoki kardenalaren kalea 3,Bilbao
restaurant,43.260871,-2.9317243,Kirol Bar Restaurante,NO STREET 9999,Bilbao
restaurant,43.2625869,-2.9308858,El Puertito,NO STREET 9999,Bilbao
restaurant,43.26252,-2.9296382,18 Lobster Bar,Calle Ledesma / Ledesma kalea 18,Bilbao
restaurant,43.2631241,-2.9300559,Asador Guetaria,Calle Colón de Larreategui / Colon de Larreategui kalea 12,Bilbao
restaurant,43.263462,-2.9298979,Mao,Calle Ibañez de Bilbao / Ibañez de Bilbao kalea 11,Bilbao
restaurant,43.2639737,-2.9294347,La Casita de Sabino,NO STREET 9999,Bilbao
restaurant,43.2646271,-2.9294894,Zortziko,NO STREET 9999,Bilbao
restaurant,43.2651663,-2.9300822,La Roca,NO STREET 9999,Bilbao
restaurant,43.2644,-2.9303772,Pikata,NO STREET 9999,Bilbao
restaurant,43.2646446,-2.9307602,El Figón,NO STREET 9999,Bilbao
restaurant,43.2664873,-2.9315918,Wasabi,NO STREET 9999,Bilbao
restaurant,43.2672756,-2.9309484,El Tropezón,NO STREET 9999,Bilbao
restaurant,43.2675804,-2.9307797,Baita,NO STREET 9999,Bilbao
restaurant,43.2672726,-2.9304481,Il Giardino Della Nonna,NO STREET 9999,Bilbao
restaurant,43.2678044,-2.9322895,Marisqueria Mazarredo,NO STREET 9999,Bilbao
restaurant,43.2673979,-2.9330091,Cafe Restaurante Tanger Berria,NO STREET 9999,Bilbao
restaurant,43.2675337,-2.9337916,Domine,Alameda Mazarredo / Mazarredo zumarkalea 61,Bilbao
restaurant,43.2674504,-2.9333293,Restaurante Porrue,Alameda Recalde / Recalde zumarkalea 4,Bilbao
restaurant,43.2668142,-2.9347962,La Foca Nicanora,NO STREET 9999,Bilbao
restaurant,43.2663253,-2.9350196,Vienés,Calle Iparraguirre / Iparraguirre kalea 11,Bilbao
restaurant,43.2662166,-2.9338333,Punjab Indian,NO STREET 9999,Bilbao
restaurant,43.2663079,-2.9353126,Abando Y Barra,NO STREET 9999,Bilbao
restaurant,43.2670829,-2.9350173,Berri Ipartagirre,Calle Iparraguirre / Iparraguirre kalea 4,Bilbao
restaurant,43.2671797,-2.9352196,Sua San,Alameda Mazarredo / Mazarredo zumarkalea 65,Bilbao
restaurant,43.2671635,-2.9352826,La Baka Baska,Alameda Mazarredo / Mazarredo zumarkalea 65,Bilbao
restaurant,43.2671516,-2.9353457,Asiatico Tamaya,NO STREET 9999,Bilbao
restaurant,43.2669289,-2.9362468,Serantes III,Alameda Mazarredo / Mazarredo zumarkalea 75,Bilbao
restaurant,43.2668498,-2.9365955,La Casa del Bacalao,Alameda Mazarredo / Mazarredo zumarkalea 79,Bilbao
restaurant,43.265708,-2.9361166,Public Lounge,Calle Henao / Henao kalea 54,Bilbao
restaurant,43.2654375,-2.9341429,Beraia,Alameda Recalde / Recalde zumarkalea 20,Bilbao
restaurant,43.2648188,-2.9314465,Gorliz,NO STREET 9999,Bilbao
restaurant,43.2650891,-2.9308118,Kuma,NO STREET 9999,Bilbao
restaurant,43.2654258,-2.9360057,Abandoko Batzokia,Calle Henao / Henao kalea 33,Bilbao
restaurant,43.2642703,-2.9346539,Rialto,NO STREET 9999,Bilbao
restaurant,43.2649881,-2.9355702,La Batea Mejillonerías,Calle Iparraguirre / Iparraguirre kalea 17,Bilbao
restaurant,43.2646242,-2.9357098,Kikara,NO STREET 9999,Bilbao
restaurant,43.2647411,-2.9340985,Gaztedi,NO STREET 9999,Bilbao
restaurant,43.2644098,-2.9322369,Mugarra,Calle Ercilla / Ercilla kalea 14,Bilbao
restaurant,43.2640445,-2.9324205,Restaurante Chinio Ercilla,Calle Ercilla / Ercilla kalea 15,Bilbao
restaurant,43.2636112,-2.932308,El Dinámico,Calle Colón de Larreategui / Colon de Larreategui kalea 26,Bilbao
restaurant,43.2628758,-2.9320274,Lasa,Calle Diputación / Diputazio kalea 3,Bilbao
restaurant,43.2631368,-2.9321411,San Gotardo,NO STREET 9999,Bilbao
restaurant,43.2631912,-2.9329684,Panko,Calle Marqués del Puerto / Portuko markesaren kalea 4,Bilbao
restaurant,43.2633794,-2.9339714,Monteverdi,Calle Ercilla / Ercilla kalea 21,Bilbao
restaurant,43.2636296,-2.9345623,Eliptica,Alameda Recalde / Recalde zumarkalea 33,Bilbao
restaurant,43.2621183,-2.9334271,Heladería Alaska,NO STREET 9999,Bilbao
restaurant,43.2612076,-2.934249,Ginos,Concha Generalaren kalea 2,Bilbao
restaurant,43.2544079,-2.9235504,Zubiburu,NO STREET 9999,Bilbao
restaurant,43.2548856,-2.9252165,Peso Neto,NO STREET 9999,Bilbao
restaurant,43.2551835,-2.9251387,Kaizahar,NO STREET 9999,Bilbao
restaurant,43.2552456,-2.926073,Blanco Y Negro,NO STREET 9999,Bilbao
restaurant,43.2551474,-2.9268534,El Churrasco,Calle Conde Mirasol 9,Bilbao
restaurant,43.2552902,-2.9270236,La Viña de San Francisco,NO STREET 9999,Bilbao
restaurant,43.2556604,-2.9281122,Florines,NO STREET 9999,Bilbao
restaurant,43.2556043,-2.9279519,Restaurante Nervion,NO STREET 9999,Bilbao
restaurant,43.2555795,-2.927872,San Fran,NO STREET 9999,Bilbao
restaurant,43.2555151,-2.9277074,Bar Rio-sol Restaurante,NO STREET 9999,Bilbao
restaurant,43.2559291,-2.9289115,Bar Restaurante Essaada Jay,NO STREET 9999,Bilbao
restaurant,43.2565512,-2.9305099,Berebar,Calle San Francisco / San Frantzisko kalea 65,Bilbao
restaurant,43.2566343,-2.9297685,Cafe Restaurante Nowoum Estrellas,NO STREET 9999,Bilbao
restaurant,43.2566717,-2.9297218,Cafeteria Al Jazeera,NO STREET 9999,Bilbao
restaurant,43.2571712,-2.9295649,La Merced,NO STREET 9999,Bilbao
restaurant,43.2568314,-2.929979,Mohammed Talai,NO STREET 9999,Bilbao
restaurant,43.2570917,-2.9296587,Restaurante Arima,Calle Bailén / Bailen kalea 33,Bilbao
restaurant,43.2575498,-2.9290513,Auskalo,Calle Bailén / Bailen kalea 23,Bilbao
restaurant,43.2568767,-2.9289895,Restaurant Borne,NO STREET 9999,Bilbao
restaurant,43.2568727,-2.9287158,Bar Restaurante Aketxe,NO STREET 9999,Bilbao
restaurant,43.2569366,-2.9283799,Al-Azhar,NO STREET 9999,Bilbao
restaurant,43.2576589,-2.9280439,Nura,NO STREET 9999,Bilbao
restaurant,43.2561772,-2.9276897,Sarean,Plaza Corazón de María 4,Bilbao
restaurant,43.2579497,-2.9316862,La Barraca,Calle García Salazar / Garcia Salazar kalea 12,Bilbao
restaurant,43.2575459,-2.9320141,Amadora II,NO STREET 9999,Bilbao
restaurant,43.2585607,-2.9315974,Casa Rufo,Calle Hurtado de Amézaga / Hurtado de Amezaga kalea 5,Bilbao
restaurant,43.2578576,-2.9328341,Bacanalia Restaurante,Calle Hurtado de Amézaga / Hurtado de Amezaga kalea 17,Bilbao
restaurant,43.2563946,-2.9329145,Bar Restaurante Aktoxo,NO STREET 9999,Bilbao
restaurant,43.2608485,-2.9294509,Marisquería Mao,Calle Canciller Ayala / Aiala kantzilerraren kalea 9999,Bilbao
restaurant,43.260738,-2.9301902,Urrestarazu,NO STREET 9999,Bilbao
restaurant,43.2602282,-2.929559,El Rinconcito,Calle Padre Lojendio / Aita Lojendio kalea 9999,Bilbao
restaurant,43.2595395,-2.930394,Mafe's Tavern,Calle Hurtado de Amézaga / Hurtado de Amezaga kalea 22,Bilbao
restaurant,43.2597534,-2.9300533,Meson Los Arcos,NO STREET 9999,Bilbao
restaurant,43.2600754,-2.930348,Restaurante Kokoxaxa,NO STREET 9999,Bilbao
restaurant,43.2599103,-2.9311773,Cafeteria Restaurante Gaico,NO STREET 9999,Bilbao
restaurant,43.259347,-2.9327406,Casa Vieja,NO STREET 9999,Bilbao
restaurant,43.2589037,-2.932448,Sukalde,Calle Elcano / Elcano kalea 31,Bilbao
restaurant,43.2585707,-2.9334207,Restaurante,NO STREET 9999,Bilbao
restaurant,43.2585204,-2.9332012,La Costeñita,NO STREET 9999,Bilbao
restaurant,43.2588203,-2.9327816,Chino Elcano,Calle Elcano / Elcano kalea 36,Bilbao
restaurant,43.2595086,-2.9337228,Wok Vista,NO STREET 9999,Bilbao
restaurant,43.2597973,-2.9339362,Colmado Ibérico,NO STREET 9999,Bilbao
restaurant,43.2590013,-2.9348659,Puk,Calle General Concha / Concha jeneralaren kalea 15,Bilbao
restaurant,43.2577146,-2.9349486,Kazeta,NO STREET 9999,Bilbao
restaurant,43.2575771,-2.9339873,Clipper,NO STREET 9999,Bilbao
restaurant,43.2582441,-2.9331114,Amazonas Bar Restaurante,NO STREET 9999,Bilbao
restaurant,43.2582776,-2.9332724,NO NAME,NO STREET 9999,Bilbao
restaurant,43.2582982,-2.933368,Jateko,Calle Fernández del Campo / Fernandez del Campo kalea 5,Bilbao
restaurant,43.2583227,-2.9335025,Garibolo,Calle Fernández del Campo / Fernandez del Campo kalea 7,Bilbao
restaurant,43.2574298,-2.9351163,Rallye Bilbo,NO STREET 9999,Bilbao
restaurant,43.2578822,-2.9363339,Asador Kalamua,Calle Egaña / Egaña kalea 3,Bilbao
restaurant,43.2579179,-2.9364833,Rallye,NO STREET 9999,Bilbao
restaurant,43.2579604,-2.9368453,Lasbovedas,NO STREET 9999,Bilbao
restaurant,43.2576348,-2.9368733,Cafe bitacora,NO STREET 9999,Bilbao
restaurant,43.2581061,-2.9363819,Rallye,NO STREET 9999,Bilbao
restaurant,43.2588984,-2.9360473,Restaurant asia Mintong,NO STREET 9999,Bilbao
restaurant,43.2594741,-2.935314,Udala,NO STREET 9999,Bilbao
restaurant,43.2622773,-2.9347465,Bar El Grill,NO STREET 9999,Bilbao
restaurant,43.2651009,-2.9369888,Amume,NO STREET 9999,Bilbao
restaurant,43.2650416,-2.9370242,Casilda,NO STREET 9999,Bilbao
restaurant,43.2666453,-2.9387664,Kapikua,NO STREET 9999,Bilbao
restaurant,43.2673985,-2.9421149,NO NAME,NO STREET 9999,Bilbao
restaurant,43.250701,-2.9320986,NO NAME,NO STREET 9999,Bilbao
restaurant,43.2521749,-2.930475,bitartean restaurante,NO STREET 9999,Bilbao
restaurant,43.2516461,-2.9297559,cafe oh-melette,NO STREET 9999,Bilbao
restaurant,43.2471581,-2.9312134,Doner Kebab,NO STREET 9999,Bilbao
restaurant,43.2462801,-2.9310284,El Esquinazo,NO STREET 9999,Bilbao
restaurant,43.2490381,-2.9271391,Bar Deluxe,Jardines Gernika kalea 9999,Bilbao
restaurant,43.2619281,-2.9358877,Don Angelo,NO STREET 9999,Bilbao
restaurant,43.260275,-2.9366282,Oishii Thai,NO STREET 9999,Bilbao
restaurant,43.2605659,-2.9361573,Pacifico,NO STREET 9999,Bilbao
restaurant,43.260706,-2.9385717,Urdazpi,NO STREET 9999,Bilbao
restaurant,43.2612303,-2.9384591,Bistro Bermeo,NO STREET 9999,Bilbao
restaurant,43.2614551,-2.9376023,Marisqueria Serantes,NO STREET 9999,Bilbao
restaurant,43.2619096,-2.9396584,Fénix Café Restaurante,NO STREET 9999,Bilbao
restaurant,43.2622944,-2.939685,Goizeko Izarra,NO STREET 9999,Bilbao
restaurant,43.262092,-2.9389168,A Tako Pako,NO STREET 9999,Bilbao
restaurant,43.2620377,-2.9389463,Asador Indusi,Calle Maestro García Rivero / Garcia Rivero maisuaren kalea 7,Bilbao
restaurant,43.2618672,-2.9390226,El Puertito,NO STREET 9999,Bilbao
restaurant,43.2611428,-2.9393001,Cafeteriz,NO STREET 9999,Bilbao
restaurant,43.2614902,-2.9408536,Duplex,NO STREET 9999,Bilbao
restaurant,43.261951,-2.9407432,Busterri Restaurante Bar,NO STREET 9999,Bilbao
restaurant,43.2621816,-2.9408356,Restaurante Chino China City,Calle Licenciado Poza / Poza lizentziatuaren kalea 34,Bilbao
restaurant,43.2620535,-2.9402785,Sotera,NO STREET 9999,Bilbao
restaurant,43.2631952,-2.9401988,La Charcu,NO STREET 9999,Bilbao
restaurant,43.2638488,-2.9406196,Restaurante Atlanta,NO STREET 9999,Bilbao
restaurant,43.2636729,-2.9399953,Gure Kabi,NO STREET 9999,Bilbao
restaurant,43.2636359,-2.9426396,Farketa 56,Calle Rodríguez Arias / Rodriguez Arias kalea 56,Bilbao
restaurant,43.2635328,-2.9421255,D.O bilbao,NO STREET 9999,Bilbao
restaurant,43.2638076,-2.9431659,La Teatra,NO STREET 9999,Bilbao
restaurant,43.2625243,-2.9424225,Sushi Artist,Calle Licenciado Poza / Poza lizentziatuaren kalea 9999,Bilbao
restaurant,43.2625724,-2.9421623,The Ten Bells,NO STREET 9999,Bilbao
restaurant,43.2618101,-2.9436422,Cervecería Cruz Blanca,Alameda Urquijo / Urkixo zumarkalea 80,Bilbao
restaurant,43.2625632,-2.9435525,Zarate,NO STREET 9999,Bilbao
restaurant,43.2630432,-2.9446734,El Viejo Zortzi,Calle Licenciado Poza / Poza lizentziatuaren kalea 54,Bilbao
restaurant,43.2637944,-2.9443568,La Galea,NO STREET 9999,Bilbao
restaurant,43.2629271,-2.9452797,New York Dinner,NO STREET 9999,Bilbao
restaurant,43.2629495,-2.9453997,Enol,NO STREET 9999,Bilbao
restaurant,43.2937478,-3.0049525,La Tagliatella,NO STREET 9999,Bilbao
restaurant,43.2864474,-3.0038098,Restaurante Jakome,Calle Retuerto 44,Bilbao
restaurant,43.3089491,-3.0061769,Jai Alai,Gran Via de José Antonio Aguirre 9999,Bilbao
restaurant,43.2536096,-2.9210765,Arandia,NO STREET 9999,Bilbao
restaurant,43.302217,-2.9960083,Itsasadar,Calle Beurko Viejo 2,Bilbao
restaurant,43.2956877,-2.9901128,Pulpería Parrilla Maraxe,NO STREET 9999,Bilbao
restaurant,43.2761663,-2.9581849,Ron City,NO STREET 9999,Bilbao
restaurant,43.2697863,-2.9414915,Satélite T,NO STREET 9999,Bilbao
restaurant,43.2680818,-2.9269887,El Fogon de Beni,NO STREET 9999,Bilbao
restaurant,43.2843027,-2.8635793,Senia,NO STREET 9999,Bilbao
restaurant,43.2846669,-2.8647496,Urbasa,NO STREET 9999,Bilbao
restaurant,43.2574407,-2.9180756,Gustu Bilbao,Iturribide 52,Bilbao
restaurant,43.2693365,-2.9438564,La Gabarra,Ribera Botica Vieja / Botikazar erribera 18,Bilbao
restaurant,43.2446299,-2.8952469,Etxebarri Cafetería,NO STREET 9999,Bilbao
restaurant,43.2949839,-2.9849312,Mesón Don Pedro,NO STREET 9999,Bilbao
restaurant,43.254993,-2.9247061,Mina,NO STREET 9999,Bilbao
restaurant,43.2623405,-2.9289228,La dolce vita,Calle Ledesma / Ledesma kalea 16,Bilbao
restaurant,43.2568946,-2.9249284,Txokomex,Calle Barrenkale / Barrenkale 22,Bilbao
restaurant,43.2568835,-2.9253382,Tipula,Calle Barrenkale Barrena / Barrenkale Barrena 6,Bilbao
restaurant,43.2569008,-2.9255645,Musume Izakaya,Calle Barrenkale Barrena / Barrenkale Barrena 3,Bilbao
restaurant,43.2639582,-2.9218363,Pizzeria Trozo,Quintana 5,Bilbao
restaurant,43.2640098,-2.9220692,Kokken,Calle Quintana 3,Bilbao
restaurant,43.265841,-2.9323251,Oh! Taku,Calle Heros / Heros kalea 14,Bilbao
restaurant,43.2654325,-2.9314828,La Despensa del Extanobe,Calle Juan Ajuriaguerra / Juan Ajuriaguerra kalea 8,Bilbao
restaurant,43.259502,-2.9384769,Ipindo,Alameda San Mamés / Santimami zumarkalea 39,Bilbao
restaurant,43.2609198,-2.9480381,Code,Juan Antonio Zunzunegui etorbidea 7,Bilbao
restaurant,43.2619469,-2.9406967,Bendita Pizza,Calle Licenciado Poza / Poza lizentziatuaren kalea 43,Bilbao
restaurant,43.2603893,-2.9457844,Karmelo,José María Escuza kalea / Calle José María Escuza 27,Bilbao
restaurant,43.258144,-2.9387216,Kerren,Calle Iparraguirre / Iparraguirre kalea 56,Bilbao
restaurant,43.2660613,-2.9338784,Casa Leotta,Calle Juan Ajuriaguerra / Juan Ajuriaguerra kalea 14,Bilbao
restaurant,43.2642277,-2.9265755,Txocook,Calle Nervión 2,Bilbao
restaurant,43.2674489,-2.9605936,Sustraiak Catering Vegano,Ribera de Deusto / Deustuibarra 47,Bilbao
restaurant,43.3232399,-3.0184844,Garbatella,NO STREET 9999,Bilbao
restaurant,43.3227962,-3.0186015,Tip Top Sola,NO STREET 9999,Bilbao
restaurant,43.3206632,-3.0226295,Hogar hosteleria Igone,NO STREET 9999,Bilbao
restaurant,43.3161462,-3.0204154,Indio,NO STREET 9999,Bilbao
restaurant,43.2624188,-2.924486,Sugoi Ramen,Calle Ripa / Erripa kalea 24,Bilbao
restaurant,43.2580328,-2.9243914,Kiosko,NO STREET 9999,Bilbao
restaurant,43.3241219,-3.015516,Cafe Rio,NO STREET 9999,Bilbao
restaurant,43.3233228,-3.0157696,Cafeteria Kaixo,NO STREET 9999,Bilbao
restaurant,43.3235652,-3.0153775,Sukam,NO STREET 9999,Bilbao
restaurant,43.3234558,-3.0155888,Don Peppone,NO STREET 9999,Bilbao
restaurant,43.2599918,-2.9307748,Sustraiak,NO STREET 9999,Bilbao
restaurant,43.263055,-2.931966,Amaren Bilbao,NO STREET 9999,Bilbao
restaurant,43.3500386,-3.0115575,Unai Taberna,NO STREET 9999,Bilbao
restaurant,43.353198,-2.8400212,Arriotza,NO STREET 9999,Bilbao
restaurant,43.2738121,-2.833405,El estanco,NO STREET 9999,Bilbao
restaurant,43.2735645,-2.831551,On egin,NO STREET 9999,Bilbao
restaurant,43.2552057,-2.9260333,Demaio,Calle San Francisco / San Frantzisko kalea 10,Bilbao
restaurant,43.2946586,-2.9851113,Pepintxo,NO STREET 9999,Bilbao
restaurant,43.2685092,-2.9266001,Mandobide,NO STREET 9999,Bilbao
restaurant,43.2677084,-2.9271142,Artxanda,NO STREET 9999,Bilbao
restaurant,43.29968,-2.9862928,A la Brasa,Calle Aldapa / Aldapa kalea 10,Bilbao
restaurant,43.2557064,-2.9411587,La Alhóndiga,Calle General Salazar / Salazar jeneralaren kalea 3,Bilbao
restaurant,43.2578952,-2.9254735,Santa Maria,NO STREET 9999,Bilbao
restaurant,43.2581168,-2.9254937,Charamel Gozotegia,NO STREET 9999,Bilbao
restaurant,43.2586443,-2.9253683,Arrok,Calle Nueva / Kale Barria 4,Bilbao
restaurant,43.2676194,-2.9398365,El Dinámico,NO STREET 9999,Bilbao
restaurant,43.2677776,-2.9399009,El Santo,NO STREET 9999,Bilbao
restaurant,43.2681243,-2.9410878,100 Montaditos,NO STREET 9999,Bilbao
restaurant,43.2680315,-2.9401276,LaMafia,NO STREET 9999,Bilbao
restaurant,43.2680657,-2.9403046,Cruz Blanca,NO STREET 9999,Bilbao
restaurant,43.2681584,-2.940782,Mr. Wok,NO STREET 9999,Bilbao
restaurant,43.2681399,-2.9405661,Krunch,NO STREET 9999,Bilbao
restaurant,43.32744,-3.0092936,Suna Sushi,NO STREET 9999,Bilbao
restaurant,43.32728,-3.0085043,Gure Etxea,NO STREET 9999,Bilbao
restaurant,43.2939858,-3.0044564,Krunch,NO STREET 9999,Bilbao
restaurant,43.3489778,-3.0090246,Ekin,NO STREET 9999,Bilbao
restaurant,43.2572993,-2.9326748,Chino misterioso,Calle Iturriza / Iturriza kalea 19,Bilbao
restaurant,43.2608238,-2.9347239,Fugu,Calle Licenciado Poza / Poza lizentziatuaren kalea 8,Bilbao
restaurant,43.2553341,-2.9431899,Los argentinos,"Calle Dolores Ibarruri / Dolores Ibarruri kalea 15, Local 3",Bilbao
restaurant,43.262904,-2.9263347,Basquery,Calle Ibañez de Bilbao / Ibañez de Bilbao kalea 8,Bilbao
restaurant,43.2950088,-2.9882155,Café Munich,NO STREET 9999,Bilbao
restaurant,43.2294859,-2.8523786,Petit Komité,Calle Txomin Egileor 28,Bilbao
restaurant,43.2580152,-2.9261348,Berasategi,NO STREET 9999,Bilbao
restaurant,43.2639746,-2.9218019,Pizzería Trozo,Calle Quintana 5,Bilbao
restaurant,43.2671488,-2.9403287,Origen,Leizaola lehendakariaren kalea 7,Bilbao
restaurant,43.2635108,-2.9328094,Misska,Calle Colón de Larreategui / Colon de Larreategui kalea 35,Bilbao
restaurant,43.2611244,-2.9312332,Bocadero,Calle Cardenal Gardoqui / Gardoki kardenalaren kalea 6,Bilbao
restaurant,43.2703059,-2.9529096,Pulpería Naroa,Calle Julio Urquijo / Julio Urquijo kalea 8,Bilbao
restaurant,43.2308449,-2.8411724,Topa Jatetxea,Juan Bautista Uriarte Kalea 9999,Bilbao
restaurant,43.2688059,-2.8988189,El Leon Jatetxea,NO STREET 9999,Bilbao
restaurant,43.2978257,-2.9864966,Donibane,NO STREET 9999,Bilbao
restaurant,43.2985074,-2.9887284,Kabana,NO STREET 9999,Bilbao
restaurant,43.2984222,-2.9885716,Udala,NO STREET 9999,Bilbao
restaurant,43.2990522,-2.9874192,Nuevo Mundo,NO STREET 9999,Bilbao
restaurant,43.2649668,-2.9544223,La lonja,Muelle Olabeaga / Olabeaga kaia 9999,Bilbao
restaurant,43.2569093,-2.9121057,La Ribera Gastro - Plaza,NO STREET 9999,Bilbao
restaurant,43.3003668,-2.9877954,Txokoa,NO STREET 9999,Bilbao
restaurant,43.2982483,-2.9848478,Janire,NO STREET 9999,Bilbao
restaurant,43.2962713,-2.9883424,Elkano,NO STREET 9999,Bilbao
restaurant,43.2988681,-2.9920088,Gamba loca,NO STREET 9999,Bilbao
restaurant,43.295565,-2.9882448,La Florida,NO STREET 9999,Bilbao
restaurant,43.2968386,-2.9850525,Arrandi,NO STREET 9999,Bilbao
restaurant,43.2945189,-2.9862958,Ría de Muros,NO STREET 9999,Bilbao
restaurant,43.2955133,-2.9888684,Gardoki,NO STREET 9999,Bilbao
restaurant,43.2983497,-2.9875228,Las Marias,Calle Hogar Propio / Hogar Propio kalea 9999,Bilbao
restaurant,43.2995641,-2.983942,Rioja,NO STREET 9999,Bilbao
restaurant,43.3032577,-2.9768857,Fuente oro,NO STREET 9999,Bilbao
restaurant,43.2555892,-2.9565954,Bar Los Botijos,NO STREET 9999,Bilbao
restaurant,43.251911,-2.9446468,Zarraga,Calle Ciudadela / Ciudadela kalea 9999,Bilbao
restaurant,43.2521365,-2.944546,Purita,Calle Ciudadela / Ciudadela kalea 9999,Bilbao
restaurant,43.2579235,-2.9263764,Ola,NO STREET 9999,Bilbao
restaurant,43.3400667,-3.0466153,NO NAME,NO STREET 9999,Bilbao
restaurant,43.2598388,-2.9365382,Yandiola Jatetxea,Arriquibar plaza 4,Bilbao
restaurant,43.2650002,-2.9503923,NO NAME,NO STREET 9999,Bilbao
restaurant,43.292937,-2.9848836,El Bocata de la Abuela,NO STREET 9999,Bilbao
restaurant,43.2942929,-2.9929193,Jardín feliz,NO STREET 9999,Bilbao
restaurant,43.2416473,-2.9947684,Elkartegi berria,Calle Loibi 9999,Bilbao
restaurant,43.2355949,-3.0091592,Albokak,NO STREET 9999,Bilbao
restaurant,43.2596776,-2.9467547,NO NAME,Trenbideko etorbidea / Avenida del Ferrocarril 2A,Bilbao
restaurant,43.2909811,-2.8853938,Döner Kebab de Derio,Euskalerria kalea 9999,Bilbao
restaurant,43.3653651,-3.0091886,Basalbo Baserria,Martiturri Estrata 18,Bilbao
restaurant,43.2591005,-2.9369417,Arpiku,Fernández del Campo kalea 9999,Bilbao
restaurant,43.2991798,-2.9222759,Zerurena Jatetxea,Errementeria kalea 22,Bilbao
restaurant,43.3246159,-3.0143136,Oh! Sushi,Amistad Kalea 9999,Bilbao
restaurant,43.277457,-2.9733983,Arsenio,NO STREET 9999,Bilbao
restaurant,43.2766478,-2.9743375,La viña de oro,NO STREET 9999,Bilbao
restaurant,43.2509615,-2.9426078,La encina,Carretera Errekalde-Larraskitu / Errekalde-Larraskitu errepidea 9999,Bilbao
restaurant,43.2762798,-2.9717708,Restaurante chino Zorroza,Calle Astillero 9999,Bilbao
restaurant,43.2763541,-2.9719457,Mesón Luna,NO STREET 9999,Bilbao
restaurant,43.276745,-2.9738105,Mesón Luna,NO STREET 9999,Bilbao
restaurant,43.2638642,-3.0154812,Errekatxo,NO STREET 9999,Bilbao
restaurant,43.2636063,-3.0149401,Sidrería San Roque,NO STREET 9999,Bilbao
restaurant,43.2865733,-3.0070516,Kareaga 79,Calle Kareaga 79,Bilbao
restaurant,43.2700162,-2.9770905,El marqués de Zubi,NO STREET 9999,Bilbao
restaurant,43.2565388,-2.9363344,Mesón Concha,Calle General Concha / Concha jeneralaren kalea 9999,Bilbao
restaurant,43.26723,-2.9435199,Eneko Bilbao,Palacio Euskalduna. Abandoibarra jalea 4,Bilbao
restaurant,43.2895601,-2.9771986,Harri jatetxea,NO STREET 9999,Bilbao
restaurant,43.2081048,-2.8864281,Mesón,NO STREET 9999,Bilbao
restaurant,43.2633091,-2.9251894,Ohana,Acebal Idigoras kalea 9999,Bilbao
restaurant,43.2757697,-2.9719802,Mesón Okondo,Kastrexana etorbidea 9999,Bilbao
restaurant,43.270021,-2.9445815,Génova,Calle Blas de Otero / Blas de Otero kalea 9999,Bilbao
restaurant,43.2699272,-2.9470475,Asador Toki ona,Calle Blas de Otero / Blas de Otero kalea 9999,Bilbao
restaurant,43.2697793,-2.9502376,La tortilla,Calle Blas de Otero / Blas de Otero kalea 9999,Bilbao
restaurant,43.2697609,-2.9506871,Otero,Calle Blas de Otero / Blas de Otero kalea 9999,Bilbao
restaurant,43.262519,-2.9423994,100 Montaditos,Calle Licenciado Poza / Poza lizentziatuaren kalea 9999,Bilbao
restaurant,43.2985506,-2.8854651,Aldekone jatetxea,Goikoetxe kalea 9999,Bilbao
restaurant,43.2294961,-2.8420216,Bai&Bai,Juan Sebastian Elkano Kalea 3,Bilbao
restaurant,43.230257,-2.8420583,Somerako Labea,Gipuzkoa Kalea 1,Bilbao
restaurant,43.2656755,-2.9326186,Las Lías,Calle Juan Ajuriaguerra / Juan Ajuriaguerra kalea 14,Bilbao
restaurant,43.2651558,-2.9300782,La Roca,Calle Ercilla / Ercilla kalea 1,Bilbao
restaurant,43.298108,-2.9820164,Restaurante Palacio Larrea Berria,NO STREET 9999,Bilbao
restaurant,43.2653921,-2.9348463,Balicana Lounge,Calle Henao / Henao kalea 40,Bilbao
restaurant,43.3481518,-3.0084569,Taroku,NO STREET 9999,Bilbao
restaurant,43.3252321,-3.0146264,El rincón de la reja,Cordeleria Kalea 2,Bilbao
restaurant,43.3255605,-3.0136874,Kazuela,NO STREET 9999,Bilbao
restaurant,43.3398908,-3.0157076,The Mexican,NO STREET 9999,Bilbao
restaurant,43.3399288,-3.0157652,La Fontana,NO STREET 9999,Bilbao
restaurant,43.339963,-3.0158108,Stadium,NO STREET 9999,Bilbao
restaurant,43.34,-3.0158712,Madras,NO STREET 9999,Bilbao
restaurant,43.3400488,-3.0159423,King Doner Kebab,NO STREET 9999,Bilbao
restaurant,43.3486756,-3.0098809,Mandrágora,Alangobarri Kalea 9,Bilbao
restaurant,43.3274103,-2.9891012,In & Out,Calle Estartetxe 8,Bilbao
restaurant,43.2553971,-2.9273336,Sokarrat,Calle San Francisco / San Frantzisko kalea 21,Bilbao
restaurant,43.3395532,-3.0154001,Iturrizaga,NO STREET 9999,Bilbao
restaurant,43.3393742,-3.0151159,Cabo Matxitxako,NO STREET 9999,Bilbao
restaurant,43.3394333,-3.0152135,Gran Cabo,NO STREET 9999,Bilbao
restaurant,43.3440219,-3.0118559,Brasserie,NO STREET 9999,Bilbao
restaurant,43.3442954,-3.0119047,Veranda,NO STREET 9999,Bilbao
restaurant,43.3430699,-3.0117807,Tamarises Izarra,NO STREET 9999,Bilbao
restaurant,43.3432517,-3.0116974,Tamarises Bistrot,NO STREET 9999,Bilbao
restaurant,43.2800291,-2.8298812,Bolaleku,NO STREET 9999,Bilbao
restaurant,43.280281,-2.8293984,Lejarrene,NO STREET 9999,Bilbao
restaurant,43.2770726,-2.8440699,Jantoki,NO STREET 9999,Bilbao
restaurant,43.2393379,-2.8865968,Pozokoetxe,NO STREET 9999,Bilbao
restaurant,43.2409802,-2.8791441,La competencia,NO STREET 9999,Bilbao
restaurant,43.2681981,-2.9239562,Matiko Berria,NO STREET 9999,Bilbao
restaurant,43.3172564,-2.9842525,Cervecera El Trenti,Calle Consulado de Bilbao 9999,Bilbao
restaurant,43.2968071,-2.9914732,El cajón desastre,NO STREET 9999,Bilbao
restaurant,43.2816242,-2.9835744,Plaza,Plaza de Cruces / Gurutzeta plaza 9999,Bilbao
restaurant,43.2679909,-2.9385491,NO NAME,Plaza Euskadi / Euskadi plaza 5,Bilbao
restaurant,43.2674458,-2.9384891,Oceánico Sushi Bar,Plaza Euskadi / Euskadi plaza 4,Bilbao
restaurant,43.2669833,-2.9272417,Zubizuri,Campo Volantin pasealekua / Paseo Campo Volantín 23,Bilbao
restaurant,43.2664786,-2.9292874,Indian town,NO STREET 9999,Bilbao
restaurant,43.2825738,-2.9821505,Itxaso,NO STREET 9999,Bilbao
restaurant,43.3364388,-3.0024382,NO NAME,NO STREET 9999,Bilbao
restaurant,43.2571649,-2.9252763,Surfing Tacos,Calle Barrenkale Barrena / Barrenkale Barrena 12,Bilbao
restaurant,43.301935,-2.9829243,Belce Burger,Plazuela de Las Fundiciones 9999,Bilbao
restaurant,43.3264118,-3.0060578,Paris,NO STREET 9999,Bilbao
restaurant,43.3400451,-3.0021582,Dando la brasa restaurante,NO STREET 9999,Bilbao
restaurant,43.3226671,-3.0087614,The Wok House,NO STREET 9999,Bilbao
restaurant,43.2621162,-2.9265257,Oh Bilbao,Calle Colón de Larreategui / Colon de Larreategui kalea 9999,Bilbao
restaurant,43.3255786,-3.0143747,Heidelberg,NO STREET 9999,Bilbao
restaurant,43.3250391,-3.0149796,La Tagliatella,Amistad kalea 9,Bilbao
restaurant,43.324396,-3.0143986,Pulcinella,NO STREET 9999,Bilbao
restaurant,43.2369125,-2.8882711,Pagomakurre,Autonomia kalea 9999,Bilbao
restaurant,43.2670434,-2.9350348,Abadia,NO STREET 9999,Bilbao
restaurant,43.3479549,-3.0094589,MyStory Algorta,Alangobarri Kalea 4,Bilbao
restaurant,43.284106,-2.9829084,Asia Gao,NO STREET 9999,Bilbao
bar,43.3547475,-2.8467671,NO NAME,NO STREET 9999,Bilbao
bar,43.2586397,-2.9365326,Ze,NO STREET 9999,Bilbao
bar,43.3525422,-3.0058628,Iturgitxi,NO STREET 9999,Bilbao
bar,43.352388,-3.0057446,Azkorri,NO STREET 9999,Bilbao
bar,43.3492224,-3.0103377,Eneko,NO STREET 9999,Bilbao
bar,43.3493104,-3.0102731,Manhattan,NO STREET 9999,Bilbao
bar,43.3492723,-3.010681,Getxo,NO STREET 9999,Bilbao
bar,43.3514117,-3.0120457,Ajuria,NO STREET 9999,Bilbao
bar,43.3515603,-3.0122329,La plaza,NO STREET 9999,Bilbao
bar,43.349399,-3.0146124,NO NAME,NO STREET 9999,Bilbao
bar,43.2591308,-2.9370779,Alhondegi,NO STREET 9999,Bilbao
bar,43.3277348,-3.0091217,Romo Tabern,NO STREET 9999,Bilbao
bar,43.3266392,-3.0081255,Arotza,NO STREET 9999,Bilbao
bar,43.2501173,-2.9302219,Gambrinus,NO STREET 9999,Bilbao
bar,43.2503583,-2.928002,5th Avenue,NO STREET 9999,Bilbao
bar,43.2508057,-2.9315499,Sugoi,NO STREET 9999,Bilbao
bar,43.2403524,-2.9226366,Ferrobarril,NO STREET 9999,Bilbao
bar,43.2409902,-2.9225078,El Barrilito,NO STREET 9999,Bilbao
bar,43.2612047,-2.92674,La Casa del Ibérico,NO STREET 9999,Bilbao
bar,43.261162,-2.9256736,Bar Lar,NO STREET 9999,Bilbao
bar,43.2613738,-2.9252746,Kaia,NO STREET 9999,Bilbao
bar,43.2623044,-2.928722,Ledesma,NO STREET 9999,Bilbao
bar,43.2623182,-2.928817,Antomar,NO STREET 9999,Bilbao
bar,43.2623359,-2.9289022,Bar Hipódromo,NO STREET 9999,Bilbao
bar,43.2640851,-2.9351525,Bar 70,NO STREET 9999,Bilbao
bar,43.3498404,-3.0121887,Alkartetxe,NO STREET 9999,Bilbao
bar,43.350751,-3.0119347,Sustrai taberna,NO STREET 9999,Bilbao
bar,43.3508663,-3.0119592,Jaioberria taberna,NO STREET 9999,Bilbao
bar,43.3520779,-3.0089805,Patxeko Etxea,NO STREET 9999,Bilbao
bar,43.2581612,-2.9367872,Kanpantxu,NO STREET 9999,Bilbao
bar,43.2749244,-2.9570764,Noiz...?,NO STREET 9999,Bilbao
bar,43.2607332,-2.9454603,Sela,Calle Simón Bolívar / Simon Bolivar kalea 27,Bilbao
bar,43.3274782,-3.0110795,Glass,NO STREET 9999,Bilbao
bar,43.3170069,-3.0160188,NO NAME,Calle La Vid Kalea 8,Bilbao
bar,43.315326,-3.0175186,NO NAME,Grupo El Progreso 41,Bilbao
bar,43.2388452,-2.8804699,Taboada,NO STREET 9999,Bilbao
bar,43.234563,-2.8886592,Gambrinus,NO STREET 9999,Bilbao
bar,43.2317918,-2.8501735,Torres,NO STREET 9999,Bilbao
bar,43.2319332,-2.8500269,Lorea,NO STREET 9999,Bilbao
bar,43.2488306,-2.9272094,Bil&Boss,NO STREET 9999,Bilbao
bar,43.3269516,-3.0095766,Amaya,NO STREET 9999,Bilbao
bar,43.3274382,-3.0101889,Jai-Alai,NO STREET 9999,Bilbao
bar,43.3330036,-3.0063812,El Tablón,NO STREET 9999,Bilbao
bar,43.3296123,-3.0052378,Iker,NO STREET 9999,Bilbao
bar,43.3295284,-3.0051372,Gobelaurre,NO STREET 9999,Bilbao
bar,43.3271114,-3.009362,Koldo,NO STREET 9999,Bilbao
bar,43.3271538,-3.0092887,Metal Urdin,NO STREET 9999,Bilbao
bar,43.327231,-3.0074753,Herriko Taberna,NO STREET 9999,Bilbao
bar,43.326616,-3.0069829,Kandilejas,NO STREET 9999,Bilbao
bar,43.3275401,-3.0116636,Irrintzi,NO STREET 9999,Bilbao
bar,43.3276433,-3.0115174,La tortilla del Galatea,NO STREET 9999,Bilbao
bar,43.3253157,-3.0105991,Batzoki,NO STREET 9999,Bilbao
bar,43.2347834,-2.8834653,Molinos,NO STREET 9999,Bilbao
bar,43.2348733,-2.883476,Ibai,NO STREET 9999,Bilbao
bar,43.2468746,-2.8923832,Bar True Colours,Calle Sabino Arana y Goiri 6,Bilbao
bar,43.3579268,-3.0095966,Taberna Akeita,NO STREET 9999,Bilbao
bar,43.3200417,-2.9883425,Sustraeberri taberna,Avenida Sabino Arana 20,Bilbao
bar,43.2903252,-2.9787478,Juanitoren Taberna,NO STREET 9999,Bilbao
bar,43.2905126,-2.9793487,Hermanos Bilbao Taberna,NO STREET 9999,Bilbao
bar,43.2902158,-2.9784903,Bar Alicia,NO STREET 9999,Bilbao
bar,43.2970649,-2.8850517,NO NAME,NO STREET 9999,Bilbao
bar,43.2915614,-2.8866731,Adarue,Euskalerria kalea 9999,Bilbao
bar,43.2919519,-2.8863084,Devon's tabern,NO STREET 9999,Bilbao
bar,43.2972716,-2.8858658,NO NAME,NO STREET 9999,Bilbao
bar,43.2988079,-2.8868555,NO NAME,NO STREET 9999,Bilbao
bar,43.2970894,-2.8853141,NO NAME,NO STREET 9999,Bilbao
bar,43.2920796,-2.8886734,Irish Tavern Udondo,NO STREET 9999,Bilbao
bar,43.3622478,-2.9951913,NO NAME,NO STREET 9999,Bilbao
bar,43.3609039,-2.9972248,NO NAME,NO STREET 9999,Bilbao
bar,43.3213405,-3.0348181,Granada,NO STREET 9999,Bilbao
bar,43.3213839,-3.0356546,Zuloak,NO STREET 9999,Bilbao
bar,43.2560961,-2.9104167,Bar Sol,NO STREET 9999,Bilbao
bar,43.2562153,-2.9099983,NO NAME,NO STREET 9999,Bilbao
bar,43.2554789,-2.9099071,Aboy,NO STREET 9999,Bilbao
bar,43.2468278,-2.8925131,Bar Atutxa,Calle Sabino Arana y Goiri 1,Bilbao
bar,43.2625724,-2.9426638,El Kopón de Pozas,NO STREET 9999,Bilbao
bar,43.2624897,-2.9422835,Muskitza,NO STREET 9999,Bilbao
bar,43.2621588,-2.9418398,Zaharra,NO STREET 9999,Bilbao
bar,43.2625954,-2.9416797,Bar Estraunza,NO STREET 9999,Bilbao
bar,43.2623985,-2.9417429,Ziripot,NO STREET 9999,Bilbao
bar,43.2624985,-2.9363347,Gure,NO STREET 9999,Bilbao
bar,43.2686142,-2.9166785,Olga,NO STREET 9999,Bilbao
bar,43.2620035,-2.9326297,El Embrujo de Bilbao,NO STREET 9999,Bilbao
bar,43.2613024,-2.9329822,SOHO,NO STREET 9999,Bilbao
bar,43.2589547,-2.940063,El Boti,Calle Aureliano Valle / Aureliano Valle kalea 9999,Bilbao
bar,43.2598193,-2.9400659,d'Paso,NO STREET 9999,Bilbao
bar,43.2708487,-2.9714611,Santer,NO STREET 9999,Bilbao
bar,43.2713701,-2.9704526,El otro,NO STREET 9999,Bilbao
bar,43.2721355,-2.9698251,La parada,NO STREET 9999,Bilbao
bar,43.252891,-2.9462031,Los Hermanos,NO STREET 9999,Bilbao
bar,43.1998362,-3.0484841,Gurea,NO STREET 9999,Bilbao
bar,43.1996737,-3.0484693,Inma,NO STREET 9999,Bilbao
bar,43.2906857,-2.9983439,El Rincón de la Cerveza,NO STREET 9999,Bilbao
bar,43.3046257,-3.0366142,Bar Gol,Avenida 1º de Mayo/Maiatzaren 1a etorbidea 5,Bilbao
bar,43.3015129,-3.0304085,Bar La Estación,NO STREET 9999,Bilbao
bar,43.3037599,-3.036244,Karrantza taberna,Calle Etxepare / Etxepare kalea 1,Bilbao
bar,43.3031345,-3.0349162,Coco's,NO STREET 9999,Bilbao
bar,43.3036374,-3.034156,Bar La Abuela,NO STREET 9999,Bilbao
bar,43.3027295,-3.0344898,Bar Rincón,NO STREET 9999,Bilbao
bar,43.3039747,-3.035215,Bar Frontón,NO STREET 9999,Bilbao
bar,43.303357,-3.0355984,Go's,NO STREET 9999,Bilbao
bar,43.2622846,-2.9159115,Petit Stop,NO STREET 9999,Bilbao
bar,43.2627033,-2.9163112,Lube,NO STREET 9999,Bilbao
bar,43.2593088,-2.942913,Lago,NO STREET 9999,Bilbao
bar,43.2590721,-2.9429611,Rego,Calle Pérez Galdós / Perez Galdos kalea 9999,Bilbao
bar,43.2976886,-2.9260051,NO NAME,NO STREET 9999,Bilbao
bar,43.2655283,-2.9320573,NO NAME,NO STREET 9999,Bilbao
bar,43.2657657,-2.9330996,NO NAME,NO STREET 9999,Bilbao
bar,43.2658378,-2.9334342,Las Cepas,Calle Juan Ajuriaguerra / Juan Ajuriaguerra kalea 22,Bilbao
bar,43.2586633,-2.9225337,Bilbao,NO STREET 9999,Bilbao
bar,43.2554189,-2.91282,El Refugio,NO STREET 9999,Bilbao
bar,43.2554539,-2.9135461,Etxadi,NO STREET 9999,Bilbao
bar,43.2556302,-2.9131679,NO NAME,NO STREET 9999,Bilbao
bar,43.2585868,-2.9236143,Kapikua,NO STREET 9999,Bilbao
bar,43.2577291,-2.9244925,Rotterdam,NO STREET 9999,Bilbao
bar,43.257708,-2.9247843,Txakurto,Calle del Perro / Txakur kalea 9999,Bilbao
bar,43.2563874,-2.9195817,Curro,NO STREET 9999,Bilbao
bar,43.2571409,-2.9199623,Juantxu,NO STREET 9999,Bilbao
bar,43.2553105,-2.9202497,Luna,NO STREET 9999,Bilbao
bar,43.2554304,-2.9200213,Sorkunde,NO STREET 9999,Bilbao
bar,43.2561208,-2.9189667,Txirri,NO STREET 9999,Bilbao
bar,43.2586237,-2.9215305,Geltoki,NO STREET 9999,Bilbao
bar,43.2581092,-2.9212698,Fermin,NO STREET 9999,Bilbao
bar,43.2581158,-2.9211149,Gayarre,NO STREET 9999,Bilbao
bar,43.2581166,-2.9210425,La Espuela,NO STREET 9999,Bilbao
bar,43.2584666,-2.9438448,Botxito,NO STREET 9999,Bilbao
bar,43.258503,-2.9212089,Bacaicoa,NO STREET 9999,Bilbao
bar,43.2593598,-2.9222595,Sorginzulo,Plaza Nueva / Plaza Barria 12 bajo,Bilbao
bar,43.2579733,-2.9436455,Basoa,NO STREET 9999,Bilbao
bar,43.2766684,-2.9616039,Anaiak,NO STREET 9999,Bilbao
bar,43.2766586,-2.9616397,Andanetxe,Calle Navarro Villoslada / Navarro Villoslada kalea 9999,Bilbao
bar,43.2806881,-2.959161,Fontibre,NO STREET 9999,Bilbao
bar,43.2765983,-2.9610975,Joseba,NO STREET 9999,Bilbao
bar,43.2765723,-2.9610778,Juantxu,NO STREET 9999,Bilbao
bar,43.2761118,-2.9613603,Olivo,NO STREET 9999,Bilbao
bar,43.2625011,-2.9635653,Altamira,NO STREET 9999,Bilbao
bar,43.2913531,-2.989607,Dehesa de Don Saturnino,NO STREET 9999,Bilbao
bar,43.2614421,-2.9225606,Claudio,Calle Esperanza / Itxaropen kalea 19,Bilbao
bar,43.2608487,-2.9224336,La cañita,NO STREET 9999,Bilbao
bar,43.2607558,-2.9222274,Ocariz,NO STREET 9999,Bilbao
bar,43.2578833,-2.9215868,Baste,NO STREET 9999,Bilbao
bar,43.2597528,-2.9220424,Cafe Melchor,NO STREET 9999,Bilbao
bar,43.2619463,-2.9225576,Hator,NO STREET 9999,Bilbao
bar,43.2579955,-2.9214957,Lau anai,NO STREET 9999,Bilbao
bar,43.2590218,-2.9220225,Los Caracoles,NO STREET 9999,Bilbao
bar,43.2596476,-2.9220002,Mesón El Ciervo,NO STREET 9999,Bilbao
bar,43.2579325,-2.9215444,Muga,NO STREET 9999,Bilbao
bar,43.2597949,-2.922058,Salón de Juego,NO STREET 9999,Bilbao
bar,43.2578501,-2.9216104,Sugoiberria,NO STREET 9999,Bilbao
bar,43.259701,-2.9220246,Taberna Ascao,NO STREET 9999,Bilbao
bar,43.2602336,-2.9221802,Yamike!,NO STREET 9999,Bilbao
bar,43.2612933,-2.9223667,Kantabrico,NO STREET 9999,Bilbao
bar,43.2577517,-2.9216717,100 montaditos,NO STREET 9999,Bilbao
bar,43.3202602,-2.986499,Bar Udondo,NO STREET 9999,Bilbao
bar,43.26086,-2.9461016,Las Torres,NO STREET 9999,Bilbao
bar,43.2612511,-2.9475485,Mikel,NO STREET 9999,Bilbao
bar,43.2610302,-2.9484926,Pitxitxi,NO STREET 9999,Bilbao
bar,43.2616561,-2.9479151,Raterpe,NO STREET 9999,Bilbao
bar,43.3272785,-3.011991,Bar Atrio,NO STREET 9999,Bilbao
bar,43.2926996,-2.9880975,Zara,NO STREET 9999,Bilbao
bar,43.2619441,-2.9326563,El Globo,NO STREET 9999,Bilbao
bar,43.2615957,-2.9327645,La Olla,NO STREET 9999,Bilbao
bar,43.2616372,-2.9327413,La Viña del Ensanche,Calle Diputación / Diputazio kalea 10,Bilbao
bar,43.2594282,-2.9228587,Argoitia,NO STREET 9999,Bilbao
bar,43.258827,-2.9223358,Charly,NO STREET 9999,Bilbao
bar,43.2593874,-2.922382,Ekain,Plaza Nueva / Plaza Barria 12,Bilbao
bar,43.2587339,-2.9225953,Erreka,NO STREET 9999,Bilbao
bar,43.2593874,-2.9223102,Gure Toki,Plaza Nueva / Plaza Barria 12,Bilbao
bar,43.2593939,-2.9224509,Inma,NO STREET 9999,Bilbao
bar,43.2590538,-2.9230524,Jamonería Jam,NO STREET 9999,Bilbao
bar,43.2589791,-2.9223129,Plaza Nueva,NO STREET 9999,Bilbao
bar,43.2587491,-2.9227237,Urdiña,NO STREET 9999,Bilbao
bar,43.2587556,-2.9227912,Volapie,NO STREET 9999,Bilbao
bar,43.2588492,-2.9230938,Zaharra,NO STREET 9999,Bilbao
bar,43.2591541,-2.9222884,Zezen Gorri,NO STREET 9999,Bilbao
bar,43.258773,-2.9229632,Zuga,NO STREET 9999,Bilbao
bar,43.2592131,-2.9144963,Bar Amatxo,Begoñako Andra Mari kalea 45,Bilbao
bar,43.2592687,-2.9147767,Pagoa Café,Begoñako Andra Mari kalea 43,Bilbao
bar,43.2621306,-2.9287493,Artajo,Calle Ledesma / Ledesma kalea 7,Bilbao
bar,43.3266468,-3.0083818,El museo,NO STREET 9999,Bilbao
bar,43.3265672,-3.0079542,La mona,NO STREET 9999,Bilbao
bar,43.3268985,-3.0084863,Zer nahi,NO STREET 9999,Bilbao
bar,43.3266183,-3.0088317,Andros,NO STREET 9999,Bilbao
bar,43.2496349,-2.9480285,Bar Pofer,NO STREET 9999,Bilbao
bar,43.2916645,-2.8874582,Batzokia,Euskalerria kalea 2,Bilbao
bar,43.3025355,-3.0347556,La Gramola,NO STREET 9999,Bilbao
bar,43.3020783,-3.0331916,Taberna Arana,NO STREET 9999,Bilbao
bar,43.3019639,-3.033086,La Pinta,Plaza Ciudad de La Habana 3,Bilbao
bar,43.3016384,-3.0330868,Gautxori,NO STREET 9999,Bilbao
bar,43.2913742,-3.0159793,Bar Erdikoa,NO STREET 9999,Bilbao
bar,43.2917078,-3.0157846,Vigiola,NO STREET 9999,Bilbao
bar,43.3040415,-3.035069,Taberna Ongi Etorri,Calle Navas de Tolosa 4,Bilbao
bar,43.3026704,-3.0342851,Muga,NO STREET 9999,Bilbao
bar,43.3023404,-3.033409,Lertxundi,NO STREET 9999,Bilbao
bar,43.3021289,-3.03404,Happy,NO STREET 9999,Bilbao
bar,43.3016202,-3.0347836,Bar Ciclista,NO STREET 9999,Bilbao
bar,43.2839552,-2.9952047,Bar Mendialde,NO STREET 9999,Bilbao
bar,43.2584546,-2.9212327,Cervecería Casco Viejo,Plaza Miguel De Unamuno / Miguel de Unamuno plaza 2,Bilbao
bar,43.2582593,-2.9212823,The Beetle Bar,Plaza Miguel De Unamuno / Miguel de Unamuno plaza 3,Bilbao
bar,43.2557231,-2.9258604,Marzana,Martzana kalea 16,Bilbao
bar,43.2625428,-2.9313651,La Antigua Cigarreria,NO STREET 9999,Bilbao
bar,43.2626125,-2.9310612,Promenade,NO STREET 9999,Bilbao
bar,43.2616823,-2.9408935,Joserra,Calle Indautxu / Indautxu kalea 9999,Bilbao
bar,43.2617132,-2.9410693,PH7,NO STREET 9999,Bilbao
bar,43.3527232,-3.0141642,Lau Bide,NO STREET 9999,Bilbao
bar,43.3193376,-3.0186923,La Bodega,NO STREET 9999,Bilbao
bar,43.2678546,-2.9251031,Plaza Moraza,NO STREET 9999,Bilbao
bar,43.2637399,-2.9287107,Jardines,NO STREET 9999,Bilbao
bar,43.3036568,-3.0365217,Pozo Barria,Calle Etxepare / Etxepare kalea 3,Bilbao
bar,43.2718029,-2.9647816,Don César,NO STREET 9999,Bilbao
bar,43.2705047,-2.9640025,Santi,NO STREET 9999,Bilbao
bar,43.2640424,-3.0166593,Bar Igor,NO STREET 9999,Bilbao
bar,43.2644943,-3.0167221,Taberna Txikia,NO STREET 9999,Bilbao
bar,43.2724971,-2.9949366,Sociedad cultural Gorostiza,NO STREET 9999,Bilbao
bar,43.3313546,-3.033914,Kai Berri,NO STREET 9999,Bilbao
bar,43.2532033,-2.9148516,Dacca,NO STREET 9999,Bilbao
bar,43.2530076,-2.9147654,Gaineko,NO STREET 9999,Bilbao
bar,43.2530562,-2.9147839,Haritza,NO STREET 9999,Bilbao
bar,43.3151925,-3.016581,degustacion,NO STREET 9999,Bilbao
bar,43.3212696,-3.0245887,Kappleman,NO STREET 9999,Bilbao
bar,43.3234936,-3.0246723,NO NAME,NO STREET 9999,Bilbao
bar,43.3237404,-3.0251873,NO NAME,NO STREET 9999,Bilbao
bar,43.3242206,-3.0256666,NO NAME,NO STREET 9999,Bilbao
bar,43.3203877,-3.0184037,NO NAME,NO STREET 9999,Bilbao
bar,43.3234453,-3.0298035,Bar Restaurante Asador Airiños,NO STREET 9999,Bilbao
bar,43.3235753,-3.0298616,La Cuesta,NO STREET 9999,Bilbao
bar,43.3235339,-3.0193876,Ketxikola,NO STREET 9999,Bilbao
bar,43.3238697,-3.0196231,Suregui,NO STREET 9999,Bilbao
bar,43.3224273,-3.0276713,Vaquero,NO STREET 9999,Bilbao
bar,43.3231912,-3.0263933,Txurrero,NO STREET 9999,Bilbao
bar,43.3229783,-3.0259597,Cisneros,NO STREET 9999,Bilbao
bar,43.2647805,-2.932152,Caprico,Calle Henao / Henao kalea 9999,Bilbao
bar,43.323051,-3.0241818,NO NAME,NO STREET 9999,Bilbao
bar,43.3230691,-3.0242763,NO NAME,NO STREET 9999,Bilbao
bar,43.3214133,-3.020401,Belaitz,NO STREET 9999,Bilbao
bar,43.3214806,-3.0199608,Dowell's,NO STREET 9999,Bilbao
bar,43.322902,-3.0268088,Azul,NO STREET 9999,Bilbao
bar,43.3238854,-3.0265573,Rua,NO STREET 9999,Bilbao
bar,43.3237984,-3.0263502,NO NAME,NO STREET 9999,Bilbao
bar,43.3214524,-3.0182594,Batzoki,NO STREET 9999,Bilbao
bar,43.3209989,-3.0185873,Bodega Riojana,NO STREET 9999,Bilbao
bar,43.3218729,-3.0181053,Izar Gorria,NO STREET 9999,Bilbao
bar,43.3176892,-3.0223982,Kioun,NO STREET 9999,Bilbao
bar,43.3178718,-3.0222883,Roque Deuna,NO STREET 9999,Bilbao
bar,43.3179022,-3.0219766,Cantábrico,NO STREET 9999,Bilbao
bar,43.3178678,-3.0219381,El Bodegón,NO STREET 9999,Bilbao
bar,43.3177475,-3.0218003,Mesón Bilbao,NO STREET 9999,Bilbao
bar,43.2929479,-2.9871637,Bar Enrique,NO STREET 9999,Bilbao
bar,43.1998538,-3.0481148,Hamburguesería Dani,NO STREET 9999,Bilbao
bar,43.2577978,-2.9216448,Soiz 3,NO STREET 9999,Bilbao
bar,43.2961005,-2.9867862,Batzoki Barakaldo,NO STREET 9999,Bilbao
bar,43.2809158,-2.9627908,Malibú,NO STREET 9999,Bilbao
bar,43.2646734,-2.9434244,Plaza,NO STREET 9999,Bilbao
bar,43.2959766,-2.998429,Bar Unión Sport,NO STREET 9999,Bilbao
bar,43.3246186,-3.0140936,La Dehesa,Amistad Kalea 4,Bilbao
bar,43.1998855,-3.0476293,Botella Berri,NO STREET 9999,Bilbao
bar,43.2972634,-2.9881594,La Tabernita del Ron,NO STREET 9999,Bilbao
bar,43.2934353,-2.9899194,Bar Lombardía,NO STREET 9999,Bilbao
bar,43.3002331,-2.9929545,Bar Sollube,NO STREET 9999,Bilbao
bar,43.2960703,-2.9899772,La Bodeguilla,NO STREET 9999,Bilbao
bar,43.2945654,-2.9858612,Costa del Sol,NO STREET 9999,Bilbao
bar,43.2993939,-2.9928668,Bar Sotera,NO STREET 9999,Bilbao
bar,43.2969888,-2.9911148,Bar Chaplin,NO STREET 9999,Bilbao
bar,43.2972405,-2.9914239,Bar Ale,NO STREET 9999,Bilbao
bar,43.2972892,-2.9915719,Chema's Bar,NO STREET 9999,Bilbao
bar,43.2604267,-2.9239653,El Kiosko,NO STREET 9999,Bilbao
bar,43.2962888,-2.9914753,Bar Errioxa,NO STREET 9999,Bilbao
bar,43.2553829,-2.9263787,Bihotz Café,Aretxaga kalea 7,Bilbao
bar,43.256647,-2.928559,La Gernikesa Mariscos,Calle Hernani / Hernani kalea 11,Bilbao
bar,43.2564034,-2.9292322,Ederki,Calle Hernani / Hernani kalea 26,Bilbao
bar,43.2649531,-2.9330092,Oldays,Calle Henao / Henao kalea 30,Bilbao
bar,43.2648907,-2.9327062,Sacacorchos,Calle Henao / Henao kalea 28,Bilbao
bar,43.2653461,-2.9324853,Mr. Maravelous,NO STREET 9999,Bilbao
bar,43.2659167,-2.9322507,Morrocotuda,NO STREET 9999,Bilbao
bar,43.2656289,-2.9323875,Monty,NO STREET 9999,Bilbao
bar,43.265631,-2.9324962,Sisniega,NO STREET 9999,Bilbao
bar,43.2660634,-2.9351423,La Embajada,NO STREET 9999,Bilbao
bar,43.2658727,-2.9352514,Basoa,NO STREET 9999,Bilbao
bar,43.2654193,-2.935113,The Zen Tavern,NO STREET 9999,Bilbao
bar,43.2652762,-2.9352787,The Life Tavern,NO STREET 9999,Bilbao
bar,43.2651253,-2.9345549,La Viña,NO STREET 9999,Bilbao
bar,43.2649954,-2.9338747,Ametza,Calle Henao / Henao kalea 25,Bilbao
bar,43.3032173,-2.975987,tahona,NO STREET 9999,Bilbao
bar,43.3032056,-2.976048,bostak,NO STREET 9999,Bilbao
bar,43.3058056,-2.971349,Zerunight,NO STREET 9999,Bilbao
bar,43.3056806,-2.9712769,Zerunight,NO STREET 9999,Bilbao
bar,43.3056531,-2.9722093,Itzal,NO STREET 9999,Bilbao
bar,43.3055131,-2.9721596,Itzal,NO STREET 9999,Bilbao
bar,43.3055503,-2.9726692,Zortzi cafe,NO STREET 9999,Bilbao
bar,43.305434,-2.9725992,zortzi cafe,NO STREET 9999,Bilbao
bar,43.3041364,-2.971607,Bar,NO STREET 9999,Bilbao
bar,43.303427,-2.9714806,Sol y sombra,NO STREET 9999,Bilbao
bar,43.3039204,-2.9721823,Tupi,NO STREET 9999,Bilbao
bar,43.3037898,-2.9728951,Bekoa,NO STREET 9999,Bilbao
bar,43.3037958,-2.9733374,Bar,NO STREET 9999,Bilbao
bar,43.3037648,-2.9734991,Bar,NO STREET 9999,Bilbao
bar,43.3020758,-2.9752811,Manu,NO STREET 9999,Bilbao
bar,43.3025408,-2.9748927,Montxu,NO STREET 9999,Bilbao
bar,43.3043772,-2.9749533,Santi Taberna,NO STREET 9999,Bilbao
bar,43.3043074,-2.9749587,NO NAME,NO STREET 9999,Bilbao
bar,43.303726,-2.973702,Irrintzi,NO STREET 9999,Bilbao
bar,43.3036952,-2.9738629,Zelaia,NO STREET 9999,Bilbao
bar,43.3039189,-2.9739958,Bodeguilla Riojana,NO STREET 9999,Bilbao
bar,43.3036382,-2.973677,NO NAME,NO STREET 9999,Bilbao
bar,43.3035883,-2.9739344,Lezana,NO STREET 9999,Bilbao
bar,43.3023793,-2.9756058,Plaza Taberna,NO STREET 9999,Bilbao
bar,43.3043996,-2.971505,Aliron,NO STREET 9999,Bilbao
bar,43.3051677,-2.9715635,Nebrasca,NO STREET 9999,Bilbao
bar,43.2631629,-2.9419044,Boss,NO STREET 9999,Bilbao
bar,43.2632792,-2.9489327,Bar Campa de Los Ingleses,NO STREET 9999,Bilbao
bar,43.2785302,-2.9582568,Club Mixto de Mayores,Calle Toribia Alzaga / Toribio Alzaga kalea 9999,Bilbao
bar,43.2784949,-2.9581314,Bar Degustación Kerman,Calle Orixe / Orixe kalea 9999,Bilbao
bar,43.2794182,-2.961881,La Vega,NO STREET 9999,Bilbao
bar,43.2782989,-2.9595496,Bar Txikia,NO STREET 9999,Bilbao
bar,43.279101,-2.9605562,Tapujo,NO STREET 9999,Bilbao
bar,43.2773958,-2.9598119,NO NAME,NO STREET 9999,Bilbao
bar,43.2771909,-2.9596887,NO NAME,NO STREET 9999,Bilbao
bar,43.2771533,-2.959661,NO NAME,NO STREET 9999,Bilbao
bar,43.280126,-2.9584845,Geltoki,NO STREET 9999,Bilbao
bar,43.3021253,-2.9865205,Bar Estadio Lasesarre Barakaldo CF,NO STREET 9999,Bilbao
bar,43.2506004,-2.9091093,artagan 2,NO STREET 9999,Bilbao
bar,43.2564682,-2.9119293,Sarima,Zumalakarregi etorbidea 52,Bilbao
bar,43.2484939,-2.8921642,Bar Mack,NO STREET 9999,Bilbao
bar,43.3574025,-3.0024052,NO NAME,NO STREET 9999,Bilbao
bar,43.270821,-2.9487731,Madariagako 33 etxea,Calle Araba / Araba kalea 9999,Bilbao
bar,43.2708426,-2.9476623,Urdin,NO STREET 9999,Bilbao
bar,43.2709433,-2.9472128,Bar Ikatz,Avenida Madariaga / Madariaga etorbidea 9999,Bilbao
bar,43.270937,-2.9472732,Ariltze Taberna,Avenida Madariaga / Madariaga etorbidea 9999,Bilbao
bar,43.271165,-2.9471298,Stones taberna,Avenida Madariaga / Madariaga etorbidea 9999,Bilbao
bar,43.2711636,-2.9472232,Maitagarri Taberna,Avenida Madariaga / Madariaga etorbidea 9999,Bilbao
bar,43.270954,-2.9476662,Urdin,NO STREET 9999,Bilbao
bar,43.2711751,-2.9462228,Akeita Gozo,NO STREET 9999,Bilbao
bar,43.2700074,-2.9458453,Niza Barria,NO STREET 9999,Bilbao
bar,43.2699934,-2.9461431,Berezi,NO STREET 9999,Bilbao
bar,43.2699703,-2.9466224,La Tapa,NO STREET 9999,Bilbao
bar,43.2594316,-2.9387921,Beluga Lounge,NO STREET 9999,Bilbao
bar,43.2571391,-2.9256809,Taberna Basaras,Calle de la Pelota / Pilota kalea 9999,Bilbao
bar,43.259636,-2.9454605,Vka 27,Calle Pérez Galdós / Perez Galdos kalea 27,Bilbao
bar,43.2463392,-2.9411664,Kubi,NO STREET 9999,Bilbao
bar,43.2592704,-2.943691,Kikarea,Calle Pérez Galdós / Perez Galdos kalea 15,Bilbao
bar,43.265203,-2.9443143,Jaime,Gran Vía Don Diego López de Haro / On Diego Lopez Haroko kale nagusia 86,Bilbao
bar,43.2686558,-2.9345649,Bar Guggenheim Bilbao,Av. Abandoibarra 2,Bilbao
bar,43.2391618,-2.8866475,Bar Matxitxako,NO STREET 9999,Bilbao
bar,43.2595756,-2.9433653,Oveja negra,NO STREET 9999,Bilbao
bar,43.2665047,-2.9306947,Singular,Calle Lersundi / Lersundi kalea 2,Bilbao
bar,43.3153413,-3.0208983,Bar Duga,NO STREET 9999,Bilbao
bar,43.3154708,-3.0211799,Bar Mari,NO STREET 9999,Bilbao
bar,43.3155267,-3.0212847,Bar Montoserín,NO STREET 9999,Bilbao
bar,43.3156073,-3.0214205,Bar K2,NO STREET 9999,Bilbao
bar,43.3186253,-3.0277181,Bar Trigo,NO STREET 9999,Bilbao
bar,43.3169564,-3.0287493,taberna,NO STREET 9999,Bilbao
bar,43.3202032,-3.0163339,Bar La Canilla,NO STREET 9999,Bilbao
bar,43.3175342,-3.0250592,manolo,NO STREET 9999,Bilbao
bar,43.3225071,-3.0200412,kilkir,NO STREET 9999,Bilbao
bar,43.3203316,-3.0165613,Akelarre,NO STREET 9999,Bilbao
bar,43.3205243,-3.0168912,Siglo XX,NO STREET 9999,Bilbao
bar,43.3208383,-3.0170008,La Belle Epoque,NO STREET 9999,Bilbao
bar,43.3241858,-3.0260385,Arantza,NO STREET 9999,Bilbao
bar,43.3242957,-3.0261678,delgado,NO STREET 9999,Bilbao
bar,43.3243053,-3.0254123,Moriko,NO STREET 9999,Bilbao
bar,43.3242921,-3.025485,newport,NO STREET 9999,Bilbao
bar,43.3204882,-3.0197478,el faro,NO STREET 9999,Bilbao
bar,43.3239223,-3.0228546,la ola,NO STREET 9999,Bilbao
bar,43.3203149,-3.0196411,la bodeguilla,NO STREET 9999,Bilbao
bar,43.3163182,-3.0190918,Mentxu,NO STREET 9999,Bilbao
bar,43.3154051,-3.0202867,Los Nordos,NO STREET 9999,Bilbao
bar,43.3155459,-3.0213321,Veronica,NO STREET 9999,Bilbao
bar,43.3206114,-3.0185539,NO NAME,NO STREET 9999,Bilbao
bar,43.2637247,-2.9263007,Aurkene,Calle Uribitarte / Uribitarte kalea 1,Bilbao
bar,43.346987,-3.0083482,Bar Goikoa,NO STREET 9999,Bilbao
bar,43.3511399,-3.0123195,Burdinola,NO STREET 9999,Bilbao
bar,43.3075305,-3.041339,Bar Geltoki Urioste,NO STREET 9999,Bilbao
bar,43.2596341,-2.8962526,Burger Flower,NO STREET 9999,Bilbao
bar,43.2597059,-2.8961038,Bar Ronals,NO STREET 9999,Bilbao
bar,43.2604828,-2.8962989,Bar Scarlett,NO STREET 9999,Bilbao
bar,43.2607215,-2.8966683,Chucheria El Chicle,NO STREET 9999,Bilbao
bar,43.2608277,-2.8967502,Bar Salou,NO STREET 9999,Bilbao
bar,43.2609026,-2.8968082,bar,NO STREET 9999,Bilbao
bar,43.2705375,-2.9439928,NO NAME,NO STREET 9999,Bilbao
bar,43.3579485,-3.0111133,estación de chocolate,NO STREET 9999,Bilbao
bar,43.3592899,-3.0108182,Bar Larra,NO STREET 9999,Bilbao
bar,43.3593547,-3.0109711,Akaita,NO STREET 9999,Bilbao
bar,43.3594751,-3.0115157,Bar Malakate,NO STREET 9999,Bilbao
bar,43.3220661,-3.0012867,NO NAME,NO STREET 9999,Bilbao
bar,43.3221243,-3.0017134,Bar Goyo,NO STREET 9999,Bilbao
bar,43.3193793,-2.9937497,Bar Menoyo,NO STREET 9999,Bilbao
bar,43.2852438,-3.0552638,La Rasa Eretza,NO STREET 9999,Bilbao
bar,43.2842236,-3.0549325,Bar Karmen,NO STREET 9999,Bilbao
bar,43.2848652,-3.0540429,NO NAME,NO STREET 9999,Bilbao
bar,43.2847235,-3.0542653,NO NAME,NO STREET 9999,Bilbao
bar,43.2842455,-3.0544299,NO NAME,NO STREET 9999,Bilbao
bar,43.2843979,-3.0542592,Casa del Pueblo,NO STREET 9999,Bilbao
bar,43.2556576,-2.9246807,Arambeer,NO STREET 9999,Bilbao
bar,43.2414672,-2.9235103,Baserri,NO STREET 9999,Bilbao
bar,43.2416448,-2.9246852,Ama Lur,NO STREET 9999,Bilbao
bar,43.2412865,-2.9230549,Taberna Lalin,NO STREET 9999,Bilbao
bar,43.2411888,-2.9221239,Los Hierros,NO STREET 9999,Bilbao
bar,43.2411828,-2.9219166,Arkupe,NO STREET 9999,Bilbao
bar,43.2415619,-2.9240469,Bibop,NO STREET 9999,Bilbao
bar,43.241867,-2.9247584,Goikogane,NO STREET 9999,Bilbao
bar,43.242015,-2.9251121,La Rosa,NO STREET 9999,Bilbao
bar,43.2422964,-2.9251852,Siglo XXI,NO STREET 9999,Bilbao
bar,43.2425477,-2.924922,Santi,NO STREET 9999,Bilbao
bar,43.2422708,-2.9246283,Kafe Aner,NO STREET 9999,Bilbao
bar,43.3627455,-2.872436,Alboka,NO STREET 9999,Bilbao
bar,43.2537728,-2.910757,Herriko,NO STREET 9999,Bilbao
bar,43.2614713,-2.9250666,Ereaga,NO STREET 9999,Bilbao
bar,43.2616078,-2.9255039,La Camelia,Calle Villarías / Villarias kalea 3,Bilbao
bar,43.3101773,-3.040381,Bar Zazpiak Bat,NO STREET 9999,Bilbao
bar,43.2765651,-2.961981,gernika,NO STREET 9999,Bilbao
bar,43.2798471,-2.9623863,Bar Nove,NO STREET 9999,Bilbao
bar,43.2571374,-2.9253009,Iñakiren taberna,NO STREET 9999,Bilbao
bar,43.3258017,-2.9896352,El Rincón,Calle Ondizko Andra Mari 2 bajo,Bilbao
bar,43.326041,-2.9888149,Taberna Zaharra,Avenida Iparragirre 48,Bilbao
bar,43.3256958,-2.9888386,Taberna Txiki,Avenida Iparragirre 58,Bilbao
bar,43.3198552,-2.9886977,Adriatik bar,Avenida Sabino Arana 16,Bilbao
bar,43.3263837,-2.9867483,Aida,NO STREET 9999,Bilbao
bar,43.326518,-2.9893236,Bodega Alcalde,Avenida Iparragirre 38,Bilbao
bar,43.2624703,-2.9417202,Anaiak,NO STREET 9999,Bilbao
bar,43.2986763,-2.9907468,Bar Venecia,NO STREET 9999,Bilbao
bar,43.3220659,-3.0221326,Bodeguilla La Catedral,NO STREET 9999,Bilbao
bar,43.3221055,-3.0220974,Bar Tomé,NO STREET 9999,Bilbao
bar,43.3221507,-3.0222017,Bar El Paso,NO STREET 9999,Bilbao
bar,43.3213544,-3.0180431,Txo,NO STREET 9999,Bilbao
bar,43.294203,-2.9997048,Cafetería Gallery,NO STREET 9999,Bilbao
bar,43.3515638,-3.0087384,Hator,NO STREET 9999,Bilbao
bar,43.3537176,-3.0038315,NO NAME,NO STREET 9999,Bilbao
bar,43.326744,-3.0061911,Gordon,NO STREET 9999,Bilbao
bar,43.2571096,-2.9199579,NO NAME,NO STREET 9999,Bilbao
bar,43.2544832,-2.9166225,Santutxu,NO STREET 9999,Bilbao
bar,43.2564109,-2.9136627,Imola,NO STREET 9999,Bilbao
bar,43.2531017,-2.9171358,BAR CAFE LAC-LEMAN,NO STREET 9999,Bilbao
bar,43.2555852,-2.9163178,NO NAME,Iturribide kalea 9999,Bilbao
bar,43.255556,-2.9161928,Cythos,NO STREET 9999,Bilbao
bar,43.2550343,-2.9168954,Etxea,NO STREET 9999,Bilbao
bar,43.25678,-2.9202455,Maite,NO STREET 9999,Bilbao
bar,43.2561586,-2.9239809,Sarkue,Calle Tendería / Dendarikale kalea 9,Bilbao
bar,43.2591192,-2.9223191,Bar Negresco,Plaza Nueva / Plaza Barria 10,Bilbao
bar,43.2661791,-2.9318916,Stand by,Calle Heros / Heros kalea 13,Bilbao
bar,43.2581666,-2.926013,Gatz,Calle Santa María / Andra Maria kalea 10,Bilbao
bar,43.3258984,-3.007442,Bar Itxaso,NO STREET 9999,Bilbao
bar,43.2635248,-2.9228113,Alisas,NO STREET 9999,Bilbao
bar,43.2649263,-2.9228054,Vaquero Bar,NO STREET 9999,Bilbao
bar,43.2652823,-2.9224568,Bar Demolition,NO STREET 9999,Bilbao
bar,43.2593424,-2.9220672,NO NAME,NO STREET 9999,Bilbao
bar,43.2578788,-2.9254301,Txiriboga,NO STREET 9999,Bilbao
bar,43.2583351,-2.9250251,Taberna Bikiak,NO STREET 9999,Bilbao
bar,43.2574586,-2.9248703,Ormaetxe,NO STREET 9999,Bilbao
bar,43.2574095,-2.9247317,Gure Txoko,NO STREET 9999,Bilbao
bar,43.2574688,-2.9247016,Soiz,NO STREET 9999,Bilbao
bar,43.2580978,-2.9207521,Portuberri Barria,NO STREET 9999,Bilbao
bar,43.2580995,-2.9206564,Naikari,NO STREET 9999,Bilbao
bar,43.2581002,-2.9205335,Iturri,NO STREET 9999,Bilbao
bar,43.2580873,-2.9203394,Sunset Blvd & Strip,NO STREET 9999,Bilbao
bar,43.2579859,-2.9192382,NO NAME,NO STREET 9999,Bilbao
bar,43.2580056,-2.9191041,Bar Bizkaigane,NO STREET 9999,Bilbao
bar,43.2580302,-2.9193717,Zerua Rock Bar,NO STREET 9999,Bilbao
bar,43.2580893,-2.9196261,Laraitu,NO STREET 9999,Bilbao
bar,43.2581034,-2.9197123,Bar Kepa,NO STREET 9999,Bilbao
bar,43.2581184,-2.9198108,Melilla Y Fez,NO STREET 9999,Bilbao
bar,43.2557278,-2.922812,Aritza Kafe Bar,NO STREET 9999,Bilbao
bar,43.2558625,-2.922753,Mabel,NO STREET 9999,Bilbao
bar,43.2566131,-2.9224156,Basoa,NO STREET 9999,Bilbao
bar,43.2571153,-2.9223555,Jonen Etxea,NO STREET 9999,Bilbao
bar,43.2566478,-2.9225804,Cerveceria Gambrinus,NO STREET 9999,Bilbao
bar,43.2557956,-2.923048,Lequercia,NO STREET 9999,Bilbao
bar,43.2572462,-2.9224559,Madariaga,NO STREET 9999,Bilbao
bar,43.2571929,-2.9224651,Bar Motrikes,Calle Somera / Goienkale 41,Bilbao
bar,43.2563805,-2.9228768,Bar Restaurante Bikandi,NO STREET 9999,Bilbao
bar,43.2558592,-2.9231715,Morga,NO STREET 9999,Bilbao
bar,43.2556555,-2.9232777,Ariatza,NO STREET 9999,Bilbao
bar,43.2559365,-2.9241597,Retolaza,NO STREET 9999,Bilbao
bar,43.2564127,-2.9243686,Mitote,NO STREET 9999,Bilbao
bar,43.2564653,-2.9251478,La Korrala,NO STREET 9999,Bilbao
bar,43.2566753,-2.9250334,Modesto,NO STREET 9999,Bilbao
bar,43.2567467,-2.9250054,Ander,NO STREET 9999,Bilbao
bar,43.257177,-2.9247152,Luciano Berri,NO STREET 9999,Bilbao
bar,43.2571354,-2.9244317,Bar Sukalkin,NO STREET 9999,Bilbao
bar,43.2565804,-2.9247531,Izartegi Taberna,Calle Carnicería Vieja / Arategizar kalea 13,Bilbao
bar,43.2569623,-2.9250374,Beltza Taberna,NO STREET 9999,Bilbao
bar,43.2570286,-2.9249997,Katu,NO STREET 9999,Bilbao
bar,43.2571193,-2.9249395,Kogoio,NO STREET 9999,Bilbao
bar,43.2571765,-2.9248955,Ander Etxea,NO STREET 9999,Bilbao
bar,43.25723,-2.9248643,Skulls,NO STREET 9999,Bilbao
bar,43.257282,-2.9248289,Akatz,NO STREET 9999,Bilbao
bar,43.2573941,-2.9255218,Lamiak,NO STREET 9999,Bilbao
bar,43.2513733,-2.9251085,Saski Cafe Bar,NO STREET 9999,Bilbao
bar,43.2510855,-2.9230684,Bar Carvi,Calle Zamacola / Zamacola kalea 2,Bilbao
bar,43.2534428,-2.923099,Taberna Iturburu,NO STREET 9999,Bilbao
bar,43.2541483,-2.9231954,Bar el Pote,NO STREET 9999,Bilbao
bar,43.2617674,-2.925702,La Barmacia,NO STREET 9999,Bilbao
bar,43.2616174,-2.9248049,Galipo,Calle Ripa / Erripa kalea 5,Bilbao
bar,43.2618739,-2.924612,Baobab Bar Tetería,Calle Príncipe / Printzipe kalea 1,Bilbao
bar,43.2626055,-2.9287125,Zaharra,NO STREET 9999,Bilbao
bar,43.2625686,-2.9285841,Pura Brasa,Calle Colón de Larreategui / Colon de Larreategui kalea 13,Bilbao
bar,43.2623353,-2.9275457,Cafe Prichos Bar,NO STREET 9999,Bilbao
bar,43.262084,-2.9264167,Magic,NO STREET 9999,Bilbao
bar,43.2620489,-2.9275513,Museo Del Vino,NO STREET 9999,Bilbao
bar,43.2620786,-2.927655,Mo'r O'rless,Calle Ledesma / Ledesma kalea 10,Bilbao
bar,43.354236,-2.8469083,Ene Bada,NO STREET 9999,Bilbao
bar,43.3540909,-2.8454664,The Nook,NO STREET 9999,Bilbao
bar,43.3543677,-2.8450633,Puzpulu,NO STREET 9999,Bilbao
bar,43.3563823,-2.8499883,Bizkaia,NO STREET 9999,Bilbao
bar,43.2636721,-2.926108,Bar Joisa,NO STREET 9999,Bilbao
bar,43.2638698,-2.9282194,A Votre Santé,NO STREET 9999,Bilbao
bar,43.2641452,-2.9280886,Ambigú,NO STREET 9999,Bilbao
bar,43.2641027,-2.9281097,Gosari,NO STREET 9999,Bilbao
bar,43.2640551,-2.9281307,Cinnamon,NO STREET 9999,Bilbao
bar,43.2599182,-2.934781,Strmboli,NO STREET 9999,Bilbao
bar,43.2604022,-2.9345643,Baviera Bar,NO STREET 9999,Bilbao
bar,43.2664667,-2.9314752,Grand Prix,NO STREET 9999,Bilbao
bar,43.2664511,-2.9313907,Gin Fizz De Bernardo,NO STREET 9999,Bilbao
bar,43.2665087,-2.9316508,Reizabal,NO STREET 9999,Bilbao
bar,43.2669256,-2.9307204,Charol,NO STREET 9999,Bilbao
bar,43.2668581,-2.9316003,Bar Gure Leku,NO STREET 9999,Bilbao
bar,43.2662242,-2.9334951,La Mula de Moscú,NO STREET 9999,Bilbao
bar,43.2660877,-2.9324195,Residence,NO STREET 9999,Bilbao
bar,43.2672007,-2.9350728,Bar Magor,NO STREET 9999,Bilbao
bar,43.2666283,-2.9368655,Iguazu,NO STREET 9999,Bilbao
bar,43.265212,-2.9314128,Kaixo,NO STREET 9999,Bilbao
bar,43.2650831,-2.9357969,NO NAME,NO STREET 9999,Bilbao
bar,43.2642728,-2.9352398,Bilbao 70,NO STREET 9999,Bilbao
bar,43.2639802,-2.934,Mojito Social Club,NO STREET 9999,Bilbao
bar,43.2639506,-2.9338533,Zumiller bar,NO STREET 9999,Bilbao
bar,43.2643992,-2.9312679,El Txoko de Gabi,Calle Henao / Henao kalea 9,Bilbao
bar,43.2634083,-2.9322498,Bar Irache,NO STREET 9999,Bilbao
bar,43.2636216,-2.9332284,Ramond,NO STREET 9999,Bilbao
bar,43.2608124,-2.9345898,Kimetz,NO STREET 9999,Bilbao
bar,43.2610275,-2.9343397,Ondarreta,NO STREET 9999,Bilbao
bar,43.260958,-2.9353477,Nikol's Gastro Bar,NO STREET 9999,Bilbao
bar,43.2610166,-2.9351331,Orden,NO STREET 9999,Bilbao
bar,43.261125,-2.9355726,Pepe's Bar,NO STREET 9999,Bilbao
bar,43.254225,-2.9237168,Txondorra,NO STREET 9999,Bilbao
bar,43.254302,-2.9240628,Larrabetzu,NO STREET 9999,Bilbao
bar,43.2543582,-2.9241325,Ziburu,NO STREET 9999,Bilbao
bar,43.2545063,-2.9243174,Itxura,NO STREET 9999,Bilbao
bar,43.2555151,-2.9260446,El Laterio,Aretxaga kalea 3,Bilbao
bar,43.2552762,-2.9278546,Bar El Gallo,NO STREET 9999,Bilbao
bar,43.2553918,-2.9281493,Bar El Tirol Cafeteria,NO STREET 9999,Bilbao
bar,43.2554621,-2.928291,San Remo,NO STREET 9999,Bilbao
bar,43.2556935,-2.9282047,Bar Chicote,NO STREET 9999,Bilbao
bar,43.2556337,-2.9280319,Meson Alba,NO STREET 9999,Bilbao
bar,43.2554842,-2.927626,Urquiola,NO STREET 9999,Bilbao
bar,43.2560305,-2.9291742,NO NAME,NO STREET 9999,Bilbao
bar,43.2562027,-2.9295924,Taberna Hilargi,NO STREET 9999,Bilbao
bar,43.255957,-2.9297559,Marilyn,Calle Cortes / Gorte kalea 1,Bilbao
bar,43.2563014,-2.9298576,Bar Montijano,NO STREET 9999,Bilbao
bar,43.2568575,-2.9313224,Cafe Bar Heredia,NO STREET 9999,Bilbao
bar,43.2565272,-2.9300802,Bar Degustacion,NO STREET 9999,Bilbao
bar,43.2567924,-2.9292733,La Taberna de Mariali,NO STREET 9999,Bilbao
bar,43.2569295,-2.928821,Mykonos (Gay Bar),NO STREET 9999,Bilbao
bar,43.2567741,-2.9283303,Bar Deusto Cafe Bar,NO STREET 9999,Bilbao
bar,43.2580146,-2.932197,Bat JK,NO STREET 9999,Bilbao
bar,43.3559808,-3.0175743,NO NAME,NO STREET 9999,Bilbao
bar,43.3560061,-3.0177053,NO NAME,NO STREET 9999,Bilbao
bar,43.2563469,-2.9329449,Bar Jagoba,NO STREET 9999,Bilbao
bar,43.2565196,-2.9328328,Bar Le Banquier,NO STREET 9999,Bilbao
bar,43.2570246,-2.9332937,Bar Otxote,NO STREET 9999,Bilbao
bar,43.260283,-2.9299408,Kresala,NO STREET 9999,Bilbao
bar,43.2590328,-2.932533,Kiss,NO STREET 9999,Bilbao
bar,43.2586086,-2.9323171,Copacabana,NO STREET 9999,Bilbao
bar,43.257948,-2.9331875,Bar Jolaset Café,NO STREET 9999,Bilbao
bar,43.2574478,-2.9355581,Café Kanpantxu,NO STREET 9999,Bilbao
bar,43.2574279,-2.935296,Bar-Degustación Cafés Bilbaínos,NO STREET 9999,Bilbao
bar,43.2578457,-2.9368593,Mesón las Bovedas,NO STREET 9999,Bilbao
bar,43.2581526,-2.936666,Bar J.M.,NO STREET 9999,Bilbao
bar,43.2581354,-2.9365348,GildaToki,Calle Egaña / Egaña kalea 6,Bilbao
bar,43.2580556,-2.9360395,Zera,NO STREET 9999,Bilbao
bar,43.264726,-2.9419057,Bodega Urbana,NO STREET 9999,Bilbao
bar,43.3091989,-3.0080974,Castañares,NO STREET 9999,Bilbao
bar,43.2670222,-2.9396259,Bar Towers Cafe,NO STREET 9999,Bilbao
bar,43.2624987,-2.9402433,Pinguin,NO STREET 9999,Bilbao
bar,43.2622909,-2.9423807,Mugi,Calle Licenciado Poza / Poza lizentziatuaren kalea 55,Bilbao
bar,43.2624993,-2.9423303,Muskitza,Calle Licenciado Poza / Poza lizentziatuaren kalea 9999,Bilbao
bar,43.2493019,-2.9312994,Cerveceria del Norte,NO STREET 9999,Bilbao
bar,43.2507508,-2.9340016,Bar Nerea,NO STREET 9999,Bilbao
bar,43.2509534,-2.9340837,Bodegón Miren,NO STREET 9999,Bilbao
bar,43.2479631,-2.9339193,Cafeteria Bizkaia,NO STREET 9999,Bilbao
bar,43.2487111,-2.9348326,Compañia Minera,NO STREET 9999,Bilbao
bar,43.2486198,-2.9334856,Txikia Bar,NO STREET 9999,Bilbao
bar,43.2619274,-2.9397385,Nashville,NO STREET 9999,Bilbao
bar,43.2476445,-2.9300356,Bar Eretza,NO STREET 9999,Bilbao
bar,43.2473954,-2.9298223,Bar Txolo,NO STREET 9999,Bilbao
bar,43.2468867,-2.9297388,Bar Itusta,Calle Mina Julia / Julia meategiaren kalea 9999,Bilbao
bar,43.2495512,-2.9270327,Deluxe,NO STREET 9999,Bilbao
bar,43.2499353,-2.9275275,Xena,NO STREET 9999,Bilbao
bar,43.2475761,-2.9316777,Ría,NO STREET 9999,Bilbao
bar,43.2618662,-2.938305,La Compañía del Ron,NO STREET 9999,Bilbao
bar,43.2619504,-2.939809,Zintzoa,NO STREET 9999,Bilbao
bar,43.2620004,-2.939252,Gaztandegi,Calle Maestro García Rivero / Garcia Rivero maisuaren kalea 10,Bilbao
bar,43.2622896,-2.9391342,Gozatu,Calle Maestro García Rivero / Garcia Rivero maisuaren kalea 6,Bilbao
bar,43.2623676,-2.939104,Txistua,NO STREET 9999,Bilbao
bar,43.2620097,-2.9385267,Casa Agorria,NO STREET 9999,Bilbao
bar,43.2621475,-2.9388995,La Fugitiva,NO STREET 9999,Bilbao
bar,43.2619025,-2.9390001,Bar Marisquería,NO STREET 9999,Bilbao
bar,43.2615924,-2.93906,Brass,NO STREET 9999,Bilbao
bar,43.2617093,-2.9396153,Mio Bar,NO STREET 9999,Bilbao
bar,43.2613277,-2.9400607,Taberna Umaran,NO STREET 9999,Bilbao
bar,43.2613893,-2.9417431,Izaro,NO STREET 9999,Bilbao
bar,43.2613921,-2.9404209,La Destilería,NO STREET 9999,Bilbao
bar,43.2614679,-2.9407618,Gaztandegi,NO STREET 9999,Bilbao
bar,43.2616757,-2.9402213,Bodega Indautxu,NO STREET 9999,Bilbao
bar,43.2618701,-2.9403629,Bar Jontxu,NO STREET 9999,Bilbao
bar,43.2618946,-2.9404894,Ona,NO STREET 9999,Bilbao
bar,43.2620052,-2.9409758,El Dinámico,NO STREET 9999,Bilbao
bar,43.2623476,-2.9415841,Poza 46,Calle Licenciado Poza / Poza lizentziatuaren kalea 46,Bilbao
bar,43.262283,-2.9412956,Poza 40,Calle Licenciado Poza / Poza lizentziatuaren kalea 40,Bilbao
bar,43.2622967,-2.9413596,Poza 42,Calle Licenciado Poza / Poza lizentziatuaren kalea 42,Bilbao
bar,43.2620939,-2.9404449,Bihotz Zuri Gorria,NO STREET 9999,Bilbao
bar,43.2633589,-2.9404189,Xibari,NO STREET 9999,Bilbao
bar,43.2633715,-2.9397143,GildaToki,Calle Estrauntza / Estrauntza kalea 1,Bilbao
bar,43.2645333,-2.9450958,Sagradito,NO STREET 9999,Bilbao
bar,43.2625472,-2.9425312,Cocktail Bar Ados,NO STREET 9999,Bilbao
bar,43.2631935,-2.9432818,Kirruli,NO STREET 9999,Bilbao
bar,43.2616631,-2.9429705,Bar River,NO STREET 9999,Bilbao
bar,43.2617932,-2.9424883,Covent Garden,NO STREET 9999,Bilbao
bar,43.2625778,-2.9436786,El Huevo Berria,NO STREET 9999,Bilbao
bar,43.2629139,-2.9440765,Abadía del Gin & Tonic,NO STREET 9999,Bilbao
bar,43.2619994,-2.9444689,La Casa del Bandido,NO STREET 9999,Bilbao
bar,43.2473098,-2.8929437,Gure Toki,NO STREET 9999,Bilbao
bar,43.3022313,-3.0338778,Glen Moore,NO STREET 9999,Bilbao
bar,43.2058305,-2.8886709,Aldapa Taberna,NO STREET 9999,Bilbao
bar,43.272441,-2.9444597,Noiz,NO STREET 9999,Bilbao
bar,43.3086963,-3.0092425,La Herencia,NO STREET 9999,Bilbao
bar,43.3488705,-3.0112694,Bodeguilla Caza,Basagoiti etorbidea 50,Bilbao
bar,43.3486843,-3.0110246,Ekia Taberna,Basagoiti etorbidea 46,Bilbao
bar,43.3252752,-3.0346954,Salón de Juego Higarillo,Calle Sor Natividad 14-16,Bilbao
bar,43.2698367,-2.9420828,Eastlife,Calle Francesc Macia / Francesc Macia kalea 9999,Bilbao
bar,43.2703434,-2.9439733,Yofran,Calle Blas de Otero / Blas de Otero kalea 9999,Bilbao
bar,43.2725576,-2.9448724,Izeki taberna,NO STREET 9999,Bilbao
bar,43.2824053,-2.8631275,Café Fernan,Ganekogorta kalea 9999,Bilbao
bar,43.3213474,-3.0177194,Bar Larrun,NO STREET 9999,Bilbao
bar,43.3215347,-3.0174858,Txiki,NO STREET 9999,Bilbao
bar,43.2837342,-2.8639237,Txiki,NO STREET 9999,Bilbao
bar,43.2838314,-2.8638931,Bide-bi,NO STREET 9999,Bilbao
bar,43.2848734,-2.8655072,Batzokia,NO STREET 9999,Bilbao
bar,43.2825951,-2.8637794,Susterrak,NO STREET 9999,Bilbao
bar,43.2832627,-2.8630798,Zamudioko batzokia,NO STREET 9999,Bilbao
bar,43.283811,-2.863871,Ama taberna 3,NO STREET 9999,Bilbao
bar,43.2826046,-2.8635759,Natxo,NO STREET 9999,Bilbao
bar,43.2844063,-2.8653339,Batzoki,NO STREET 9999,Bilbao
bar,43.2825066,-2.8631393,Café Fernan,NO STREET 9999,Bilbao
bar,43.2833551,-2.8635124,Garmendia,NO STREET 9999,Bilbao
bar,43.2705104,-2.9439921,Tobarisch,NO STREET 9999,Bilbao
bar,43.2971711,-2.9882583,El Horreo,NO STREET 9999,Bilbao
bar,43.2967383,-2.9884306,La Cuadra,NO STREET 9999,Bilbao
bar,43.2967962,-2.988224,Anaya,NO STREET 9999,Bilbao
bar,43.2967812,-2.9881874,New VOS,NO STREET 9999,Bilbao
bar,43.2972224,-2.988393,Lambda,NO STREET 9999,Bilbao
bar,43.2971133,-2.9884688,Los Jamones,NO STREET 9999,Bilbao
bar,43.2967042,-2.9888242,La Tabernita del Medio,NO STREET 9999,Bilbao
bar,43.3556347,-2.8481294,Laubide,Zubiaga kalea 9999,Bilbao
bar,43.2569786,-2.9253828,Ley seca,Calle Barrenkale Barrena / Barrenkale Barrena 8,Bilbao
bar,43.2678992,-2.9249466,Marín,Plaza Moraza / Moraza plaza 1,Bilbao
bar,43.2665041,-2.9223634,Bar Venizia,Calle Uribarri / Uribarri kalea 12,Bilbao
bar,43.2649629,-2.9329919,GildaToki,Calle Henao / Henao kalea 30,Bilbao
bar,43.2610833,-2.9251813,Bar Muelle,Calle Ripa / Erripa kalea 3,Bilbao
bar,43.3223846,-3.0180577,El abra,NO STREET 9999,Bilbao
bar,43.321888,-3.0180538,Izar Gorria,NO STREET 9999,Bilbao
bar,43.3156291,-3.0161047,NO NAME,NO STREET 9999,Bilbao
bar,43.3205556,-3.0223758,papillon,NO STREET 9999,Bilbao
bar,43.3217421,-3.017694,la selecta,NO STREET 9999,Bilbao
bar,43.3218587,-3.017352,NO NAME,NO STREET 9999,Bilbao
bar,43.3230455,-3.0196175,vandus,NO STREET 9999,Bilbao
bar,43.320629,-3.0216239,NO NAME,NO STREET 9999,Bilbao
bar,43.3151727,-3.0134406,Morenita,NO STREET 9999,Bilbao
bar,43.3190626,-3.0192689,Covery,NO STREET 9999,Bilbao
bar,43.3155776,-3.0205203,Nalir,NO STREET 9999,Bilbao
bar,43.3091367,-3.0080694,Viuda de Baldo,NO STREET 9999,Bilbao
bar,43.3093438,-3.0084943,Alameda,NO STREET 9999,Bilbao
bar,43.3086944,-3.0072299,El Parque,NO STREET 9999,Bilbao
bar,43.316854,-3.0210092,Iglesia,NO STREET 9999,Bilbao
bar,43.3240412,-3.0154313,Arkupe,NO STREET 9999,Bilbao
bar,43.3259599,-3.0118546,Zokotxo,NO STREET 9999,Bilbao
bar,43.326449,-3.0105762,Bar Metro,NO STREET 9999,Bilbao
bar,43.2591876,-2.9223047,Ahoan,NO STREET 9999,Bilbao
bar,43.3490219,-3.0114247,Bidean,NO STREET 9999,Bilbao
bar,43.3500625,-3.0122736,Getxo Rugby,NO STREET 9999,Bilbao
bar,43.349056,-3.0099133,Txinuk,NO STREET 9999,Bilbao
bar,43.3492608,-3.0099131,Alai Bi,NO STREET 9999,Bilbao
bar,43.2595344,-2.9448271,Tukan kafetegia,NO STREET 9999,Bilbao
bar,43.3203016,-2.9961604,Bar La Reineta,NO STREET 9999,Bilbao
bar,43.3115769,-3.0560253,Bar Naveira,NO STREET 9999,Bilbao
bar,43.311485,-3.0591608,Taberna Asier,Avenida de la Estación 82,Bilbao
bar,43.305579,-3.0406653,NO NAME,NO STREET 9999,Bilbao
bar,43.3054864,-3.0408649,NO NAME,NO STREET 9999,Bilbao
bar,43.2751251,-2.8333117,Grisson,NO STREET 9999,Bilbao
bar,43.2749463,-2.8328907,Batxoki,NO STREET 9999,Bilbao
bar,43.2748053,-2.8323242,Enaitz,NO STREET 9999,Bilbao
bar,43.2735574,-2.8325495,Osangoiti,NO STREET 9999,Bilbao
bar,43.2569251,-2.9232635,Bodega Joserra,Calle Artekale / Artekale 35,Bilbao
bar,43.3126091,-2.9810734,La Roca del Fraile,NO STREET 9999,Bilbao
bar,43.3221598,-3.0680431,NO NAME,NO STREET 9999,Bilbao
bar,43.2521343,-2.9387386,Poli bar,NO STREET 9999,Bilbao
bar,43.252087,-2.9386616,Bar Unamuno,NO STREET 9999,Bilbao
bar,43.2520552,-2.9385847,Bar la Cañada,NO STREET 9999,Bilbao
bar,43.2520035,-2.9379314,Falstaff,NO STREET 9999,Bilbao
bar,43.2519975,-2.9383146,Bar Kaixo,NO STREET 9999,Bilbao
bar,43.2521469,-2.9383146,Bar Irala txoko,NO STREET 9999,Bilbao
bar,43.2521843,-2.9383214,Taxka Tere,NO STREET 9999,Bilbao
bar,43.2522969,-2.9383463,Bar Bahía,NO STREET 9999,Bilbao
bar,43.2526716,-2.9384247,Bar los Amigos,NO STREET 9999,Bilbao
bar,43.2528969,-2.9409458,Amezola Berria,Amadeus Mozart plaza / Plaza Amadeus Mozart 9999,Bilbao
bar,43.2523332,-2.9376839,Bar Mavi,NO STREET 9999,Bilbao
bar,43.251642,-2.9377775,Bar Luis,NO STREET 9999,Bilbao
bar,43.2562776,-2.9357399,La Estufa,NO STREET 9999,Bilbao
bar,43.2511892,-2.9365395,Lago,NO STREET 9999,Bilbao
bar,43.2514954,-2.9373804,Basajaun,NO STREET 9999,Bilbao
bar,43.2515335,-2.937487,Remy,NO STREET 9999,Bilbao
bar,43.2664956,-2.9257674,Zabala,NO STREET 9999,Bilbao
bar,43.2664268,-2.9256848,Cafe La Villa,NO STREET 9999,Bilbao
bar,43.2669027,-2.925313,Bar Tivoli,NO STREET 9999,Bilbao
bar,43.2682884,-2.9263132,Bigarren,NO STREET 9999,Bilbao
bar,43.2675397,-2.9256184,Esperando un amigo,NO STREET 9999,Bilbao
bar,43.2543944,-2.9364541,Café Aitana,NO STREET 9999,Bilbao
bar,43.2506521,-2.9358956,Arane,NO STREET 9999,Bilbao
bar,43.2559886,-2.9389463,El árbol de Amézola,NO STREET 9999,Bilbao
bar,43.2551263,-2.9398615,Toki Alai,NO STREET 9999,Bilbao
bar,43.2549773,-2.9361455,Gernikako arbola,NO STREET 9999,Bilbao
bar,43.2559352,-2.935691,Bar Irala,NO STREET 9999,Bilbao
bar,43.2674348,-2.9267558,Menphis mafia,NO STREET 9999,Bilbao
bar,43.2678636,-2.9257677,Salcedo,NO STREET 9999,Bilbao
bar,43.2795263,-2.958143,NO NAME,NO STREET 9999,Bilbao
bar,43.3270352,-3.009475,Baste Taberna,Kresaltzu Kalea 9999,Bilbao
bar,43.3266826,-3.007973,La Bodeguilla,Gobelondo Kalea 9999,Bilbao
bar,43.2567745,-2.9222364,Errondabide,NO STREET 9999,Bilbao
bar,43.3269832,-3.0081121,Areeta,NO STREET 9999,Bilbao
bar,43.2611281,-2.948457,Bar Happy,NO STREET 9999,Bilbao
bar,43.3239825,-3.0303239,KS,NO STREET 9999,Bilbao
bar,43.3237518,-3.0297436,Araña,NO STREET 9999,Bilbao
bar,43.3491768,-3.0098132,Zodiakos,NO STREET 9999,Bilbao
bar,43.2920595,-2.9890723,Txirinpintxo,NO STREET 9999,Bilbao
bar,43.3217463,-3.0026436,Bar Asador,NO STREET 9999,Bilbao
bar,43.3258324,-2.988697,Bar Politxe,Avenida Iparragirre 56,Bilbao
bar,43.2628746,-2.9263477,Basquery,Calle Ibañez de Bilbao / Ibañez de Bilbao kalea 9999,Bilbao
bar,43.2620802,-2.9246718,Tegobi Bierhaus,NO STREET 9999,Bilbao
bar,43.3165922,-3.0206013,Arboladi,NO STREET 9999,Bilbao
bar,43.2995479,-2.9840628,Cervecería Heidelberg,NO STREET 9999,Bilbao
bar,43.2977966,-2.9878481,Pata Negra,NO STREET 9999,Bilbao
bar,43.2979697,-2.9861297,Sala Edaska,NO STREET 9999,Bilbao
bar,43.2978342,-2.9863244,Joma,NO STREET 9999,Bilbao
bar,43.2717701,-2.9496028,Bidegorri,NO STREET 9999,Bilbao
bar,43.2649559,-2.9545951,La Karola,Muelle Olabeaga / Olabeaga kaia 9999,Bilbao
bar,43.2966783,-2.9865408,Gaztelu,NO STREET 9999,Bilbao
bar,43.2997872,-2.9879699,Salama,Calle El Parque / El Parque kalea 6,Bilbao
bar,43.2995632,-2.9845764,Station wagon,Calle Ibarra / Ibarra kalea 21,Bilbao
bar,43.2998464,-2.9842217,Áncora,NO STREET 9999,Bilbao
bar,43.2976914,-2.9854721,La Carolina,NO STREET 9999,Bilbao
bar,43.29914,-2.9844485,Belardi,NO STREET 9999,Bilbao
bar,43.3001906,-2.9894485,Txibiri,NO STREET 9999,Bilbao
bar,43.2989344,-2.9919731,Metropol,NO STREET 9999,Bilbao
bar,43.2986111,-2.991669,Trifi,NO STREET 9999,Bilbao
bar,43.2978086,-2.9869788,Txalaparta,NO STREET 9999,Bilbao
bar,43.297801,-2.9866595,Yoima,NO STREET 9999,Bilbao
bar,43.2999366,-2.9852307,Lagun artea,Calle Murrieta / Murrieta kalea 9999,Bilbao
bar,43.2994068,-2.9887665,Sensarosa,NO STREET 9999,Bilbao
bar,43.296693,-2.9906496,Avenida,NO STREET 9999,Bilbao
bar,43.2974213,-2.9865292,Geltoki,NO STREET 9999,Bilbao
bar,43.2997494,-2.9847898,Bitxia,NO STREET 9999,Bilbao
bar,43.2992801,-2.9913943,Haroin Iru rock bar,NO STREET 9999,Bilbao
bar,43.2989128,-2.9916947,El ahorro,NO STREET 9999,Bilbao
bar,43.2958289,-2.9859282,Blue bird,NO STREET 9999,Bilbao
bar,43.2944809,-2.9861518,Who,NO STREET 9999,Bilbao
bar,43.2946507,-2.9861443,Centro Andaluz,NO STREET 9999,Bilbao
bar,43.2946612,-2.9862069,Bazter,NO STREET 9999,Bilbao
bar,43.2956573,-2.9883818,Sushi bar Bizkaia,NO STREET 9999,Bilbao
bar,43.2955411,-2.9885672,Bossa Nova,NO STREET 9999,Bilbao
bar,43.2987707,-2.9884963,Garay,NO STREET 9999,Bilbao
bar,43.2985828,-2.9841591,Serantes,NO STREET 9999,Bilbao
bar,43.2994924,-2.9838085,Nelson,NO STREET 9999,Bilbao
bar,43.2998594,-2.9842983,La estación,NO STREET 9999,Bilbao
bar,43.3034566,-2.9767817,Sollube,NO STREET 9999,Bilbao
bar,43.3036546,-2.9763375,Compass,NO STREET 9999,Bilbao
bar,43.3035019,-2.9764465,Kirru,NO STREET 9999,Bilbao
bar,43.3034872,-2.9765948,Karraka barria,NO STREET 9999,Bilbao
bar,43.3034578,-2.9767127,Nebarrebak,NO STREET 9999,Bilbao
bar,43.3031584,-2.9764664,Goizalde,NO STREET 9999,Bilbao
bar,43.3031683,-2.9764107,Izarra,NO STREET 9999,Bilbao
bar,43.255649,-2.95559,NO NAME,NO STREET 9999,Bilbao
bar,43.2548819,-2.9585377,Bar Tanan,NO STREET 9999,Bilbao
bar,43.3273362,-3.0100534,Ederra,NO STREET 9999,Bilbao
bar,43.3272723,-3.0099724,Arenas berria,NO STREET 9999,Bilbao
bar,43.2520954,-2.9444883,Ciudadela,Calle Ciudadela / Ciudadela kalea 9999,Bilbao
bar,43.267272,-2.9603807,Erribera taberna,Deustuibarrra / Ribera de Deusto 43,Bilbao
bar,43.2677321,-2.9609294,Begoña berria,Deustuibarrra / Ribera de Deusto 9999,Bilbao
bar,43.2963521,-2.9897881,Eguzki,NO STREET 9999,Bilbao
bar,43.2963406,-2.9897223,Dantzari,NO STREET 9999,Bilbao
bar,43.2962979,-2.9894492,La Palentina,NO STREET 9999,Bilbao
bar,43.2983242,-2.9880845,Kazpel,NO STREET 9999,Bilbao
bar,43.2573037,-2.9253276,Argia,Calle Barrenkale Barrena / Barrenkale Barrena 9999,Bilbao
bar,43.2566275,-2.9460907,Alimentación Asmur,NO STREET 9999,Bilbao
bar,43.2534092,-2.9122463,APG,NO STREET 9999,Bilbao
bar,43.2194897,-2.8860288,Elexalde,NO STREET 9999,Bilbao
bar,43.2545392,-2.9130378,New Venecia,NO STREET 9999,Bilbao
bar,43.2965484,-2.9875166,Añoranzas venezolanas,NO STREET 9999,Bilbao
bar,43.2363199,-2.8847908,IRRINTZI,Balendin Berriotoxoa kalea 5,Bilbao
bar,43.2468234,-2.9897928,Mirentxu,Calle Ibaialde 9999,Bilbao
bar,43.2465121,-2.9903811,Batzoki,Calle Ibaialde 9999,Bilbao
bar,43.2679173,-2.92463,J-L Berria,NO STREET 9999,Bilbao
bar,43.366265,-2.9992918,Nagusien etxea,Sabino Arana kalea 9999,Bilbao
bar,43.3663065,-2.9996443,Fronton taberna,NO STREET 9999,Bilbao
bar,43.3651003,-2.9998161,Eretza,NO STREET 9999,Bilbao
bar,43.2912542,-2.8855406,Bizkargi,NO STREET 9999,Bilbao
bar,43.2920245,-2.8869009,Haizea,Erdiko kalea 6,Bilbao
bar,43.2915548,-2.8865681,Alboka,NO STREET 9999,Bilbao
bar,43.3013211,-2.9929369,Esperanza,NO STREET 9999,Bilbao
bar,43.3011886,-2.9929876,Osma,NO STREET 9999,Bilbao
bar,43.3010994,-2.9930184,Sugol,NO STREET 9999,Bilbao
bar,43.3009798,-2.9930611,Itsasontzia,NO STREET 9999,Bilbao
bar,43.3014987,-2.9935894,Akelarre,NO STREET 9999,Bilbao
bar,43.3012039,-2.9937951,Hogar navarro,NO STREET 9999,Bilbao
bar,43.3251436,-2.9852488,Herriko etxea,NO STREET 9999,Bilbao
bar,43.3005181,-2.9931687,Las quinielas,NO STREET 9999,Bilbao
bar,43.2589461,-2.9368173,Sabin etxea berria,Alameda Recalde / Recalde zumarkalea 9999,Bilbao
bar,43.2605505,-2.9486769,Café Briñas,Calle Luis Briñas / Luis Briñas kalea 9999,Bilbao
bar,43.2596008,-2.948476,Eguia,Calle General Eguía / Egia jeneralaren kalea 9999,Bilbao
bar,43.2518524,-2.9151365,Café Iker,Santutxu kalea 46,Bilbao
bar,43.2565083,-2.9081502,Batzoki,NO STREET 9999,Bilbao
bar,43.2597311,-2.9365125,The Boar,NO STREET 9999,Bilbao
bar,43.2541436,-2.9240263,Goizalde,Bilbo Zaharra kalea / Calle Bilbao la Vieja 13,Bilbao
bar,43.2516836,-2.9445582,Salou,NO STREET 9999,Bilbao
bar,43.2555056,-2.9289018,Veracruz,Calle Cortes / Gorte kalea 15,Bilbao
bar,43.2554209,-2.9282588,Póker,Calle Cortes / Gorte kalea 9999,Bilbao
bar,43.2553523,-2.9280557,El gallo,Gorte kalea / Calle de las Cortes 9999,Bilbao
bar,43.3073352,-3.0076999,Compostela,Calle Buenavista 9999,Bilbao
bar,43.3167669,-3.0232861,Mapi,NO STREET 9999,Bilbao
bar,43.3246684,-3.0141451,Amistad,Amistad Kalea 9999,Bilbao
bar,43.324672,-3.0143932,El laterio,Amistad Kalea 9999,Bilbao
bar,43.2767922,-2.9720787,Zorrotza,NO STREET 9999,Bilbao
bar,43.2768093,-2.9721573,El 10 de Fray Juan,NO STREET 9999,Bilbao
bar,43.2667571,-2.9369569,Suasan,NO STREET 9999,Bilbao
bar,43.2536101,-2.9118368,Malats Herri,NO STREET 9999,Bilbao
bar,43.2537991,-2.9118748,Bilbo,NO STREET 9999,Bilbao
bar,43.2537991,-2.9117103,Kaiku,NO STREET 9999,Bilbao
bar,43.2537512,-2.9116995,Boto,NO STREET 9999,Bilbao
bar,43.2538254,-2.911722,Luber,NO STREET 9999,Bilbao
bar,43.2543098,-2.9118199,Pequeño rancho,NO STREET 9999,Bilbao
bar,43.2551895,-2.9119548,Quisqueya,NO STREET 9999,Bilbao
bar,43.2966646,-2.9886552,Pub Baratzalde,NO STREET 9999,Bilbao
bar,43.2067066,-3.0454183,El último tranvía de Iorgi,NO STREET 9999,Bilbao
bar,43.2066501,-3.0454968,Mapri,NO STREET 9999,Bilbao
bar,43.2746433,-2.9731134,La bomba,Kastrexana etorbidea 9999,Bilbao
bar,43.2540919,-2.944765,Zubia,Calle Gordóniz / Gordoniz kalea 9999,Bilbao
bar,43.2756765,-2.9734117,Anaiak,Calle Astillero / Untziola kalea 9999,Bilbao
bar,43.2764987,-2.9739821,Rudi,NO STREET 9999,Bilbao
bar,43.2767361,-2.9741615,Dantzari,NO STREET 9999,Bilbao
bar,43.2754851,-2.9738664,Mila,Calle Astillero / Untziola kalea 9999,Bilbao
bar,43.2753791,-2.9742382,L@s leon@s,Calle Astillero / Untziola kalea 9999,Bilbao
bar,43.2760285,-2.972665,Compostela,NO STREET 9999,Bilbao
bar,43.2514273,-2.9436982,Bilbao,Carretera Errekalde-Larraskitu / Errekalde-Larraskitu errepidea 9999,Bilbao
bar,43.250994,-2.942675,NO NAME,Carretera Errekalde-Larraskitu / Errekalde-Larraskitu errepidea 9999,Bilbao
bar,43.2507239,-2.9420409,Antxon,Carretera Errekalde-Larraskitu / Errekalde-Larraskitu errepidea 9999,Bilbao
bar,43.2499658,-2.9400816,Artatxu,Carretera Errekalde-Larraskitu / Errekalde-Larraskitu errepidea 9999,Bilbao
bar,43.2689399,-2.9530425,Venus,Calle Jon Arrospide / Jon Arrospide kalea 9999,Bilbao
bar,43.270703,-2.952793,Presley 2,Calle Julio Urquijo / Julio Urquijo kalea 9999,Bilbao
bar,43.297432,-2.9871598,JG 4,NO STREET 9999,Bilbao
bar,43.2970786,-2.9882972,Green,NO STREET 9999,Bilbao
bar,43.2625346,-2.9466836,Athletic,NO STREET 9999,Bilbao
bar,43.2624879,-2.9467528,El Pandri,NO STREET 9999,Bilbao
bar,43.2599161,-2.938499,Casa Jesús,Calle Gordóniz / Gordoniz kalea 9999,Bilbao
bar,43.2769282,-2.9726,Askabide,NO STREET 9999,Bilbao
bar,43.2762662,-2.9736242,Taberna Indarra,NO STREET 9999,Bilbao
bar,43.2763449,-2.9739026,Jai Alai,NO STREET 9999,Bilbao
bar,43.2762355,-2.9741938,Gutiriz,Estrada Abaro / Abaro estrata 9999,Bilbao
bar,43.2762458,-2.9734747,Venecia,NO STREET 9999,Bilbao
bar,43.2761694,-2.9738892,Castilla,Estrada Abaro / Abaro estrata 9999,Bilbao
bar,43.2839,-2.9948245,Taberna Ederra,Avenida de Euskadi 9999,Bilbao
bar,43.2562966,-2.916269,Gaztelu,Iturribide Zeharkalea 9999,Bilbao
bar,43.2568253,-2.9170963,Aitzgorri,Iturribide kalea 70,Bilbao
bar,43.2561874,-2.9365475,Izarra,Calle General Concha / Concha jeneralaren kalea 9999,Bilbao
bar,43.2898741,-2.9795987,Katakumba,NO STREET 9999,Bilbao
bar,43.29008,-2.979503,New York,NO STREET 9999,Bilbao
bar,43.2900658,-2.9790928,Bodeguita caza y pesca,NO STREET 9999,Bilbao
bar,43.201657,-3.0487738,Argi,Calle Zelaieta 9999,Bilbao
bar,43.2016628,-3.0486976,Avenida,Calle Zelaieta 9999,Bilbao
bar,43.2599101,-2.9489505,Kepa,NO STREET 9999,Bilbao
bar,43.25911,-2.9492991,Luxury,Calle Luis Briñas / Luis Briñas kalea 9999,Bilbao
bar,43.2442884,-2.8957418,El Ático Bistro Bar,Calle Amézola 9999,Bilbao
bar,43.264643,-2.9269231,Dock,Uribitarte pasealekua / Paseo de Uribitarte 9999,Bilbao
bar,43.2642276,-2.9262806,Txocook,Uribitarte pasealekua / Paseo de Uribitarte 9999,Bilbao
bar,43.2779865,-2.9729441,Geltoki,NO STREET 9999,Bilbao
bar,43.2759872,-2.9716481,Milano,Kastrexana etorbidea 9999,Bilbao
bar,43.2759114,-2.971777,Las Navas,Kastrexana etorbidea 9999,Bilbao
bar,43.2756896,-2.9721219,Basarri,Kastrexana etorbidea 9999,Bilbao
bar,43.2749745,-2.9727457,Txiki,Kastrexana etorbidea 9999,Bilbao
bar,43.2749238,-2.9732064,Itsasmendi,Kastrexana etorbidea 9999,Bilbao
bar,43.2745996,-2.9740783,Madness,Camino Zorrozgoiti / Zorrozgoitibidea 9999,Bilbao
bar,43.2755174,-2.9739188,El cordobés,NO STREET 9999,Bilbao
bar,43.2693957,-2.9439628,Sagutxu,Calle Heliodoro de la Torre / Heliodoro de la Torre kalea 9999,Bilbao
bar,43.27003,-2.9444715,Txindoki,Calle Blas de Otero / Blas de Otero kalea 9999,Bilbao
bar,43.270288,-2.9457797,Lauburu,Calle Rafaela Ybarra / Rafaela Ybarra kalea 9999,Bilbao
bar,43.2698159,-2.9442533,Deustuko batzokia,Calle Heliodoro de la Torre / Heliodoro de la Torre kalea 9999,Bilbao
bar,43.2699991,-2.9447835,Otero 9 etxea,Calle Blas de Otero / Blas de Otero kalea 9,Bilbao
bar,43.2702347,-2.9453281,Txoko del vino,Calle Blas de Otero / Blas de Otero kalea 9999,Bilbao
bar,43.2701821,-2.946147,Oriotarra,Calle Blas de Otero / Blas de Otero kalea 9999,Bilbao
bar,43.2701821,-2.9462814,La tapa,Calle Blas de Otero / Blas de Otero kalea 9999,Bilbao
bar,43.2698868,-2.9439593,JM,Calle Heliodoro de la Torre / Heliodoro de la Torre kalea 4,Bilbao
bar,43.2698235,-2.9495868,Jacinta,Calle Blas de Otero / Blas de Otero kalea 9999,Bilbao
bar,43.2697643,-2.9504872,Santa Fe,Calle Blas de Otero / Blas de Otero kalea 9999,Bilbao
bar,43.2690971,-2.9291275,Etxebarria,Calle Uriortu / Uriortu kalea 9999,Bilbao
bar,43.268427,-2.9278286,Fontecha,Calle Fontecha y Salazar / Fontecha eta Salazar kalea 9999,Bilbao
bar,43.2679746,-2.9274046,Bilba,Calle Uriortu / Uriortu kalea 9999,Bilbao
bar,43.2676357,-2.927012,La pasarela,Calle Uriortu / Uriortu kalea 9999,Bilbao
bar,43.2516683,-2.944751,Goizalde,NO STREET 9999,Bilbao
bar,43.2517907,-2.9449581,Tobogán,NO STREET 9999,Bilbao
bar,43.25104,-2.9463224,Ilargi,Calle Lemoatz 9999,Bilbao
bar,43.2509845,-2.9463294,Rio,Calle Lemoatz 9999,Bilbao
bar,43.2509334,-2.9463441,El encuentro,Calle Lemoatz 9999,Bilbao
bar,43.2507055,-2.9463748,Bienve,Calle Lemoatz 9999,Bilbao
bar,43.2490455,-2.9457975,Al abordaje,NO STREET 9999,Bilbao
bar,43.2507747,-2.9463634,Lauko,Calle Lemoatz 9999,Bilbao
bar,43.248917,-2.9454107,Bizkargi,NO STREET 9999,Bilbao
bar,43.251149,-2.9463219,La Plaza,NO STREET 9999,Bilbao
bar,43.2496024,-2.9466397,Helguera,Calle León de Uruñuela / Leon de Uruñuela kalea 9999,Bilbao
bar,43.25089,-2.9463461,Lagun artean,Calle Lemoatz 9999,Bilbao
bar,43.2493849,-2.9465792,El rinconcito,NO STREET 9999,Bilbao
bar,43.2508418,-2.9463461,Peña Lemona,Calle Lemoatz 9999,Bilbao
bar,43.2503118,-2.9465626,Tranvía,Calle Anboto / Anboto kalea 9999,Bilbao
bar,43.2492311,-2.9463439,Otxabide,Estrada Caleros 9999,Bilbao
bar,43.2495792,-2.9464788,V8,Calle León de Uruñuela / Leon de Uruñuela kalea 9999,Bilbao
bar,43.2493033,-2.9464279,La union,Estrada Caleros 9999,Bilbao
bar,43.2494438,-2.9465817,La parada,NO STREET 9999,Bilbao
bar,43.2496148,-2.9467914,99,Calle Gordóniz / Gordoniz kalea 99,Bilbao
bar,43.2494747,-2.9470836,Bambú,NO STREET 9999,Bilbao
bar,43.2586662,-2.93654,El Guá,NO STREET 9999,Bilbao
bar,43.3008499,-2.9898106,Kabilako,NO STREET 9999,Bilbao
bar,43.3004491,-2.9893316,Nervión,NO STREET 9999,Bilbao
bar,43.3000869,-2.9890187,El rincón de Montxo,NO STREET 9999,Bilbao
bar,43.2954891,-2.9868206,Don Benito,NO STREET 9999,Bilbao
bar,43.2954161,-2.9864312,Tres rombos,Calle Nafarroa / Nafarroa kalea 9999,Bilbao
bar,43.2959867,-2.9887757,Zazpi,NO STREET 9999,Bilbao
bar,43.2959755,-2.988488,El bodegón,NO STREET 9999,Bilbao
bar,43.295875,-2.9886353,Aizagar,NO STREET 9999,Bilbao
bar,43.2976812,-2.9928092,Manu,NO STREET 9999,Bilbao
bar,43.2977268,-2.9929361,La parrilla,NO STREET 9999,Bilbao
bar,43.2966148,-2.991494,Berango,NO STREET 9999,Bilbao
bar,43.2986939,-2.9919134,Zarra,NO STREET 9999,Bilbao
bar,43.2992251,-2.9890744,Sas,NO STREET 9999,Bilbao
bar,43.2640966,-2.9225388,Oleaga,Avenida Zumalacarregui / Zumalacarregui etorbidea 9999,Bilbao
bar,43.2642359,-2.9225518,El gas,Avenida Zumalacarregui / Zumalacarregui etorbidea 9999,Bilbao
bar,43.2764771,-2.8447166,Taberna Gaztedi,Txorierri errepidea 9999,Bilbao
bar,43.2302251,-2.8420973,Zurrut Taberna,NO STREET 9999,Bilbao
bar,43.2984209,-2.9920674,Gilda ilargi,NO STREET 9999,Bilbao
bar,43.2993426,-2.9924352,Galatea,NO STREET 9999,Bilbao
bar,43.2988356,-2.9928277,Aitana,Avenida de la Libertad / Askatasun etorbidea 9999,Bilbao
bar,43.2993454,-2.9925342,Bodega La Felicidad,NO STREET 9999,Bilbao
bar,43.2300754,-2.8426788,Alai,NO STREET 9999,Bilbao
bar,43.2310824,-2.8410853,Topa,NO STREET 9999,Bilbao
bar,43.2298539,-2.8472925,Galdakanes,NO STREET 9999,Bilbao
bar,43.2620655,-2.9325915,zureKin,Calle Diputación / Diputazio kalea 8,Bilbao
bar,43.2952019,-2.9858103,Marta,NO STREET 9999,Bilbao
bar,43.2943305,-2.9855292,Centro manchego,NO STREET 9999,Bilbao
bar,43.2942171,-2.9863489,Irrintzi taberna,Calle Bizkaia / Bizkaia kalea 9999,Bilbao
bar,43.2943269,-2.9858889,Almachar,NO STREET 9999,Bilbao
bar,43.2941511,-2.9857436,Copa,Calle Castilla y León / Castilla y Leon kalea 9999,Bilbao
bar,43.2946411,-2.9856547,Los hermanos,NO STREET 9999,Bilbao
bar,43.2970022,-2.9846985,Kiba,NO STREET 9999,Bilbao
bar,43.2939411,-2.9860562,New Apuko,NO STREET 9999,Bilbao
bar,43.2985459,-2.9887064,El cuervo,NO STREET 9999,Bilbao
bar,43.300069,-2.988985,El rincón de Montxo,NO STREET 9999,Bilbao
bar,43.2072744,-2.8877748,Niko,NO STREET 9999,Bilbao
bar,43.2071794,-2.887774,Coyote,NO STREET 9999,Bilbao
bar,43.2090986,-2.8865752,Goikiri,NO STREET 9999,Bilbao
bar,43.2073371,-2.8870479,Bizkaia,NO STREET 9999,Bilbao
bar,43.2097689,-2.8867495,Goikiri bi,NO STREET 9999,Bilbao
bar,43.2098782,-2.8867705,Gurea,NO STREET 9999,Bilbao
bar,43.2078581,-2.8871678,Paradise,NO STREET 9999,Bilbao
bar,43.2105205,-2.8873049,An-Mari,NO STREET 9999,Bilbao
bar,43.2105115,-2.8878197,Bazter,NO STREET 9999,Bilbao
bar,43.3487761,-3.0108054,Etxetxu Berria,Amezti kalea 2,Bilbao
bar,43.2374979,-2.8803798,Saldaña,Catalunya kalea 9999,Bilbao
bar,43.3258546,-3.0134284,Alguer,NO STREET 9999,Bilbao
bar,43.32615,-3.0140931,OKU lounge,NO STREET 9999,Bilbao
bar,43.3506396,-3.0106197,Okondo,NO STREET 9999,Bilbao
bar,43.3392968,-3.015037,Silver's Tavern,NO STREET 9999,Bilbao
bar,43.3494166,-3.0120901,Aterki,NO STREET 9999,Bilbao
bar,43.2847033,-2.9836986,Parada,NO STREET 9999,Bilbao
bar,43.3175648,-3.0223174,Bazkuna,Calle Ruperto Medina Kalea 3,Bilbao
bar,43.2052989,-2.8889652,Sorgiñe,NO STREET 9999,Bilbao
bar,43.2114812,-2.8881194,Ugari,NO STREET 9999,Bilbao
bar,43.2084773,-2.887079,Argia,NO STREET 9999,Bilbao
bar,43.2704485,-2.9567986,Lorea,NO STREET 9999,Bilbao
bar,43.2048927,-2.889579,Sugar,NO STREET 9999,Bilbao
bar,43.2070757,-2.8860909,Ibai,NO STREET 9999,Bilbao
bar,43.206763,-2.8871713,Embrujo,NO STREET 9999,Bilbao
bar,43.205735,-2.8887843,Elizondo,NO STREET 9999,Bilbao
bar,43.2053929,-2.8870953,Erreka,NO STREET 9999,Bilbao
bar,43.2057458,-2.8867548,Clandestino,NO STREET 9999,Bilbao
bar,43.2058972,-2.8866542,Mississippi,NO STREET 9999,Bilbao
bar,43.2068768,-2.8883521,El caserío,NO STREET 9999,Bilbao
bar,43.2063872,-2.8881423,Batzokia,NO STREET 9999,Bilbao
bar,43.2065941,-2.8878864,Txistu,NO STREET 9999,Bilbao
bar,43.2218161,-2.8859846,Iturrialde,NO STREET 9999,Bilbao
bar,43.2376191,-2.8909801,Paulino,NO STREET 9999,Bilbao
bar,43.2371343,-2.8879871,La koral,Autonomia kalea 9999,Bilbao
bar,43.2378957,-2.887022,Uribarri,NO STREET 9999,Bilbao
bar,43.2389053,-2.8871065,La Perla,NO STREET 9999,Bilbao
bar,43.2360226,-2.8808215,Xurol,Avenida Lehendakari Aguirre 9999,Bilbao
bar,43.2357297,-2.8796917,5 estrellas,Avenida Lehendakari Aguirre 9999,Bilbao
bar,43.25707,-2.9508858,Suarez,NO STREET 9999,Bilbao
bar,43.367481,-3.0179356,Bar Enea,NO STREET 9999,Bilbao
bar,43.3218437,-2.9871784,Ola Azpi,NO STREET 9999,Bilbao
bar,43.3218839,-2.9871805,Gure Etxea,NO STREET 9999,Bilbao
bar,43.2965023,-2.9985225,Café Zalbi,NO STREET 9999,Bilbao
bar,43.2548123,-2.9263962,Aretxaga-Miribilla,Aretxaga kalea / Calle Aretxaga 9999,Bilbao
bar,43.2542104,-2.9255914,Zubi ondo,NO STREET 9999,Bilbao
bar,43.3224761,-2.9845054,Ramoni,NO STREET 9999,Bilbao
bar,43.3224005,-2.985004,Alazne,NO STREET 9999,Bilbao
bar,43.2607123,-2.9174978,Oñati,NO STREET 9999,Bilbao
bar,43.2607565,-2.9174434,El Ancla,NO STREET 9999,Bilbao
bar,43.2534363,-2.92473,Saralegi,NO STREET 9999,Bilbao
bar,43.3171398,-3.0229851,Saper,NO STREET 9999,Bilbao
bar,43.3165791,-2.9836005,Victor,NO STREET 9999,Bilbao
bar,43.316051,-2.9837005,Atxebeko,Calle Lubarri 2,Bilbao
bar,43.3163217,-2.9834252,Larrasa,NO STREET 9999,Bilbao
bar,43.3163848,-2.983315,Antonio,Calle Etxegorri 9999,Bilbao
bar,43.3158213,-2.9838264,Batzokia,NO STREET 9999,Bilbao
bar,43.3159967,-2.9832407,Primera línea,Calle Trabudua 9999,Bilbao
bar,43.3161057,-2.983336,Trabudua,Calle Trabudua 9999,Bilbao
bar,43.31464,-2.984323,Arrantzale,Calle Atxutegi 9999,Bilbao
bar,43.3155915,-2.9846764,Taska barri,Calle Etxegorri 9999,Bilbao
bar,43.3157616,-2.984375,Coppi,Calle Etxegorri 9999,Bilbao
bar,43.3160693,-2.983119,CLC,Calle Trabudua 9999,Bilbao
bar,43.3162824,-2.9828157,Stop,Calle Consulado de Bilbao 9999,Bilbao
bar,43.3156357,-2.9829308,Gambrinus,Atze bidea 9999,Bilbao
bar,43.3160564,-2.9839907,San Lorenzo,NO STREET 9999,Bilbao
bar,43.3160676,-2.9837795,Akeitetxe,NO STREET 9999,Bilbao
bar,43.3157172,-2.9844376,Etxegorri,Calle Etxegorri 9999,Bilbao
bar,43.3176671,-2.9844396,La. Montaña,Calle Consulado de Bilbao 9999,Bilbao
bar,43.3167961,-2.984197,Eguzkilore,NO STREET 9999,Bilbao
bar,43.3167312,-2.9842759,Marsan,NO STREET 9999,Bilbao
bar,43.3170898,-2.9840099,Conde,Calle Consulado de Bilbao 9999,Bilbao
bar,43.266327,-2.9315683,Kuvée,Calle Lersundi / Lersundi kalea 5,Bilbao
bar,43.2912556,-3.0495712,Irene,NO STREET 9999,Bilbao
bar,43.2531081,-2.9341008,Marlo,Xenpelar kalea / Calle Xenpelar 9999,Bilbao
bar,43.2949032,-2.9955321,Nando,NO STREET 9999,Bilbao
bar,43.2916438,-2.9897361,Aragon,NO STREET 9999,Bilbao
bar,43.2476486,-2.9908094,Rincon,NO STREET 9999,Bilbao
bar,43.2953441,-2.9976164,Café Ideal,NO STREET 9999,Bilbao
bar,43.2866408,-2.9802782,Lagun berriek,NO STREET 9999,Bilbao
bar,43.2837704,-2.9831753,Jaikar,Calle Balejo / Balejo kalea 9999,Bilbao
bar,43.2863647,-2.9805509,Guridi,NO STREET 9999,Bilbao
bar,43.2836136,-2.9830932,Cies,Calle Balejo / Balejo kalea 9999,Bilbao
bar,43.2841173,-2.9832537,Riazor,NO STREET 9999,Bilbao
bar,43.2852132,-2.9841654,Herradura,Calle Balejo / Balejo kalea 9999,Bilbao
bar,43.2863066,-2.980459,Juaitor,NO STREET 9999,Bilbao
bar,43.2865042,-2.9799217,Alberdi,NO STREET 9999,Bilbao
bar,43.2802925,-2.9831366,Santi,Calle Vista Alegre kalea 9999,Bilbao
bar,43.2808847,-2.9830041,Roman,Plaza de Cruces 9999,Bilbao
bar,43.2800278,-2.9831483,Batzoki,NO STREET 9999,Bilbao
bar,43.2801748,-2.9833892,Vista Alegre,Calle Vista Alegre kalea 9999,Bilbao
bar,43.307787,-2.9983218,Pagoa,NO STREET 9999,Bilbao
bar,43.3092474,-3.0047395,O'Ryan,Calle Los Baños 9999,Bilbao
bar,43.3088519,-3.0049698,Metro cafe,Gran Vía de José Antonio Aguirre 9999,Bilbao
bar,43.3079058,-2.9981936,La parada,Calle Gran Vía de José Antonio Agirre y Lekube / Jose Antonio Agirre y Lekube bide nagusia kalea 9999,Bilbao
bar,43.3082969,-3.0014733,Kaixo,Calle Condesa Pardo Bazán 9999,Bilbao
bar,43.3091779,-3.0061002,Donde wolki,Gran Vía de José Antonio Aguirre 9999,Bilbao
bar,43.2810848,-2.9842654,Taberna Cruces,Calle Juan XXIII 9999,Bilbao
bar,43.2940453,-2.9860142,Sastre,NO STREET 9999,Bilbao
bar,43.2939685,-2.9849172,Beer rock and roll,NO STREET 9999,Bilbao
bar,43.2641927,-2.9414668,Indarra,Alameda Doctor Areilza / Areiltza doktorearen zumarkalea 9999,Bilbao
bar,43.2977399,-2.9876793,Embrujo,Calle Zaballa / Zaballa kalea 1,Bilbao
bar,43.2691664,-2.9511288,El canal,Eraso jeneralaren kalea / Calle General Eraso 4,Bilbao
bar,43.2693996,-2.9510875,Goiri eder,Eraso jeneralaren kalea / Calle General Eraso 6,Bilbao
bar,43.2696342,-2.9515794,Berri Haizea,Blas de Otero kalea 9999,Bilbao
bar,43.2562475,-2.9331224,Amanecer,NO STREET 9999,Bilbao
bar,43.3003913,-2.9891861,Blanco y negro,NO STREET 9999,Bilbao
bar,43.2110637,-2.888349,Meneses,Paseo Urgoiti 9999,Bilbao
bar,43.2104936,-2.888173,Geltoki,Paseo Urgoiti 9999,Bilbao
bar,43.2826407,-2.9816071,Euskalduna,NO STREET 9999,Bilbao
bar,43.2824513,-2.982355,Café montañes,NO STREET 9999,Bilbao
bar,43.2821278,-2.9825589,Altos Hornos,NO STREET 9999,Bilbao
bar,43.2807836,-2.9873993,Maymu,NO STREET 9999,Bilbao
bar,43.2799249,-2.9858144,Café Berria,NO STREET 9999,Bilbao
bar,43.2801474,-2.9872857,Barrola,NO STREET 9999,Bilbao
bar,43.280623,-2.9882606,Sport,NO STREET 9999,Bilbao
bar,43.3245868,-2.9833165,Bar San Juan,NO STREET 9999,Bilbao
bar,43.237942,-2.8975352,Riazor,Calle Karmelo Torre 9999,Bilbao
bar,43.2118312,-2.8897461,Ikusi,NO STREET 9999,Bilbao
bar,43.2396804,-2.9182375,La esquina,Calle de San Jose Obrero 1,Bilbao
bar,43.239776,-2.9181499,Kaskarrilla,Calle de San Jose Obrero 9999,Bilbao
bar,43.2400377,-2.9179281,La amistad,Calle de San Jose Obrero 9999,Bilbao
bar,43.240412,-2.9173578,Patxi,Calle de San Jose Obrero 9999,Bilbao
bar,43.2402745,-2.917778,Jasp,NO STREET 9999,Bilbao
bar,43.2424104,-2.9175358,Santa Isabel,Santa Isabel kalea / Calle Santa Isabel 9999,Bilbao
bar,43.2426973,-2.9168139,Copacabana,NO STREET 9999,Bilbao
bar,43.2401803,-2.9178839,Aloha,Calle Veintidos de Diciembre 9999,Bilbao
bar,43.209453,-2.8903977,Fer's,NO STREET 9999,Bilbao
bar,43.3265411,-3.0063404,Texas,NO STREET 9999,Bilbao
bar,43.3235058,-3.0271789,Aquí te espero,Calle General Castaños 87,Bilbao
bar,43.3255235,-3.0144783,Hodei,NO STREET 9999,Bilbao
bar,43.3254443,-3.0146325,Sugaar,NO STREET 9999,Bilbao
bar,43.3007211,-2.9899741,NO NAME,NO STREET 9999,Bilbao
bar,43.3262371,-3.014716,Premierk,NO STREET 9999,Bilbao
bar,43.3273306,-3.0113067,La Despensa,NO STREET 9999,Bilbao
bar,43.3217577,-3.0099223,Isartur,NO STREET 9999,Bilbao
bar,43.3221969,-3.009656,Ibai,NO STREET 9999,Bilbao
bar,43.2357905,-2.890815,NO NAME,NO STREET 9999,Bilbao
bar,43.2359451,-2.8899643,NO NAME,NO STREET 9999,Bilbao
bar,43.2365488,-2.8857375,Kozkil,NO STREET 9999,Bilbao
bar,43.2369979,-2.8857192,New magic,Avenida Lehendakari Aguirre 9999,Bilbao
bar,43.2358206,-2.8811539,El rincón de Soloarte,Soloarte 9999,Bilbao
bar,43.2359464,-2.8807191,Zubi-ondo,Avenida Lehendakari Aguirre 9999,Bilbao
bar,43.3476945,-3.009947,NO NAME,NO STREET 9999,Bilbao
bar,43.3508294,-3.0101367,Tangora,NO STREET 9999,Bilbao
bar,43.2840952,-2.9830396,Netxe,NO STREET 9999,Bilbao
bar,43.3011622,-2.9906663,Parada,NO STREET 9999,Bilbao
pub,43.2701547,-2.941261,La Terraza,NO STREET 9999,Bilbao
pub,43.3261731,-3.0075859,Anaiak,NO STREET 9999,Bilbao
pub,43.3291994,-3.0075841,Gobela,NO STREET 9999,Bilbao
pub,43.26511,-2.9437959,Cervecería Mugarri,NO STREET 9999,Bilbao
pub,43.2612043,-2.9256045,Bilbo beer,Calle Amistad / Adiskidetasun kalea 4,Bilbao
pub,43.2630054,-2.9311344,Basque,NO STREET 9999,Bilbao
pub,43.3276029,-2.9916955,Mulligans,NO STREET 9999,Bilbao
pub,43.2754751,-2.9553759,NO NAME,NO STREET 9999,Bilbao
pub,43.2758873,-2.9556985,Txakoli,NO STREET 9999,Bilbao
pub,43.2758971,-2.9566987,NO NAME,NO STREET 9999,Bilbao
pub,43.276314,-2.9574549,Amets,NO STREET 9999,Bilbao
pub,43.2761977,-2.957688,Ibarreko,NO STREET 9999,Bilbao
pub,43.2755711,-2.9566917,Gasteiz,NO STREET 9999,Bilbao
pub,43.2824678,-2.9918466,Bar Pepe's,NO STREET 9999,Bilbao
pub,43.352791,-2.8420642,Irudi kafetegia,NO STREET 9999,Bilbao
pub,43.3540159,-2.8483387,Barrakilla taberna,NO STREET 9999,Bilbao
pub,43.3539236,-2.849083,Kioba taberna,NO STREET 9999,Bilbao
pub,43.3544918,-2.8476193,Kos taska,NO STREET 9999,Bilbao
pub,43.3270844,-3.0087164,Karibe,NO STREET 9999,Bilbao
pub,43.3273406,-3.0083735,Basajaun,NO STREET 9999,Bilbao
pub,43.2648828,-2.9444516,RockStar,NO STREET 9999,Bilbao
pub,43.2639605,-2.9440892,Berton,NO STREET 9999,Bilbao
pub,43.2603958,-2.9439642,La Taberna de los Mundos,Calle Simón Bolívar / Simon Bolivar kalea 17,Bilbao
pub,43.3485248,-3.0110011,Pippers,NO STREET 9999,Bilbao
pub,43.262533,-2.9424741,La Sureña,NO STREET 9999,Bilbao
pub,43.2595934,-2.9401668,O'Morcego,Calle Aureliano Valle / Aureliano Valle kalea 1,Bilbao
pub,43.2598104,-2.9405238,Cotton Club,NO STREET 9999,Bilbao
pub,43.2596708,-2.9399747,Buho's,NO STREET 9999,Bilbao
pub,43.2903083,-2.9988358,Bar Rosi,NO STREET 9999,Bilbao
pub,43.2909992,-2.9972225,Bar Abad,NO STREET 9999,Bilbao
pub,43.2909027,-2.9971342,Bar Apolo,NO STREET 9999,Bilbao
pub,43.2918499,-2.9903621,Bodegón Quiroga,Calle Landaberri 4,Bilbao
pub,43.2910371,-2.9949867,Bar Gure Etxea,NO STREET 9999,Bilbao
pub,43.2901041,-2.9963805,Bazkuna,NO STREET 9999,Bilbao
pub,43.2900125,-2.9963289,Bar Mosquera,NO STREET 9999,Bilbao
pub,43.2900692,-2.9959517,Bar Txikitin,NO STREET 9999,Bilbao
pub,43.2912705,-2.9929893,Bar Fleming,NO STREET 9999,Bilbao
pub,43.2911881,-2.9929784,Bar Eukene,NO STREET 9999,Bilbao
pub,43.2906008,-2.9966228,Bar Garu,NO STREET 9999,Bilbao
pub,43.2913245,-2.9940654,Pata Negra,NO STREET 9999,Bilbao
pub,43.2903204,-2.9961105,Bar Andrés,NO STREET 9999,Bilbao
pub,43.2957166,-2.9947262,La Cata,NO STREET 9999,Bilbao
pub,43.2921963,-2.9925837,Bar Miño,NO STREET 9999,Bilbao
pub,43.2920667,-2.9916143,Bar Regio,NO STREET 9999,Bilbao
pub,43.2920569,-2.9917062,Bar Santoña,NO STREET 9999,Bilbao
pub,43.2700132,-2.943181,Old Town,NO STREET 9999,Bilbao
pub,43.3257582,-3.0077537,Aratxu,NO STREET 9999,Bilbao
pub,43.2602136,-2.9303197,La Taberna de los Mundos,Calle Lutxana / Lutxana kalea 1,Bilbao
pub,43.2922374,-2.9910087,Bar Arantxa,NO STREET 9999,Bilbao
pub,43.2904102,-2.9947382,Bar Antonio,NO STREET 9999,Bilbao
pub,43.2902856,-3.0014913,Las Esperanzas,NO STREET 9999,Bilbao
pub,43.2921204,-2.9907051,Bar Londres,NO STREET 9999,Bilbao
pub,43.2921524,-2.9900659,Bar Rubén,NO STREET 9999,Bilbao
pub,43.2917103,-2.9922411,Bar Aroletza,NO STREET 9999,Bilbao
pub,43.2912698,-2.9918272,La Jarra,NO STREET 9999,Bilbao
pub,43.2919741,-2.9905746,Bar Atoo,NO STREET 9999,Bilbao
pub,43.2692777,-2.9838621,NO NAME,NO STREET 9999,Bilbao
pub,43.351273,-3.0099982,Baserri,NO STREET 9999,Bilbao
pub,43.2974415,-2.9882561,Bar Mendi,NO STREET 9999,Bilbao
pub,43.2947201,-2.9964484,El Caserío,NO STREET 9999,Bilbao
pub,43.2967162,-2.9883772,New Sony,NO STREET 9999,Bilbao
pub,43.2972922,-2.9808547,Nilos,NO STREET 9999,Bilbao
pub,43.2972274,-2.9807923,Bar Tolo,NO STREET 9999,Bilbao
pub,43.2900222,-2.9957208,Bar Jukia,NO STREET 9999,Bilbao
pub,43.2951279,-2.9986711,Bar Batasuna,NO STREET 9999,Bilbao
pub,43.2917474,-2.9935065,Bar Mejicano,NO STREET 9999,Bilbao
pub,43.2687214,-2.9516191,Gabiña,NO STREET 9999,Bilbao
pub,43.2619398,-2.9481842,Bar Aliron,NO STREET 9999,Bilbao
pub,43.2915319,-2.9936409,Bar Europa,NO STREET 9999,Bilbao
pub,43.3163609,-2.9814071,Portal de Rioja,NO STREET 9999,Bilbao
pub,43.2553607,-2.9167776,Bar Cynos,NO STREET 9999,Bilbao
pub,43.2663071,-2.9302898,El Galeon,NO STREET 9999,Bilbao
pub,43.3206552,-3.0185803,Dond Pepe,NO STREET 9999,Bilbao
pub,43.257103,-2.9172773,Bar Sorgiñe,NO STREET 9999,Bilbao
pub,43.2906248,-2.9945878,Bar Angelín,NO STREET 9999,Bilbao
pub,43.2828875,-2.9644834,Lagun Toki,NO STREET 9999,Bilbao
pub,43.2978169,-2.9841427,Bar Biltoki,NO STREET 9999,Bilbao
pub,43.2652813,-2.9298516,Mistyk,Calle Ercilla / Ercilla kalea 1,Bilbao
pub,43.3523477,-3.0091573,Abian Kultur Elkartea,Bidebarri 2,Bilbao
pub,43.3559617,-2.8457503,Bar Berezi,NO STREET 9999,Bilbao
pub,43.25396,-2.9133621,NO NAME,NO STREET 9999,Bilbao
pub,43.2578031,-2.9255686,Bar Santamaria,NO STREET 9999,Bilbao
pub,43.2579897,-2.9196005,Babylon,NO STREET 9999,Bilbao
pub,43.2556056,-2.922856,La Gernikesa,NO STREET 9999,Bilbao
pub,43.2574242,-2.9224055,Urkia,NO STREET 9999,Bilbao
pub,43.256529,-2.9251151,Mustang,NO STREET 9999,Bilbao
pub,43.2565775,-2.9250894,Hells Bells,NO STREET 9999,Bilbao
pub,43.2565277,-2.9252855,Zipo,NO STREET 9999,Bilbao
pub,43.2573867,-2.9249208,Zulo Taberna,NO STREET 9999,Bilbao
pub,43.2574141,-2.925004,Zazpi Bide Taberna,NO STREET 9999,Bilbao
pub,43.2572188,-2.9252279,INAKIren,NO STREET 9999,Bilbao
pub,43.2569554,-2.9255387,Livingstone?,Calle Barrenkale Barrena / Barrenkale Barrena 9999,Bilbao
pub,43.2515108,-2.9232086,Bar De Aitor,NO STREET 9999,Bilbao
pub,43.262053,-2.9284542,Atseden,NO STREET 9999,Bilbao
pub,43.2605015,-2.9358225,Art Bilbao,NO STREET 9999,Bilbao
pub,43.2605989,-2.9340746,Bodega Palas,NO STREET 9999,Bilbao
pub,43.2610336,-2.9316319,Karaoke Car's,NO STREET 9999,Bilbao
pub,43.2611178,-2.9318075,Karaoke Rendez-vous Losu,NO STREET 9999,Bilbao
pub,43.2642805,-2.92978,Blue Moon,NO STREET 9999,Bilbao
pub,43.2655017,-2.9299418,La Matua,NO STREET 9999,Bilbao
pub,43.2661959,-2.9358503,Museo Artean Taberna,NO STREET 9999,Bilbao
pub,43.2614353,-2.9346922,Bluesville,NO STREET 9999,Bilbao
pub,43.2612113,-2.9347722,Azzurro,NO STREET 9999,Bilbao
pub,43.2613367,-2.9350018,The Drugstore,NO STREET 9999,Bilbao
pub,43.2544727,-2.9242749,Mandragora,NO STREET 9999,Bilbao
pub,43.2577583,-2.9277424,Disco-Pub High Zona High,NO STREET 9999,Bilbao
pub,43.2648013,-2.9421644,Foster's Hollywood,NO STREET 9999,Bilbao
pub,43.2673325,-2.9386144,Plaza Bar,Plaza Euskadi / Euskadi plaza 3,Bilbao
pub,43.2674661,-2.9390551,Mini Bar Bilbao,Deustuko zubia / Puente de Deustu 6,Bilbao
pub,43.3149367,-3.0177219,Bar Andoni,NO STREET 9999,Bilbao
pub,43.2624523,-2.9390738,Despacho,Calle Maestro García Rivero / Garcia Rivero maisuaren kalea 4,Bilbao
pub,43.2618862,-2.9404267,La Salve,NO STREET 9999,Bilbao
pub,43.2620295,-2.9411157,La Santa Caña,NO STREET 9999,Bilbao
pub,43.2620498,-2.9412064,Gales,NO STREET 9999,Bilbao
pub,43.2620702,-2.9413077,Matxitxako,NO STREET 9999,Bilbao
pub,43.2637336,-2.9408301,Molly Malone,Calle Estrauntza / Estrauntza kalea 9999,Bilbao
pub,43.2647712,-2.9450064,Sir Winston Churchill Pub,NO STREET 9999,Bilbao
pub,43.2623298,-2.9437819,La Carbonería,NO STREET 9999,Bilbao
pub,43.2623689,-2.9441853,Corto Maltes,NO STREET 9999,Bilbao
pub,43.293999,-2.9862848,Bar Sobrado,NO STREET 9999,Bilbao
pub,43.2937408,-2.9859128,Landa,NO STREET 9999,Bilbao
pub,43.3212745,-3.0180116,Bar Vinillos,Koskojales Kalea 6,Bilbao
pub,43.2859634,-2.870734,Pub Salamandra,NO STREET 9999,Bilbao
pub,43.2954612,-2.9976205,Mesón Peña,NO STREET 9999,Bilbao
pub,43.2965815,-2.9890961,Sugoi,NO STREET 9999,Bilbao
pub,43.2969902,-2.9883552,Mullins,NO STREET 9999,Bilbao
pub,43.237845,-2.8889448,El Rincón de Rufo,NO STREET 9999,Bilbao
pub,43.2681155,-2.9249629,Atlántida - Mariscos & Ibéricos,NO STREET 9999,Bilbao
pub,43.3458807,-3.0080424,Bar Lopetxene,NO STREET 9999,Bilbao
pub,43.252509,-2.9377156,Avalon Tavern,NO STREET 9999,Bilbao
pub,43.2833503,-2.9958711,Bikoitz,NO STREET 9999,Bilbao
pub,43.3297685,-3.0080593,Bar Bikale,NO STREET 9999,Bilbao
pub,43.2957801,-2.9952703,Palacios,NO STREET 9999,Bilbao
pub,43.2954612,-2.9982514,LatasK,NO STREET 9999,Bilbao
pub,43.2675719,-2.9336023,Sixty-One Lobby Bar,NO STREET 9999,Bilbao
pub,43.2979637,-2.9837071,Pormetxeta berria,NO STREET 9999,Bilbao
pub,43.297889,-2.9888843,Antídoto,NO STREET 9999,Bilbao
pub,43.2986931,-2.9888476,Mendigo,NO STREET 9999,Bilbao
pub,43.2989629,-2.9886263,Eclipse,NO STREET 9999,Bilbao
pub,43.299514,-2.9884315,Puntazo,NO STREET 9999,Bilbao
pub,43.2659288,-2.9220323,Pub Key,Calle del Cristo / Kristo kalea 9999,Bilbao
pub,43.2988932,-2.9884694,El potro,NO STREET 9999,Bilbao
pub,43.2525374,-2.9125521,Snoopy,Particular Allende kalea 15,Bilbao
pub,43.2946316,-2.9927687,La Vieja Banda,NO STREET 9999,Bilbao
pub,43.2968259,-2.9804866,Bodega Larrea,NO STREET 9999,Bilbao
pub,43.297953,-2.9870075,Akrata,NO STREET 9999,Bilbao
pub,43.327575,-2.9897465,Bar Estartetxe,Calle Estartetxe 17,Bilbao
pub,43.3395176,-3.0153294,El Faro Getxo,NO STREET 9999,Bilbao
pub,43.2967703,-2.9918914,Trastevere,NO STREET 9999,Bilbao
cafe,43.2546807,-2.9223182,Hikaateneo Bilbao,NO STREET 9999,Bilbao
cafe,43.2625876,-2.9343305,Cafe & Te GR Compañía del trópico,NO STREET 9999,Bilbao
cafe,43.3313924,-2.967459,Garai,NO STREET 9999,Bilbao
cafe,43.2582221,-2.9384709,Olimpia,NO STREET 9999,Bilbao
cafe,43.2765073,-2.9587538,Eureka,NO STREET 9999,Bilbao
cafe,43.276716,-2.958292,Alcoba,NO STREET 9999,Bilbao
cafe,43.2766021,-2.9585104,Casa del pueblo,NO STREET 9999,Bilbao
cafe,43.2773654,-2.9592544,Banderas,NO STREET 9999,Bilbao
cafe,43.2754673,-2.9568565,Tirol,NO STREET 9999,Bilbao
cafe,43.2762978,-2.9561928,NO NAME,NO STREET 9999,Bilbao
cafe,43.2767133,-2.9590876,NO NAME,NO STREET 9999,Bilbao
cafe,43.27508,-2.9567742,Josebar,NO STREET 9999,Bilbao
cafe,43.2759587,-2.9568133,Mesón de Luis,NO STREET 9999,Bilbao
cafe,43.2765687,-2.9576826,Morlans,NO STREET 9999,Bilbao
cafe,43.2754283,-2.9567921,Txirrindu,NO STREET 9999,Bilbao
cafe,43.2750378,-2.9573017,NO NAME,NO STREET 9999,Bilbao
cafe,43.2624958,-2.9479053,Antxi,NO STREET 9999,Bilbao
cafe,43.2626369,-2.9474714,La Catedral,NO STREET 9999,Bilbao
cafe,43.2372971,-2.8774558,Cafe-Bar Urbi,NO STREET 9999,Bilbao
cafe,43.2317257,-2.8505242,Vitoria,NO STREET 9999,Bilbao
cafe,43.2700645,-2.941344,Zubialde,NO STREET 9999,Bilbao
cafe,43.320794,-3.0169535,Rovira,NO STREET 9999,Bilbao
cafe,43.3319886,-2.9705425,Liboa,NO STREET 9999,Bilbao
cafe,43.2572684,-2.9380265,Bar Oli,Calle Autonomía / Autonomia kalea 19,Bilbao
cafe,43.3214943,-3.0351814,Carlos,NO STREET 9999,Bilbao
cafe,43.3214315,-3.0353963,Itsaso,NO STREET 9999,Bilbao
cafe,43.3212215,-3.0343014,Silka,NO STREET 9999,Bilbao
cafe,43.2900794,-2.9980388,Cafetería Gaudí,NO STREET 9999,Bilbao
cafe,43.2910997,-2.9940949,Café Bitarte,NO STREET 9999,Bilbao
cafe,43.3302227,-3.0323535,Salón de Juego Mendi,NO STREET 9999,Bilbao
cafe,43.2580813,-2.9278362,Bar Nervión,Calle Naja / Naxa kalea 7,Bilbao
cafe,43.2470317,-2.8929462,Irudi Kafe,NO STREET 9999,Bilbao
cafe,43.262543,-2.943472,La Boca del Lobo,NO STREET 9999,Bilbao
cafe,43.2597477,-2.9354295,Alambique,NO STREET 9999,Bilbao
cafe,43.2675155,-2.9153329,Pulpería Gon-Vaz,NO STREET 9999,Bilbao
cafe,43.2594798,-2.9404777,Yeti Bistro-Rest,Calle Aureliano Valle / Aureliano Valle kalea 2,Bilbao
cafe,43.2597145,-2.9407034,Cafeteria Tranvia,NO STREET 9999,Bilbao
cafe,43.2597099,-2.9400712,Hitzak,NO STREET 9999,Bilbao
cafe,43.2907527,-2.994885,El Caserío,NO STREET 9999,Bilbao
cafe,43.2908427,-2.9920852,Cafetería Txalupa,NO STREET 9999,Bilbao
cafe,43.2756255,-2.9751636,Jotabe,NO STREET 9999,Bilbao
cafe,43.2908025,-2.9966714,Salón de Juego Zuazo,NO STREET 9999,Bilbao
cafe,43.3249183,-3.0148725,Novelty,NO STREET 9999,Bilbao
cafe,43.3010393,-3.0328841,Betiko Quinielas,Avenida 1º de Mayo/Maiatzaren 1a etorbidea 51,Bilbao
cafe,43.3036195,-3.0358248,Café Alai,NO STREET 9999,Bilbao
cafe,43.3034367,-3.0381858,Cafetería Trasgu,Plaza de los Derechos Humanos 4,Bilbao
cafe,43.3037022,-3.036185,Boulevard Kafe Antzokia,Calle Doctor Mulero / Doctor Mulero kalea 2,Bilbao
cafe,43.3031626,-3.0362009,Café London,NO STREET 9999,Bilbao
cafe,43.3052465,-3.0368619,Geltoki,NO STREET 9999,Bilbao
cafe,43.2618046,-2.9260794,Don Paco,NO STREET 9999,Bilbao
cafe,43.2619558,-2.9262131,El Fogon De Kansluka,NO STREET 9999,Bilbao
cafe,43.3054959,-3.0429694,Café Bar Aldea,NO STREET 9999,Bilbao
cafe,43.2966225,-2.9860314,Ayala Cafe Bar,NO STREET 9999,Bilbao
cafe,43.2443548,-2.8959597,Café Bar Arkupe,NO STREET 9999,Bilbao
cafe,43.2573466,-2.9195693,2002,NO STREET 9999,Bilbao
cafe,43.2593357,-2.9239866,El Mercante,NO STREET 9999,Bilbao
cafe,43.2558304,-2.913053,Be-Oma,NO STREET 9999,Bilbao
cafe,43.2563177,-2.9128718,El Sauce,NO STREET 9999,Bilbao
cafe,43.256987,-2.9138726,Liquid,NO STREET 9999,Bilbao
cafe,43.2554413,-2.912777,El Rancho,NO STREET 9999,Bilbao
cafe,43.2581756,-2.9236134,cafetería Bertiz,Calle Correo / Posta kalea 16,Bilbao
cafe,43.2579475,-2.9236084,Brasil,NO STREET 9999,Bilbao
cafe,43.2576146,-2.9240219,Caféteria Bizubi,NO STREET 9999,Bilbao
cafe,43.2582622,-2.923437,Lago,NO STREET 9999,Bilbao
cafe,43.2964132,-3.0024775,Ñam,NO STREET 9999,Bilbao
cafe,43.2906943,-2.9953582,Number One Cafe bar,NO STREET 9999,Bilbao
cafe,43.2909164,-2.9951919,Degustación Gozari,NO STREET 9999,Bilbao
cafe,43.2911587,-2.9951634,Degustación Itxaro Pena,NO STREET 9999,Bilbao
cafe,43.2915202,-2.9940906,Café Fer,NO STREET 9999,Bilbao
cafe,43.2904864,-2.9941885,Joseba,Plaza Cantabria 3,Bilbao
cafe,43.2919629,-2.9907752,Nogueira Cafe,NO STREET 9999,Bilbao
cafe,43.2892913,-2.9980166,Café Adagio,Plaza López de Ayala 7,Bilbao
cafe,43.2909113,-2.9916178,Café - Pub Geographic,NO STREET 9999,Bilbao
cafe,43.2902387,-2.9950179,Degustación Dastaleku,NO STREET 9999,Bilbao
cafe,43.2909399,-2.9947145,Café Restaurante Obregón,NO STREET 9999,Bilbao
cafe,43.2919718,-2.9926525,Cafetería Alaska,NO STREET 9999,Bilbao
cafe,43.2666712,-2.9442555,Abandoibarra,NO STREET 9999,Bilbao
cafe,43.2607917,-2.9448605,Moran,NO STREET 9999,Bilbao
cafe,43.2610776,-2.9484706,Wendell,NO STREET 9999,Bilbao
cafe,43.2968339,-2.9845759,Danita's Bakery,Calle Arrontegi 4,Bilbao
cafe,43.261772,-2.9284877,Monterrey,NO STREET 9999,Bilbao
cafe,43.2704873,-2.9442918,Botticelli,NO STREET 9999,Bilbao
cafe,43.2700469,-2.9438483,Brest,NO STREET 9999,Bilbao
cafe,43.2703302,-2.9442817,Egipto,NO STREET 9999,Bilbao
cafe,43.2710012,-2.9453684,Eguzki,NO STREET 9999,Bilbao
cafe,43.2700425,-2.9437051,Gurea,NO STREET 9999,Bilbao
cafe,43.2708012,-2.9443212,Jolastoki,NO STREET 9999,Bilbao
cafe,43.2709584,-2.9449047,Taloaska,NO STREET 9999,Bilbao
cafe,43.2592767,-2.922272,Coffee Break,NO STREET 9999,Bilbao
cafe,43.2590281,-2.9223064,Txoko Txinbo,NO STREET 9999,Bilbao
cafe,43.283938,-2.9659875,Elorrieta,NO STREET 9999,Bilbao
cafe,43.2625922,-2.9227272,Opila,NO STREET 9999,Bilbao
cafe,43.2946603,-2.9880695,Concorde Café,NO STREET 9999,Bilbao
cafe,43.2926437,-2.9915028,Café Friol,NO STREET 9999,Bilbao
cafe,43.3027637,-3.0340945,Café Universal,NO STREET 9999,Bilbao
cafe,43.3030268,-3.0373905,Pi,NO STREET 9999,Bilbao
cafe,43.30339,-3.036537,Café Joseba,NO STREET 9999,Bilbao
cafe,43.3024126,-3.0338864,Sotoki,Calle Ramón y Cajal kalea 3,Bilbao
cafe,43.3037593,-3.0359531,Cafetería Etorbidea,NO STREET 9999,Bilbao
cafe,43.3019645,-3.0355468,Café Itsaso,NO STREET 9999,Bilbao
cafe,43.3036288,-3.0379378,Cafetería Ikustegi,NO STREET 9999,Bilbao
cafe,43.2602033,-2.9260436,CaFeve,Calle Bailén / Bailen kalea 1,Bilbao
cafe,43.2925923,-2.9909624,Café Zelaia,NO STREET 9999,Bilbao
cafe,43.2986599,-2.9907086,Bar Venecia,NO STREET 9999,Bilbao
cafe,43.2921194,-2.990757,Q-2,NO STREET 9999,Bilbao
cafe,43.2926524,-2.9882745,Cafetería Bakene,NO STREET 9999,Bilbao
cafe,43.3008434,-3.0326285,Café Bar Javi,NO STREET 9999,Bilbao
cafe,43.2990798,-2.9937064,Basajaun,NO STREET 9999,Bilbao
cafe,43.2833123,-2.996846,Café Loizaga,NO STREET 9999,Bilbao
cafe,43.2915114,-3.0039284,Cafetería Las Torres,NO STREET 9999,Bilbao
cafe,43.2907915,-2.9949556,Iluntze,NO STREET 9999,Bilbao
cafe,43.2916984,-2.9956591,Degustación Tallac,NO STREET 9999,Bilbao
cafe,43.2944362,-2.9961072,El Patio,NO STREET 9999,Bilbao
cafe,43.2944964,-2.9955042,Café Bahía,NO STREET 9999,Bilbao
cafe,43.262987,-2.9391998,Marakay Campuzano,NO STREET 9999,Bilbao
cafe,43.271698,-2.9469926,café+central,NO STREET 9999,Bilbao
cafe,43.3228234,-3.0181568,Miramar,NO STREET 9999,Bilbao
cafe,43.3227376,-3.018164,Galeón,NO STREET 9999,Bilbao
cafe,43.3569091,-3.01383,Garai,NO STREET 9999,Bilbao
cafe,43.3296847,-3.0323149,Cafetería Eguzkia,NO STREET 9999,Bilbao
cafe,43.303417,-3.0371082,Txalaparta,Calle Etxepare / Etxepare kalea 8,Bilbao
cafe,43.3196766,-3.026032,NO NAME,NO STREET 9999,Bilbao
cafe,43.3191987,-3.0183069,cafe Danubio,NO STREET 9999,Bilbao
cafe,43.3223364,-3.0228973,Café Bar Jennifer,NO STREET 9999,Bilbao
cafe,43.2647182,-2.9318516,Cafeteria Henao,Calle Henao / Henao kalea 20,Bilbao
cafe,43.2610964,-2.9302474,The Dreams,NO STREET 9999,Bilbao
cafe,43.2635577,-2.9329568,Trimmer,Calle Colón de Larreategui / Colon de Larreategui kalea 35,Bilbao
cafe,43.2597331,-2.9353509,Twiggy,NO STREET 9999,Bilbao
cafe,43.3215862,-3.0195811,Anthais,NO STREET 9999,Bilbao
cafe,43.3215511,-3.0204603,Copis,NO STREET 9999,Bilbao
cafe,43.3209385,-3.0185833,Elymar,NO STREET 9999,Bilbao
cafe,43.2929404,-2.9906396,Café Ezker,NO STREET 9999,Bilbao
cafe,43.2965501,-2.9889913,Porben Cafetería,NO STREET 9999,Bilbao
cafe,43.2967826,-2.9885459,Café Urbi,NO STREET 9999,Bilbao
cafe,43.2955131,-2.9965825,El Palacete,NO STREET 9999,Bilbao
cafe,43.2964018,-2.9868089,Café Norte,NO STREET 9999,Bilbao
cafe,43.3005767,-2.9877011,Café Bulevar,NO STREET 9999,Bilbao
cafe,43.2625406,-2.9307076,Starbucks Bilbao,NO STREET 9999,Bilbao
cafe,43.266258,-2.9231493,Cafeteria Duplex-Buen Café,Calle Anselma de Salces / Anselma de Salces kalea 1,Bilbao
cafe,43.2524309,-2.93535,NO NAME,NO STREET 9999,Bilbao
cafe,43.2946601,-2.9887727,Tempus Fugit,NO STREET 9999,Bilbao
cafe,43.2717327,-2.9461167,Artea,NO STREET 9999,Bilbao
cafe,43.3108385,-3.0403492,Cafetería Yuri,NO STREET 9999,Bilbao
cafe,43.2840747,-2.9967209,Itxaro Café,NO STREET 9999,Bilbao
cafe,43.2839448,-2.996407,Café Monterrey,NO STREET 9999,Bilbao
cafe,43.2958061,-2.9988116,Café Eugenio,NO STREET 9999,Bilbao
cafe,43.2961535,-2.997982,Atari,NO STREET 9999,Bilbao
cafe,43.2962294,-2.9967069,Cafetería Dastaleku,NO STREET 9999,Bilbao
cafe,43.289779,-2.996449,Bulevar 42 Cafe,NO STREET 9999,Bilbao
cafe,43.2462063,-2.8939143,Bar Café Joan,Plaza Patxi Bengoa 6,Bilbao
cafe,43.2467403,-2.8927158,Batzoki de Etxebarri,Calle Amézola 2,Bilbao
cafe,43.2927248,-2.9911568,Café Armonia,NO STREET 9999,Bilbao
cafe,43.2943077,-2.9911096,Novelty,NO STREET 9999,Bilbao
cafe,43.2964153,-2.9966085,Cafetería Gotzone,NO STREET 9999,Bilbao
cafe,43.2982338,-2.993125,Sans Serif,NO STREET 9999,Bilbao
cafe,43.2943055,-2.9908388,Manhattan,NO STREET 9999,Bilbao
cafe,43.299847,-2.9929417,Degustación Santi,NO STREET 9999,Bilbao
cafe,43.3021166,-2.9853798,Anezka Café Bar,NO STREET 9999,Bilbao
cafe,43.2830505,-2.995299,Cafetería Cervecería La Fragua,NO STREET 9999,Bilbao
cafe,43.2847774,-2.9974277,Café Ushuaia,NO STREET 9999,Bilbao
cafe,43.2957729,-2.9885181,Café Izarra,NO STREET 9999,Bilbao
cafe,43.2956048,-2.9943603,Gran Parada,NO STREET 9999,Bilbao
cafe,43.2952835,-2.9964115,Café Osiris,NO STREET 9999,Bilbao
cafe,43.3014532,-2.9825555,Café Melva,Calle Sociedad Santa Águeda 9999,Bilbao
cafe,43.2750431,-2.9567143,Fervi,NO STREET 9999,Bilbao
cafe,43.2830549,-2.9843101,Cafeteria El Hospital Kafetegia,NO STREET 9999,Bilbao
cafe,43.2639378,-2.9347632,Cafeteria Mónaco,NO STREET 9999,Bilbao
cafe,43.2660168,-2.9353946,Menphis,Calle Iparraguirre / Iparraguirre kalea 16,Bilbao
cafe,43.265802,-2.9352784,Vienes,NO STREET 9999,Bilbao
cafe,43.3006755,-2.9825291,Albatross Kafetegia,NO STREET 9999,Bilbao
cafe,43.2943636,-2.9890131,Sine Die,NO STREET 9999,Bilbao
cafe,43.2949578,-2.9974995,El Pasaje,NO STREET 9999,Bilbao
cafe,43.303772,-2.9749242,Skalon,NO STREET 9999,Bilbao
cafe,43.3037137,-2.9752949,Ziaboga,Calle Jado 9999,Bilbao
cafe,43.3037011,-2.9753776,Ziaboga,NO STREET 9999,Bilbao
cafe,43.3036623,-2.9760514,trust.,NO STREET 9999,Bilbao
cafe,43.3037101,-2.9758047,OASIS,NO STREET 9999,Bilbao
cafe,43.3035937,-2.9760622,XIXILI,NO STREET 9999,Bilbao
cafe,43.3054344,-2.9741417,Cafeteria Elorriaga,Tartanga kalea 9999,Bilbao
cafe,43.3036079,-2.9759824,Batzoki,NO STREET 9999,Bilbao
cafe,43.2749039,-2.9474066,Karola,Ganekogorta kalea 12,Bilbao
cafe,43.2791631,-2.9617346,Izkina,NO STREET 9999,Bilbao
cafe,43.2785611,-2.9613966,Politena,NO STREET 9999,Bilbao
cafe,43.2772713,-2.9607335,Cafetería Bertiz,Avenida Lehendakari Aguirre / Agirre lehendakariaren etorbidea 145,Bilbao
cafe,43.2594537,-2.914362,Cafeteria Josune,Begoñako Andra Mari kalea 47,Bilbao
cafe,43.2568153,-2.9240993,Isipil,NO STREET 9999,Bilbao
cafe,43.269371,-2.9470876,Lorena,NO STREET 9999,Bilbao
cafe,43.2569151,-2.9442905,Salón de Juego Cafetería Haltza,NO STREET 9999,Bilbao
cafe,43.2709482,-2.9468736,cafetería Bertiz,Avenida Madariaga / Madariaga etorbidea 15,Bilbao
cafe,43.3284788,-3.010185,Cafetería Krimea,NO STREET 9999,Bilbao
cafe,43.2200679,-2.8862158,Tximintxe,Elizondo 9999,Bilbao
cafe,43.2709469,-2.9451167,Deustoarrak,NO STREET 9999,Bilbao
cafe,43.2580075,-2.9464844,Cafetería Bertiz,Calle Autonomía / Autonomia kalea 46,Bilbao
cafe,43.3172532,-2.9836017,Hiri-Berri,Calle Karl Marx kalea 9999,Bilbao
cafe,43.3162126,-2.9798691,Cohiba Café,NO STREET 9999,Bilbao
cafe,43.3161789,-2.9829732,Cafetería Bar Mambo,NO STREET 9999,Bilbao
cafe,43.221333,-2.8860228,Lorien,NO STREET 9999,Bilbao
cafe,43.2625816,-2.9394221,Estoril,Emilio Campuzano enparantza 3,Bilbao
cafe,43.1991124,-3.0484243,Mocca,NO STREET 9999,Bilbao
cafe,43.3181162,-3.015607,Café Bar Silverstone,NO STREET 9999,Bilbao
cafe,43.3164809,-3.0279362,Cafeteria La florida,NO STREET 9999,Bilbao
cafe,43.3160724,-3.0205004,Ametza,NO STREET 9999,Bilbao
cafe,43.2570113,-2.9243329,Café 91,NO STREET 9999,Bilbao
cafe,43.2943803,-2.991481,Degustación Alazne,NO STREET 9999,Bilbao
cafe,43.3293551,-3.0323714,Cafetería Egubi,NO STREET 9999,Bilbao
cafe,43.3092525,-3.0518372,Centro de Día,NO STREET 9999,Bilbao
cafe,43.3020191,-2.9901608,Cafetería Lasesarre,NO STREET 9999,Bilbao
cafe,43.2600112,-2.9469,Premierk Bilbao,NO STREET 9999,Bilbao
cafe,43.3567727,-3.0126388,Cafeteria croh,NO STREET 9999,Bilbao
cafe,43.3220358,-3.0011743,La Alacena,NO STREET 9999,Bilbao
cafe,43.3196167,-2.9945851,Txopera Berri,NO STREET 9999,Bilbao
cafe,43.3303723,-2.9631425,Baserri,NO STREET 9999,Bilbao
cafe,43.2915316,-2.9914446,El Rincón de Noe,NO STREET 9999,Bilbao
cafe,43.2801046,-2.9852451,Degustación La Paz,Calle La Paz 1,Bilbao
cafe,43.3006507,-3.006348,Cafetería Bricomart,NO STREET 9999,Bilbao
cafe,43.300454,-3.0023497,Cafetería Trápaga,NO STREET 9999,Bilbao
cafe,43.3312805,-2.9683032,Biblioteka,NO STREET 9999,Bilbao
cafe,43.2814949,-2.9631327,Cafetería Presley,NO STREET 9999,Bilbao
cafe,43.2836826,-2.9659544,Café-Bar Goikar,NO STREET 9999,Bilbao
cafe,43.2819577,-2.9633695,Gran Stop Bar,NO STREET 9999,Bilbao
cafe,43.2944553,-2.9958872,Cafetería Larrau,NO STREET 9999,Bilbao
cafe,43.2823481,-2.9825021,Cafetería Wolker,NO STREET 9999,Bilbao
cafe,43.2823205,-2.9657266,Portu Eder,NO STREET 9999,Bilbao
cafe,43.2412207,-2.920771,Kafe Andra Mari,NO STREET 9999,Bilbao
cafe,43.2978389,-2.9840764,Cafetería Maika,NO STREET 9999,Bilbao
cafe,43.2405872,-2.9206804,Café Bar Restaurante Ké,NO STREET 9999,Bilbao
cafe,43.2810231,-2.9628735,Bar Zuentzat,NO STREET 9999,Bilbao
cafe,43.2785368,-2.9614126,Politena,NO STREET 9999,Bilbao
cafe,43.2789251,-2.9616042,Txoko Berria,NO STREET 9999,Bilbao
cafe,43.3197881,-2.9888049,Moon kafetegia,Avenida Sabino Arana 14,Bilbao
cafe,43.3263738,-2.9879187,Gambrinus,NO STREET 9999,Bilbao
cafe,43.326526,-2.9876482,LEIOA LALÜ Gastrobar,Calle Estartetxe 9999,Bilbao
cafe,43.3257949,-2.9846816,Iturribide taberna,NO STREET 9999,Bilbao
cafe,43.3259516,-2.9847225,Lekubari taberna,NO STREET 9999,Bilbao
cafe,43.3258415,-2.9849565,NO NAME,NO STREET 9999,Bilbao
cafe,43.3233144,-2.9878822,Taberna Aldatza,NO STREET 9999,Bilbao
cafe,43.3220684,-3.0222969,Aupa Tú,NO STREET 9999,Bilbao
cafe,43.3213435,-3.0179363,Casa Vicente,NO STREET 9999,Bilbao
cafe,43.2894007,-2.9808892,Café Cervecera Serralta,NO STREET 9999,Bilbao
cafe,43.3514264,-3.0086463,Villamonte taberna,NO STREET 9999,Bilbao
cafe,43.3572635,-3.0018686,Jasube Berria,Calle Kuskuburu 9999,Bilbao
cafe,43.3548897,-2.846858,Café Sollube,NO STREET 9999,Bilbao
cafe,43.2565682,-2.9135087,Petaca Minuta,NO STREET 9999,Bilbao
cafe,43.2723212,-2.9419023,NO NAME,NO STREET 9999,Bilbao
cafe,43.253192,-2.9124114,Cafe betsaide,NO STREET 9999,Bilbao
cafe,43.2539555,-2.9138555,Aintzi,NO STREET 9999,Bilbao
cafe,43.327651,-3.0123021,LM-31 Cafetería,NO STREET 9999,Bilbao
cafe,43.3571828,-2.8494163,NO NAME,NO STREET 9999,Bilbao
cafe,43.3277006,-3.0122098,El Comercio,NO STREET 9999,Bilbao
cafe,43.2962986,-2.9966374,Cafetería Lorategia,NO STREET 9999,Bilbao
cafe,43.2952438,-2.9926738,Café Bar Daver,NO STREET 9999,Bilbao
cafe,43.2611872,-2.9465369,cafetería Bertiz,Sabino Arana etorbidea / Avenida de Sabino Arana 31,Bilbao
cafe,43.323103,-2.9872171,Jaioa,NO STREET 9999,Bilbao
cafe,43.2625904,-2.9154674,PNV-EAJ Batzoki,NO STREET 9999,Bilbao
cafe,43.2640386,-2.9225305,Meson Prieto,Plaza Ernesto Erkoreka / Ernesto Erkoreka plaza 8,Bilbao
cafe,43.2644784,-2.9225135,NO NAME,NO STREET 9999,Bilbao
cafe,43.2652892,-2.9221486,Ispilu,NO STREET 9999,Bilbao
cafe,43.2623647,-2.9226622,Arrantiano,NO STREET 9999,Bilbao
cafe,43.2621676,-2.922798,Granier,NO STREET 9999,Bilbao
cafe,43.2607601,-2.9226582,San Nicolas,NO STREET 9999,Bilbao
cafe,43.2596886,-2.9230135,Café del Arenal,NO STREET 9999,Bilbao
cafe,43.2597824,-2.9230323,Cafe Del Arenal Restaurante,NO STREET 9999,Bilbao
cafe,43.2598195,-2.9228485,Nata,NO STREET 9999,Bilbao
cafe,43.2585846,-2.9233335,Arantza,NO STREET 9999,Bilbao
cafe,43.2579094,-2.9230864,Degustacion Aitke,NO STREET 9999,Bilbao
cafe,43.2578642,-2.9246885,Gallo Negro,Calle del Perro / Txakur kalea 9999,Bilbao
cafe,43.2582187,-2.9249419,Berton,NO STREET 9999,Bilbao
cafe,43.2574952,-2.9262269,La Merced,NO STREET 9999,Bilbao
cafe,43.25738,-2.9246137,Txomin Barullo Taberna,NO STREET 9999,Bilbao
cafe,43.2570616,-2.9222164,Café Naikeri,NO STREET 9999,Bilbao
cafe,43.2555931,-2.9234887,NO NAME,NO STREET 9999,Bilbao
cafe,43.2559657,-2.9239162,La Exquisita,NO STREET 9999,Bilbao
cafe,43.2566261,-2.9235645,Cafes Arauca,NO STREET 9999,Bilbao
cafe,43.2572048,-2.9230733,Larralde,NO STREET 9999,Bilbao
cafe,43.2566866,-2.9240164,Arriola,NO STREET 9999,Bilbao
cafe,43.2570454,-2.9243132,Elizondo,NO STREET 9999,Bilbao
cafe,43.2560622,-2.9247754,Palacio Arana,NO STREET 9999,Bilbao
cafe,43.2562348,-2.9250602,Salón de Juego SCALA,NO STREET 9999,Bilbao
cafe,43.2562825,-2.9249341,Pastelería Vegana Bohemian Lane,Calle Carnicería Vieja / Arategizar kalea 3,Bilbao
cafe,43.2551285,-2.9224491,Botxo,NO STREET 9999,Bilbao
cafe,43.2504669,-2.9219808,Zuentzat Cafe,NO STREET 9999,Bilbao
cafe,43.2618773,-2.9259623,Wok Vista,NO STREET 9999,Bilbao
cafe,43.2615138,-2.9265878,The Bite,NO STREET 9999,Bilbao
cafe,43.2624124,-2.9250483,Kovac,NO STREET 9999,Bilbao
cafe,43.2619109,-2.926917,OizMendi,NO STREET 9999,Bilbao
cafe,43.2618723,-2.9263804,Galbura,NO STREET 9999,Bilbao
cafe,43.2626448,-2.9251301,Sibaritas,NO STREET 9999,Bilbao
cafe,43.2629719,-2.9254768,Ganeko,NO STREET 9999,Bilbao
cafe,43.2633816,-2.926717,Indian,NO STREET 9999,Bilbao
cafe,43.2643075,-2.9282654,NO NAME,NO STREET 9999,Bilbao
cafe,43.2642903,-2.9283829,Blue Monn ALBIA,NO STREET 9999,Bilbao
cafe,43.2670379,-2.9303122,Attico 14 Cafe,Alameda Mazarredo / Mazarredo zumarkalea 14,Bilbao
cafe,43.2604038,-2.9343036,Cafeteria Concha 1,NO STREET 9999,Bilbao
cafe,43.2599676,-2.9345016,Kurrusku Kai Alde,NO STREET 9999,Bilbao
cafe,43.2629807,-2.9305262,Cafe El Ratito,NO STREET 9999,Bilbao
cafe,43.2629785,-2.9293305,PERSHÏC,NO STREET 9999,Bilbao
cafe,43.2633892,-2.9296451,Memorial,NO STREET 9999,Bilbao
cafe,43.2635271,-2.9301907,Cafeteria Dux,NO STREET 9999,Bilbao
cafe,43.2638678,-2.9291177,Cafe Bar Gapa,NO STREET 9999,Bilbao
cafe,43.2661057,-2.931921,Arbiol,NO STREET 9999,Bilbao
cafe,43.2675123,-2.9306956,Cafetería Los Ancares,NO STREET 9999,Bilbao
cafe,43.2662885,-2.9333269,Mami Low Cupcake,NO STREET 9999,Bilbao
cafe,43.2670274,-2.9347087,Nostrum,NO STREET 9999,Bilbao
cafe,43.2664076,-2.933936,Cafeteria sustraiak,NO STREET 9999,Bilbao
cafe,43.2668175,-2.936727,Chelsea Coffee Lounge,NO STREET 9999,Bilbao
cafe,43.2663869,-2.9372698,Cafe Brighton,NO STREET 9999,Bilbao
cafe,43.2662257,-2.9371411,Copper Deli,NO STREET 9999,Bilbao
cafe,43.2663351,-2.9364044,Metz,NO STREET 9999,Bilbao
cafe,43.3095997,-3.007073,Edurmendi,Plaza del Kasko 9999,Bilbao
cafe,43.2650378,-2.9342853,Cafe Andik,NO STREET 9999,Bilbao
cafe,43.2647191,-2.9327939,cafetería Bertiz,Calle Henao / Henao kalea 15,Bilbao
cafe,43.2642879,-2.9312733,Wiché Café Bakery,NO STREET 9999,Bilbao
cafe,43.3095034,-3.0065632,Hamburgo,Plaza del Kasko 9999,Bilbao
cafe,43.2637786,-2.9348308,Cafe Moyua,NO STREET 9999,Bilbao
cafe,43.2638721,-2.9347888,NO NAME,NO STREET 9999,Bilbao
cafe,43.2611136,-2.9350876,Café Nassau,NO STREET 9999,Bilbao
cafe,43.2542229,-2.9236318,Cafe Iraila,NO STREET 9999,Bilbao
cafe,43.2554481,-2.9275075,Cafe Arias,NO STREET 9999,Bilbao
cafe,43.2573992,-2.9292676,Cafeteria Ballen,NO STREET 9999,Bilbao
cafe,43.2564227,-2.929744,Cosmopolitan,NO STREET 9999,Bilbao
cafe,43.2581702,-2.9321171,Salón de Juego Ametza,NO STREET 9999,Bilbao
cafe,43.2580272,-2.9325555,Salon De Juego Cafeteria Amezaga,NO STREET 9999,Bilbao
cafe,43.2569085,-2.9325321,Cafeteria Al Hoceima,NO STREET 9999,Bilbao
cafe,43.257052,-2.9336538,NO NAME,NO STREET 9999,Bilbao
cafe,43.2607331,-2.9287272,Ayala Cafe,NO STREET 9999,Bilbao
cafe,43.259812,-2.9299661,Wok Boga,NO STREET 9999,Bilbao
cafe,43.2604294,-2.9305103,Cafe Negro Y Blanco,NO STREET 9999,Bilbao
cafe,43.2592798,-2.9308608,Cafetería Collin'S,NO STREET 9999,Bilbao
cafe,43.2588867,-2.9315055,Sokoa,NO STREET 9999,Bilbao
cafe,43.2594358,-2.9318743,Zortzi,NO STREET 9999,Bilbao
cafe,43.2585088,-2.9322471,Bilbao Urbano Café,NO STREET 9999,Bilbao
cafe,43.2587943,-2.9318147,Cafe Denda,NO STREET 9999,Bilbao
cafe,43.2595246,-2.9322639,La Machine,NO STREET 9999,Bilbao
cafe,43.2590811,-2.9325592,Koala,NO STREET 9999,Bilbao
cafe,43.257613,-2.9340805,Mosela,NO STREET 9999,Bilbao
cafe,43.2582196,-2.9329893,Cafe Bar Nino,NO STREET 9999,Bilbao
cafe,43.2580794,-2.9352403,Concha,NO STREET 9999,Bilbao
cafe,43.2577104,-2.9354266,La Tortilla de Bilbao,NO STREET 9999,Bilbao
cafe,43.2574938,-2.9367859,Cafe Bar Goikiri,NO STREET 9999,Bilbao
cafe,43.2574624,-2.9359619,Cafetería Autonomía,NO STREET 9999,Bilbao
cafe,43.2582412,-2.9363297,Rumik Cafe Bar,NO STREET 9999,Bilbao
cafe,43.2584421,-2.9361774,Bacalao Zuluaga &+,Alameda San Mamés / Santimami zumarkalea 22,Bilbao
cafe,43.2583168,-2.9354769,El Obrador,NO STREET 9999,Bilbao
cafe,43.2589665,-2.9363427,Bar Liska,NO STREET 9999,Bilbao
cafe,43.259534,-2.935597,Cafe Bar La Fuente,NO STREET 9999,Bilbao
cafe,43.2598253,-2.9357574,el Muro,NO STREET 9999,Bilbao
cafe,43.2637274,-2.9374735,Coffela Cafe Bar,NO STREET 9999,Bilbao
cafe,43.2652066,-2.9369322,Cafe Naiara,NO STREET 9999,Bilbao
cafe,43.2652395,-2.937219,El Patito Feo,NO STREET 9999,Bilbao
cafe,43.2675915,-2.9380551,SanwiCoffee,NO STREET 9999,Bilbao
cafe,43.2625816,-2.9394221,Estoril,Emilio Campuzano enparantza 9999,Bilbao
cafe,43.2479071,-2.9337887,Cafeteria,Alto de Kanpazar kalea 9999,Bilbao
cafe,43.2487867,-2.9306996,Cafe Cafe,NO STREET 9999,Bilbao
cafe,43.2491573,-2.9336514,cafeteria barberal,NO STREET 9999,Bilbao
cafe,43.2519604,-2.9312489,NO NAME,NO STREET 9999,Bilbao
cafe,43.2625964,-2.9365573,Cafes Arauca,NO STREET 9999,Bilbao
cafe,43.26213,-2.9355125,Tito's,NO STREET 9999,Bilbao
cafe,43.2622478,-2.9354724,Cafetería Reims,NO STREET 9999,Bilbao
cafe,43.2612353,-2.9365781,Nostrum,NO STREET 9999,Bilbao
cafe,43.2612634,-2.9358637,Ziaboga,NO STREET 9999,Bilbao
cafe,43.2608137,-2.9391418,Gredos,NO STREET 9999,Bilbao
cafe,43.2606021,-2.9381477,Bertiz,NO STREET 9999,Bilbao
cafe,43.2605455,-2.937893,Bar Alameda,NO STREET 9999,Bilbao
cafe,43.2607696,-2.9375524,Millenium,NO STREET 9999,Bilbao
cafe,43.2614344,-2.9375088,La Casa Del Bacalao,NO STREET 9999,Bilbao
cafe,43.2632297,-2.93774,Cafeteria Sergio,NO STREET 9999,Bilbao
cafe,43.2628066,-2.9389133,Marakay,NO STREET 9999,Bilbao
cafe,43.2631688,-2.9380381,Jan & Joan,NO STREET 9999,Bilbao
cafe,43.2634626,-2.9391619,Maitena Berri,NO STREET 9999,Bilbao
cafe,43.2631344,-2.9392821,Plaza,NO STREET 9999,Bilbao
cafe,43.261918,-2.9392791,Cafeteria Larragan,NO STREET 9999,Bilbao
cafe,43.2625204,-2.9387802,El Huevo Frito,NO STREET 9999,Bilbao
cafe,43.2622662,-2.9388594,NO NAME,NO STREET 9999,Bilbao
cafe,43.2614352,-2.9419403,Cafeteria Ojeda,NO STREET 9999,Bilbao
cafe,43.2613607,-2.9415459,Cafeteria La Ribera II,NO STREET 9999,Bilbao
cafe,43.2619698,-2.940802,NO NAME,NO STREET 9999,Bilbao
cafe,43.263045,-2.9409154,Bar Cafe Cleto,NO STREET 9999,Bilbao
cafe,43.2625559,-2.9416951,Zuloa,NO STREET 9999,Bilbao
cafe,43.2631342,-2.9399288,Adur Cafeteria,NO STREET 9999,Bilbao
cafe,43.263461,-2.9400918,Continental Cafe,NO STREET 9999,Bilbao
cafe,43.263912,-2.9398124,Salon De Juego,NO STREET 9999,Bilbao
cafe,43.2637194,-2.9431191,Beroa,NO STREET 9999,Bilbao
cafe,43.2641741,-2.9450899,Cafateria Swansea,NO STREET 9999,Bilbao
cafe,43.2648648,-2.9443341,Cafeteria,NO STREET 9999,Bilbao
cafe,43.2625087,-2.9423696,Alternatif,NO STREET 9999,Bilbao
cafe,43.2621747,-2.942325,Casa del Café & Té,NO STREET 9999,Bilbao
cafe,43.2630186,-2.9457334,Casilda Café Bar,NO STREET 9999,Bilbao
cafe,43.2626791,-2.9459037,Zelai,NO STREET 9999,Bilbao
cafe,43.2624294,-2.9460203,Cafe Arlequin,NO STREET 9999,Bilbao
cafe,43.2621206,-2.9450799,Cafetería Garby,NO STREET 9999,Bilbao
cafe,43.2620909,-2.9449762,Rhin,NO STREET 9999,Bilbao
cafe,43.262119,-2.9442798,Salón de Juego Cafetería Kingball,NO STREET 9999,Bilbao
cafe,43.3141079,-3.0161638,Cafetería CB,NO STREET 9999,Bilbao
cafe,43.2470121,-2.8925451,Cafetería Bigarren,NO STREET 9999,Bilbao
cafe,43.3021559,-3.0339928,Gurea,NO STREET 9999,Bilbao
cafe,43.246442,-2.8938694,Café Auzoa,Calle Antonio Epalza 9,Bilbao
cafe,43.2952177,-2.9986041,Cafetería Pote Diverlandia,NO STREET 9999,Bilbao
cafe,43.2955154,-2.8670061,Denda Parke,Edificio 502,Bilbao
cafe,43.3208894,-3.0170927,Rovira,NO STREET 9999,Bilbao
cafe,43.2593512,-2.9472498,Cafetería Izcay,NO STREET 9999,Bilbao
cafe,43.2710104,-2.9444229,Munich,Avenida Madariaga / Madariaga etorbidea 3,Bilbao
cafe,43.26286,-2.9450226,Let's Cereal,Calle José María Escuza / Jose Maria Escuza kalea 2,Bilbao
cafe,43.2976874,-2.992174,Wall Street,NO STREET 9999,Bilbao
cafe,43.2975827,-2.992093,Café Gayarre,NO STREET 9999,Bilbao
cafe,43.2969169,-2.988625,Basoa,NO STREET 9999,Bilbao
cafe,43.2970315,-2.9885199,My Way,NO STREET 9999,Bilbao
cafe,43.2966538,-2.9888787,RK rock kafe,NO STREET 9999,Bilbao
cafe,43.2991124,-2.9933008,Lord Byron,NO STREET 9999,Bilbao
cafe,43.2600243,-2.9399391,Grafit Rock Café,Calle Urrutia / Urrutia kalea 1,Bilbao
cafe,43.2621947,-2.9246017,Kanteen,Calle Príncipe / Printzipe kalea 2,Bilbao
cafe,43.3227401,-3.0183717,Zubi-ondo,NO STREET 9999,Bilbao
cafe,43.3227075,-3.018521,Nervión,NO STREET 9999,Bilbao
cafe,43.3229825,-3.0187728,Café Travel,NO STREET 9999,Bilbao
cafe,43.3168224,-3.0231281,Bide zaharra,Avenida de Carlos VII 9999,Bilbao
cafe,43.3231751,-3.0212971,Cup&Cake,Avenida Abaro 9999,Bilbao
cafe,43.3162758,-3.0219994,Cafe Mary Bar,NO STREET 9999,Bilbao
cafe,43.260357,-2.9500769,NO NAME,NO STREET 9999,Bilbao
cafe,43.3240737,-3.0165018,Cafetería El Puente,NO STREET 9999,Bilbao
cafe,43.3241207,-3.0141912,Cafetería Zubia,NO STREET 9999,Bilbao
cafe,43.326471,-3.0112193,Las Arenas,NO STREET 9999,Bilbao
cafe,43.3262744,-3.0102943,NO NAME,NO STREET 9999,Bilbao
cafe,43.2379728,-2.894555,Café Alberto,NO STREET 9999,Bilbao
cafe,43.2826226,-2.9828178,Gurutzeta,NO STREET 9999,Bilbao
cafe,43.2653838,-2.9384382,cafetería del Museo Bellas Artes de Bilbao,NO STREET 9999,Bilbao
cafe,43.3480768,-3.0082599,Kala Kantarepe,NO STREET 9999,Bilbao
cafe,43.2960153,-3.0028888,Café La Plaza,NO STREET 9999,Bilbao
cafe,43.2788458,-2.9861818,Bar Urkia,Calle La Siebe 12,Bilbao
cafe,43.3294971,-3.0328873,El Carmen,NO STREET 9999,Bilbao
cafe,43.3019526,-2.9829316,La Fundición,NO STREET 9999,Bilbao
cafe,43.2464072,-2.8924473,Bar del frontón,NO STREET 9999,Bilbao
cafe,43.2609713,-2.9262821,Starbucks,NO STREET 9999,Bilbao
cafe,43.2554446,-2.9263737,Cafe BIHOTZ,NO STREET 9999,Bilbao
cafe,43.2552215,-2.941283,Cafetería Ametzola,NO STREET 9999,Bilbao
cafe,43.267341,-2.9253882,La Degus,NO STREET 9999,Bilbao
cafe,43.2552331,-2.9418068,Bilbora,NO STREET 9999,Bilbao
cafe,43.2560025,-2.9356657,Baracho's,NO STREET 9999,Bilbao
cafe,43.2905386,-2.9899661,Altzairu BEC!,NO STREET 9999,Bilbao
cafe,43.3039439,-3.0387455,La Tacita de Té,Calle Ramón de Durañona / Ramon de Durañona kalea 6,Bilbao
cafe,43.3262568,-3.0138987,Amatxo Maitea,NO STREET 9999,Bilbao
cafe,43.3228544,-3.0186906,NO NAME,NO STREET 9999,Bilbao
cafe,43.2953328,-2.9980041,Sorgiñe,NO STREET 9999,Bilbao
cafe,43.29555,-2.9982382,Cafetería La Plaza,NO STREET 9999,Bilbao
cafe,43.2954999,-2.9956074,Café Leizea,NO STREET 9999,Bilbao
cafe,43.2313992,-2.8402006,On Kafe,NO STREET 9999,Bilbao
cafe,43.2950477,-3.0036693,NO NAME,NO STREET 9999,Bilbao
cafe,43.3264211,-2.9891251,Nerea Akeita,Avenida Iparragirre 44,Bilbao
cafe,43.282697,-2.9637874,Cafetería O'Ryan,NO STREET 9999,Bilbao
cafe,43.3557555,-2.8509632,Café Bar Martínez,NO STREET 9999,Bilbao
cafe,43.2699184,-2.9472507,Bar Lagun Artean,NO STREET 9999,Bilbao
cafe,43.2641008,-2.9159868,Zurea Café Bar,Calle Zurbaran / Zurbaran kalea 1,Bilbao
cafe,43.2960935,-2.9894492,Elkano 14,NO STREET 9999,Bilbao
cafe,43.3016039,-2.9830605,La tortilla del Galatea,Plaza El Desierto 9999,Bilbao
cafe,43.234195,-2.8470359,Tartalo,Bizkaia Kalea 56,Bilbao
cafe,43.3175607,-2.9734386,Cafetería Garay kafetegia,NO STREET 9999,Bilbao
cafe,43.2980146,-2.9857042,Cafetería Dunixe,NO STREET 9999,Bilbao
cafe,43.297645,-2.9854695,Ohlalá,NO STREET 9999,Bilbao
cafe,43.2996694,-2.9843365,Ibarra,NO STREET 9999,Bilbao
cafe,43.2949132,-2.9863271,Lagos,NO STREET 9999,Bilbao
cafe,43.2977712,-2.9839522,Café Lugo,NO STREET 9999,Bilbao
cafe,43.2956385,-2.988081,Brenes 2,NO STREET 9999,Bilbao
cafe,43.296454,-2.9867289,Turno de día,NO STREET 9999,Bilbao
cafe,43.2946983,-2.9901415,Imperial,NO STREET 9999,Bilbao
cafe,43.2948518,-2.9899104,Haizea,NO STREET 9999,Bilbao
cafe,43.2662514,-2.9462629,Marítimo,NO STREET 9999,Bilbao
cafe,43.2997883,-2.9839684,Miren,NO STREET 9999,Bilbao
cafe,43.3033767,-2.9752962,As de picas,NO STREET 9999,Bilbao
cafe,43.2742305,-2.9584218,Cafetería Avenida,Avenida Lehendakari Aguirre / Agirre lehendakariaren etorbidea 9999,Bilbao
cafe,43.2565568,-2.9245984,NO NAME,NO STREET 9999,Bilbao
cafe,43.2572126,-2.9372381,NO NAME,NO STREET 9999,Bilbao
cafe,43.2585216,-2.9475647,Swans,NO STREET 9999,Bilbao
cafe,43.2742221,-2.9584185,Avenida,Avenida Lehendakari Aguirre / Agirre lehendakariaren etorbidea 9999,Bilbao
cafe,43.2918467,-2.8870225,Iazi,Beheko kalea 9999,Bilbao
cafe,43.3015206,-2.9934319,Tobsa,NO STREET 9999,Bilbao
cafe,43.3009862,-2.9936766,Alima,NO STREET 9999,Bilbao
cafe,43.2984048,-2.9931808,Mandarina,Calle Gabriel Aresti 9999,Bilbao
cafe,43.3007033,-2.992828,Mínimos,NO STREET 9999,Bilbao
cafe,43.2585766,-2.9465537,Génesis,NO STREET 9999,Bilbao
cafe,43.2538421,-2.9126786,Sorginzulo,NO STREET 9999,Bilbao
cafe,43.2539723,-2.911926,Leku Ona,NO STREET 9999,Bilbao
cafe,43.2536826,-2.9121859,La Bodeguilla,NO STREET 9999,Bilbao
cafe,43.2533836,-2.9456971,Biarritz,Calle Biarritz / Biarritz kalea 9999,Bilbao
cafe,43.2748143,-2.9741758,Iker,NO STREET 9999,Bilbao
cafe,43.2761956,-2.9733712,Txinbo,NO STREET 9999,Bilbao
cafe,43.2601996,-2.9172012,Mañari,Pedro Cortés udal sendagilearen etxaldea / Grupo del Médico Municipal Pedro Cortés 9999,Bilbao
cafe,43.2017058,-3.0488951,Beste aldera,Calle Zelaieta 9999,Bilbao
cafe,43.251645,-2.947526,Urbe,Calle Camilo Villabaso / Camilo Villabaso kalea 9999,Bilbao
cafe,43.2700345,-2.9495412,Eretza,Calle Iruña / Iruña kalea 9999,Bilbao
cafe,43.2977567,-2.9848898,Degustación A.F.,NO STREET 9999,Bilbao
cafe,43.2583122,-2.9476874,Café Bar Distrito 13,NO STREET 9999,Bilbao
cafe,43.2981586,-2.9912888,Cafetería London,NO STREET 9999,Bilbao
cafe,43.2537314,-2.9155218,Ikuste Ederra,NO STREET 9999,Bilbao
cafe,43.2952744,-2.9865448,Begirune,NO STREET 9999,Bilbao
cafe,43.298469,-2.992847,Y41,Calle Gabriel Aresti / Gabriel Aresti kalea 9999,Bilbao
cafe,43.2637955,-2.9225911,Varona,NO STREET 9999,Bilbao
cafe,43.2301555,-2.8453956,Urrestarazu,NO STREET 9999,Bilbao
cafe,43.2988338,-2.9924858,Cafetería Lunch,NO STREET 9999,Bilbao
cafe,43.2811781,-2.9822086,Kafeteria Dos Mundos,NO STREET 9999,Bilbao
cafe,43.2943906,-2.9863252,Tibet,NO STREET 9999,Bilbao
cafe,43.2951881,-2.9876551,Niza,NO STREET 9999,Bilbao
cafe,43.2947061,-2.9858568,París,NO STREET 9999,Bilbao
cafe,43.2968566,-2.9847086,Guria,NO STREET 9999,Bilbao
cafe,43.295312,-2.993431,Pachamama Asociacion,NO STREET 9999,Bilbao
cafe,43.2110547,-2.8873188,Imara,NO STREET 9999,Bilbao
cafe,43.3267756,-3.0115173,Bertiz,NO STREET 9999,Bilbao
cafe,43.3259941,-3.0139528,Cosmo,NO STREET 9999,Bilbao
cafe,43.3330701,-2.9985324,Okinlur,Calle Artatza 14,Bilbao
cafe,43.3265862,-2.9875031,Bar Jokin,Barrio Elexalde 26,Bilbao
cafe,43.3266702,-2.9872698,Bar Elexalde,Barrio Elexalde 26,Bilbao
cafe,43.3268456,-2.9888313,Alexander,Calle Estartetxe 9 Trasera,Bilbao
cafe,43.327176,-2.9894903,Maitane,Calle Estartetxe 13 Trasera,Bilbao
cafe,43.3280734,-2.9904018,My history,Calle Estartetxe 18,Bilbao
cafe,43.3277024,-2.9905164,Populus,Calle Estartetxe 21 Trasera,Bilbao
cafe,43.3278694,-2.9903201,Orhi,Calle Estartetxe 21,Bilbao
cafe,43.2890353,-3.0081637,Loops & coffee,NO STREET 9999,Bilbao
cafe,43.2888861,-3.0082753,Urrestarazu,NO STREET 9999,Bilbao
cafe,43.3217887,-2.9860725,Café Rich's,NO STREET 9999,Bilbao
cafe,43.3236654,-2.9873074,Big Ben,NO STREET 9999,Bilbao
cafe,43.3237083,-2.9873165,Zazpi,NO STREET 9999,Bilbao
cafe,43.2511841,-2.9053484,NO NAME,NO STREET 9999,Bilbao
cafe,43.2603897,-2.9382406,Santagloria Coffee & Bakery,Alameda Urquijo / Urkixo zumarkalea 9999,Bilbao
cafe,43.2717582,-2.9392239,Cafeteria Deusto,NO STREET 9999,Bilbao
cafe,43.3273842,-2.98567,Nagusiaren Etxea Cafetegia,NO STREET 9999,Bilbao
cafe,43.3226222,-2.9841715,Aritza,NO STREET 9999,Bilbao
cafe,43.2613427,-2.9156041,Lorea,NO STREET 9999,Bilbao
cafe,43.261564,-2.9151163,Largi,NO STREET 9999,Bilbao
cafe,43.2676604,-2.923507,Los Arcos,NO STREET 9999,Bilbao
cafe,43.3584544,-3.0089272,Cafetería Cross,Iturribide kalea 2,Bilbao
cafe,43.3167505,-2.9838597,La perla,NO STREET 9999,Bilbao
cafe,43.2590363,-2.9428306,La Fábula,NO STREET 9999,Bilbao
cafe,43.2842118,-2.9837895,Danubio,NO STREET 9999,Bilbao
cafe,43.2836008,-2.9826389,LPK,NO STREET 9999,Bilbao
cafe,43.2840754,-2.9832546,Gurutzeta,NO STREET 9999,Bilbao
cafe,43.2820752,-2.9828223,Gurea,NO STREET 9999,Bilbao
cafe,43.2815602,-2.9835437,Gozoak,Plaza de Cruces / Gurutzeta plaza 9999,Bilbao
cafe,43.3078659,-2.9989644,Nuria,Calle Gran Vía de José Antonio Agirre y Lekube / Jose Antonio Agirre y Lekube bide nagusia kalea 9999,Bilbao
cafe,43.3078811,-2.9990893,Itxaso,Calle Gran Vía de José Antonio Agirre y Lekube / Jose Antonio Agirre y Lekube bide nagusia kalea 9999,Bilbao
cafe,43.2987307,-2.9934173,El Arte,Avenida Miranda 9999,Bilbao
cafe,43.267398,-2.9389744,Matcha,NO STREET 9999,Bilbao
cafe,43.3274713,-2.9898663,On Egin,Calle Estartetxe 17,Bilbao
cafe,43.3406384,-3.0073529,NO NAME,NO STREET 9999,Bilbao
cafe,43.3239823,-3.0355563,Bergantín,NO STREET 9999,Bilbao
cafe,43.3020282,-3.0351331,Larrañeta,NO STREET 9999,Bilbao
cinema,43.287278,-3.0072946,Coliseo Max Ocio,NO STREET 9999,Bilbao
cinema,43.3408796,-2.9906333,Cines Yelmo Artea,NO STREET 9999,Bilbao
cinema,43.2615002,-2.945369,Multicines,NO STREET 9999,Bilbao
cinema,43.2595971,-2.9371724,Golem Alhóndiga,NO STREET 9999,Bilbao
cinema,43.3622309,-3.006176,Autocine Getxo,Estarada Ibarrangoa 2,Bilbao
theatre,43.235027,-2.8892629,Social Antzoki,NO STREET 9999,Bilbao
theatre,43.2673338,-2.9604465,Pabellón 6,NO STREET 9999,Bilbao
theatre,43.295991,-2.9846571,Arimaktore,NO STREET 9999,Bilbao
theatre,43.2570118,-2.9282729,Badulake,Calle Hernani / Hernani kalea 10,Bilbao
theatre,43.3212369,-3.0026639,Lamiako antzokia,NO STREET 9999,Bilbao
