tipo,lat,lon,name,address,location
restaurant,37.3881734,-5.9218547,Pizzeria Maria,NO STREET 9999,Sevilla
restaurant,37.387228,-5.9217397,Cafetería Rui,NO STREET 9999,Sevilla
restaurant,37.3875844,-5.9199692,NO NAME,NO STREET 9999,Sevilla
restaurant,37.3886379,-5.9210132,NO NAME,NO STREET 9999,Sevilla
restaurant,37.3881693,-5.9206068,NO NAME,NO STREET 9999,Sevilla
restaurant,37.3630589,-5.9858491,Cafetería Metrópolis,NO STREET 9999,Sevilla
restaurant,37.3829205,-5.9723172,100 Montaditos,NO STREET 9999,Sevilla
restaurant,37.3829347,-5.9723901,Jaque Mate Tapas,Eduardo Dato 9999,Sevilla
restaurant,37.3854176,-5.9729113,Domino's Pizza,NO STREET 9999,Sevilla
restaurant,37.3968705,-5.9967756,Bar San Lorenzo,NO STREET 9999,Sevilla
restaurant,37.3969679,-5.9963185,Cafe Bar El Sardinero,NO STREET 9999,Sevilla
restaurant,37.3967979,-5.9945413,Almeda 5,NO STREET 9999,Sevilla
restaurant,37.385935,-5.9869065,El 3 de Oro,NO STREET 9999,Sevilla
restaurant,37.3849733,-5.989891,Restaurante Santa Cruz,NO STREET 9999,Sevilla
restaurant,37.3913797,-6.0021745,100 Montaditos,NO STREET 9999,Sevilla
restaurant,37.3927949,-5.9973396,La Piamonttesa,NO STREET 9999,Sevilla
restaurant,37.392772,-5.9970991,Mesón Serranito,NO STREET 9999,Sevilla
restaurant,37.392526,-5.9913642,Taberna La Encarnación,NO STREET 9999,Sevilla
restaurant,37.3924124,-5.9905128,Mamá Carmen,NO STREET 9999,Sevilla
restaurant,37.3843339,-5.9939526,Taberna El Papelón,NO STREET 9999,Sevilla
restaurant,37.3885745,-5.9981207,Taberna del Alabardero,NO STREET 9999,Sevilla
restaurant,37.3885157,-6.0000761,BBQ House,NO STREET 9999,Sevilla
restaurant,37.3938755,-5.9937642,Santa Marta,NO STREET 9999,Sevilla
restaurant,37.3937192,-5.9912688,Alcázares,NO STREET 9999,Sevilla
restaurant,37.3974972,-5.9930588,La Sopa Boba,NO STREET 9999,Sevilla
restaurant,37.4010654,-5.9268274,Sloppy Joe's,NO STREET 9999,Sevilla
restaurant,37.4013991,-5.9823247,Yebra,NO STREET 9999,Sevilla
restaurant,37.4030634,-5.9873915,Kaede,NO STREET 9999,Sevilla
restaurant,37.3938146,-5.9815256,La Cigala de Oro,NO STREET 9999,Sevilla
restaurant,37.3917542,-5.9786712,Carlos Alberto,NO STREET 9999,Sevilla
restaurant,37.3926213,-5.9804742,kindo,Calle José Laguillo 20,Sevilla
restaurant,37.3912714,-5.9978167,Pando Centro,NO STREET 9999,Sevilla
restaurant,37.4041452,-5.9895241,Casa Fermín,NO STREET 9999,Sevilla
restaurant,37.3856056,-6.0041413,Casa Manolo Triana,Calle San Jorge 16,Sevilla
restaurant,37.3915663,-5.9894907,Los Coloniales,NO STREET 9999,Sevilla
restaurant,37.3934531,-5.9954449,La Mafia,NO STREET 9999,Sevilla
restaurant,37.3907956,-5.9911461,La Mia Tana,Calle Pérez Galdós 24,Sevilla
restaurant,37.3907444,-5.9909208,NO NAME,NO STREET 9999,Sevilla
restaurant,37.3906421,-5.9908189,NO NAME,NO STREET 9999,Sevilla
restaurant,37.3905646,-5.9908611,Taberna Alambique,NO STREET 9999,Sevilla
restaurant,37.3900022,-5.9916595,Alcaiza,NO STREET 9999,Sevilla
restaurant,37.3896632,-5.9910151,Orsini,NO STREET 9999,Sevilla
restaurant,37.3902183,-5.9929505,NO NAME,NO STREET 9999,Sevilla
restaurant,37.3933406,-5.9882942,El rinconcillo,NO STREET 9999,Sevilla
restaurant,37.3931108,-5.9863994,Casa Catalina,NO STREET 9999,Sevilla
restaurant,37.3936505,-5.9879797,Taberna Los Terceros,NO STREET 9999,Sevilla
restaurant,37.3904326,-5.984255,Becerrita,NO STREET 9999,Sevilla
restaurant,37.3924497,-5.979126,NO NAME,NO STREET 9999,Sevilla
restaurant,37.3966631,-5.9939661,Cruo,NO STREET 9999,Sevilla
restaurant,37.3787279,-5.9895207,La Raza,NO STREET 9999,Sevilla
restaurant,37.3452178,-6.0664049,La Tarazana,NO STREET 9999,Sevilla
restaurant,37.3911321,-6.0040341,NO NAME,NO STREET 9999,Sevilla
restaurant,37.3812829,-5.9864001,Hostería del Prado,NO STREET 9999,Sevilla
restaurant,37.3779887,-5.9835155,Restaurante San Marco,NO STREET 9999,Sevilla
restaurant,37.4049084,-6.0066821,Abuela Luna,NO STREET 9999,Sevilla
restaurant,37.3695276,-6.042889,NO NAME,NO STREET 9999,Sevilla
restaurant,37.3705443,-6.0421267,NO NAME,NO STREET 9999,Sevilla
restaurant,37.3747965,-6.0520129,A la Brasa,NO STREET 9999,Sevilla
restaurant,37.3747317,-6.0524848,Restarante Lagares,NO STREET 9999,Sevilla
restaurant,37.3779766,-6.0459576,NO NAME,NO STREET 9999,Sevilla
restaurant,37.3760838,-6.045743,NO NAME,NO STREET 9999,Sevilla
restaurant,37.3765528,-6.0467193,NO NAME,NO STREET 9999,Sevilla
restaurant,37.3757711,-6.051537,NO NAME,NO STREET 9999,Sevilla
restaurant,37.386136,-5.9902287,Taberna Belmonte,NO STREET 9999,Sevilla
restaurant,37.3410088,-6.0591991,Bule Bar,NO STREET 9999,Sevilla
restaurant,37.3852328,-5.9910171,Café-Restaurante Alianza,NO STREET 9999,Sevilla
restaurant,37.3885089,-5.9897578,Bar Mármoles,NO STREET 9999,Sevilla
restaurant,37.3874557,-5.9913286,du plex,NO STREET 9999,Sevilla
restaurant,37.3901711,-5.9945712,Mesón Castellano,NO STREET 9999,Sevilla
restaurant,37.3841836,-5.9786739,depiKofino,Eduardo Dato 9999,Sevilla
restaurant,37.4371601,-6.0383538,Bodeguita Reyes,NO STREET 9999,Sevilla
restaurant,37.4017158,-5.9316884,Club Social Ciudad Blanca,NO STREET 9999,Sevilla
restaurant,37.4015324,-5.9319148,Los Colores,NO STREET 9999,Sevilla
restaurant,37.4003541,-5.9922064,La Corona,Calle Relator 23,Sevilla
restaurant,37.4003428,-5.99323,Café Piola,Alameda de Hércules 55,Sevilla
restaurant,37.4006326,-5.9934284,El Badulaque,NO STREET 9999,Sevilla
restaurant,37.4009242,-5.9951753,El Paladar,NO STREET 9999,Sevilla
restaurant,37.3747698,-6.0520611,Tomaré Tapas,NO STREET 9999,Sevilla
restaurant,37.3621066,-6.0291403,NO NAME,NO STREET 9999,Sevilla
restaurant,37.3953691,-5.9915658,Viriato Gastrobar,NO STREET 9999,Sevilla
restaurant,37.3964006,-5.9945136,Il Forno,NO STREET 9999,Sevilla
restaurant,37.3967324,-5.994288,Karpanta,NO STREET 9999,Sevilla
restaurant,37.3942666,-5.9915604,La Traviesa,NO STREET 9999,Sevilla
restaurant,37.3945405,-5.9904164,Pachamama Madre Tierra,NO STREET 9999,Sevilla
restaurant,37.3865066,-5.9878424,Restaurante Altamira,NO STREET 9999,Sevilla
restaurant,37.3922476,-5.9935277,Restaurante Pando,NO STREET 9999,Sevilla
restaurant,37.3894486,-5.9934172,Los Corales,NO STREET 9999,Sevilla
restaurant,37.387528,-5.992575,NO NAME,NO STREET 9999,Sevilla
restaurant,37.3870952,-5.993143,Restaurante Casa Robles,Calle Álvarez Quintero 58,Sevilla
restaurant,37.3878378,-5.9607653,100 Montaditos,NO STREET 9999,Sevilla
restaurant,37.3878497,-5.9605283,NO NAME,NO STREET 9999,Sevilla
restaurant,37.3951266,-5.997103,Dos de Mayo,NO STREET 9999,Sevilla
restaurant,37.3821646,-5.9953291,Lobo,NO STREET 9999,Sevilla
restaurant,37.3821219,-5.9950109,Gorki,Calle Almirante Lobo 2,Sevilla
restaurant,37.3821412,-5.995152,Toro,Calle Almirante Lobo 2,Sevilla
restaurant,37.3855855,-5.9868694,Modesto Tapas,Calle Cano y Cueto 9999,Sevilla
restaurant,37.3854867,-5.9866812,NO NAME,NO STREET 9999,Sevilla
restaurant,37.3861737,-5.9872201,Horno las Doncellas,NO STREET 9999,Sevilla
restaurant,37.3863599,-5.9874276,Restaurante El Cordobés,NO STREET 9999,Sevilla
restaurant,37.3854462,-5.9865632,Catalina Bar de Tapas,Catalina de Ribera 4,Sevilla
restaurant,37.4064537,-5.9285702,La Malteria,NO STREET 9999,Sevilla
restaurant,37.3875989,-5.9885597,Levies Cafe-Bar,Calle San José 15,Sevilla
restaurant,37.3984031,-5.9942722,Pomodoro,Alameda de Hércules 29,Sevilla
restaurant,37.3878249,-6.0454158,NO NAME,NO STREET 9999,Sevilla
restaurant,37.3889619,-5.9811116,Milonga's,Calle Campo de los Mártires 1,Sevilla
restaurant,37.3857635,-5.9513787,NO NAME,NO STREET 9999,Sevilla
restaurant,37.3809306,-6.0116173,Casa Casimiro,NO STREET 9999,Sevilla
restaurant,37.39842,-5.9879244,ConTenedor,NO STREET 9999,Sevilla
restaurant,37.3931743,-5.9884269,La Giganta,NO STREET 9999,Sevilla
restaurant,37.4034353,-5.9894462,Don Fadrique Casa Manolo,NO STREET 9999,Sevilla
restaurant,37.3930047,-5.9872745,Restaurante Baco,NO STREET 9999,Sevilla
restaurant,37.3922029,-5.9922734,Yamazaki,NO STREET 9999,Sevilla
restaurant,37.3933059,-5.9914368,Sur Bar Tapas,NO STREET 9999,Sevilla
restaurant,37.3932468,-5.9913222,Abbasy Doner Kebab,NO STREET 9999,Sevilla
restaurant,37.3921737,-5.9918324,Bar Spala2,NO STREET 9999,Sevilla
restaurant,37.3869433,-5.9929941,Ostia Antica,NO STREET 9999,Sevilla
restaurant,37.3873474,-5.9925046,Restaurante Santo,NO STREET 9999,Sevilla
restaurant,37.3902685,-5.9913735,Kiko de la Chari,NO STREET 9999,Sevilla
restaurant,37.3878589,-5.9927969,Restaurante Baco,NO STREET 9999,Sevilla
restaurant,37.3877545,-5.9926789,Restaurante Robles,NO STREET 9999,Sevilla
restaurant,37.3862842,-5.9962103,Mesón Cinco Jotas,NO STREET 9999,Sevilla
restaurant,37.3853669,-5.9950884,restaurante La Isla,NO STREET 9999,Sevilla
restaurant,37.3846411,-6.0266192,Pomodoro,NO STREET 9999,Sevilla
restaurant,37.3929845,-5.9885279,Patio San Eloy,Calle Alhóndiga 14,Sevilla
restaurant,37.3930076,-5.9930666,Perro Viejo,NO STREET 9999,Sevilla
restaurant,37.3939584,-5.9954524,Restaurante chino,NO STREET 9999,Sevilla
restaurant,37.3935442,-6.0013525,La Chalá,NO STREET 9999,Sevilla
restaurant,37.3936154,-5.9955688,Spala Duque,NO STREET 9999,Sevilla
restaurant,37.3932719,-5.9949817,Tapeaje,NO STREET 9999,Sevilla
restaurant,37.3939131,-5.9952226,Lizarrán,Calle Javier Lasso de la Vega 14,Sevilla
restaurant,37.3929955,-5.9951041,NO NAME,NO STREET 9999,Sevilla
restaurant,37.3929379,-5.9952811,NO NAME,NO STREET 9999,Sevilla
restaurant,37.3752023,-5.8982256,Bar Olvera II,NO STREET 9999,Sevilla
restaurant,37.3543268,-5.9376549,NO NAME,NO STREET 9999,Sevilla
restaurant,37.357269,-5.9392615,NO NAME,NO STREET 9999,Sevilla
restaurant,37.3583862,-5.9365578,NO NAME,NO STREET 9999,Sevilla
restaurant,37.4152903,-5.9560661,Badía,NO STREET 9999,Sevilla
restaurant,37.3825142,-5.9865165,Bar Nuria,Avda. de Málaga / Avda. de Cádiz 9999,Sevilla
restaurant,37.3841414,-5.9853806,Carlos Baena,C/ Rastro 9999,Sevilla
restaurant,37.3748624,-6.040551,Casa Marquez,NO STREET 9999,Sevilla
restaurant,37.3841862,-6.0754545,Aljarafe Tapas,Calle Narciso Mora 2,Sevilla
restaurant,37.3907454,-5.9913457,Habanita,Calle Golfo 3,Sevilla
restaurant,37.3888857,-6.0321366,Bodega La Pañoleta,NO STREET 9999,Sevilla
restaurant,37.3892314,-6.0010882,Restarurante japonés KaKuri,NO STREET 9999,Sevilla
restaurant,37.35438,-5.9854671,Doña Clara,Calle Ebro 9999,Sevilla
restaurant,37.3441369,-5.9768349,Cervecería 100 Montaditos,Avenida de Finlandia 9999,Sevilla
restaurant,37.388438,-6.0018102,Ciudad de Pequín,Calle Arjona 9999,Sevilla
restaurant,37.4237024,-5.9843263,Casa Chema,NO STREET 9999,Sevilla
restaurant,37.3878646,-6.0109721,Mesón Serranito,NO STREET 9999,Sevilla
restaurant,37.4042616,-6.0767771,NO NAME,NO STREET 9999,Sevilla
restaurant,37.400714,-5.9241701,Restaurante Dragon de Jade,Calle Doctor González Caraballo 1,Sevilla
restaurant,37.4008414,-5.9245009,Cafetería Portasevilla,Calle Doctor González Caraballo 1,Sevilla
restaurant,37.401519,-5.9247365,Bar La Tapichuela,Calle Doctor González Caraballo 9999,Sevilla
restaurant,37.3966739,-5.9904943,Pizzería El Gato Azul,NO STREET 9999,Sevilla
restaurant,37.3926915,-5.9936805,Baco,NO STREET 9999,Sevilla
restaurant,37.3643593,-5.9830135,Restaurante La Majorana,NO STREET 9999,Sevilla
restaurant,37.3634798,-5.9827082,Salvador C. Rojo,NO STREET 9999,Sevilla
restaurant,37.4225501,-5.9010312,Abades,NO STREET 9999,Sevilla
restaurant,37.3737444,-5.9541548,Taberna Los Condes,Puerto de Envalira 9999,Sevilla
restaurant,37.3757878,-6.0452025,Casa Esteban,NO STREET 9999,Sevilla
restaurant,37.4269602,-5.9759062,Mesón Casa Pedro II,NO STREET 9999,Sevilla
restaurant,37.4272444,-5.9767832,"Bodeguita ""Ar Sabio""",NO STREET 9999,Sevilla
restaurant,37.4271301,-5.9764425,Mesón Las Torres,NO STREET 9999,Sevilla
restaurant,37.3742712,-6.044768,El Americano Company,Plaza del ayuntamiento 9999,Sevilla
restaurant,37.4095311,-6.0072268,Casa Manuela,NO STREET 9999,Sevilla
restaurant,37.3953792,-5.9948364,El Gallinero de Sandra,NO STREET 9999,Sevilla
restaurant,37.3975885,-5.9958717,Casa Ricardo,NO STREET 9999,Sevilla
restaurant,37.3850729,-5.9896656,Hosteria del Laurel,NO STREET 9999,Sevilla
restaurant,37.390079,-5.991404,Los Palillos,NO STREET 9999,Sevilla
restaurant,37.3588949,-5.9857516,El Buen Comer,Monzón 24-26,Sevilla
restaurant,37.3588173,-5.9866203,Comedor Universitario Campus Reina Mercedes,NO STREET 9999,Sevilla
restaurant,37.3861148,-5.9903257,Casa Tomate,Mateos Gago 24,Sevilla
restaurant,37.3829083,-5.9722543,Taberna Galia,Eduardo Dato 9999,Sevilla
restaurant,37.3848499,-5.9903135,Doña Elvira,NO STREET 9999,Sevilla
restaurant,37.3753672,-5.9733973,Restaurante Limón,NO STREET 9999,Sevilla
restaurant,37.3756209,-5.9736414,Restaurante Los Cántaros,NO STREET 9999,Sevilla
restaurant,37.3759938,-5.9732095,NO NAME,NO STREET 9999,Sevilla
restaurant,37.3850349,-5.9906161,Restaurante La Cueva,NO STREET 9999,Sevilla
restaurant,37.378426,-5.9838661,Restaurante Baco,NO STREET 9999,Sevilla
restaurant,37.3844521,-5.9896611,Corral del Agua,NO STREET 9999,Sevilla
restaurant,37.3876524,-5.9922026,Mesón don Raimondo,NO STREET 9999,Sevilla
restaurant,37.4025741,-6.0090438,Quinoa,NO STREET 9999,Sevilla
restaurant,37.401236,-6.0094247,Módena,NO STREET 9999,Sevilla
restaurant,37.4025916,-6.0067511,Da Vinci,Charles Darwin 9999,Sevilla
restaurant,37.396208,-5.974479,Berenice Bristot,Calle Samaniego 13,Sevilla
restaurant,37.383558,-5.9735825,Milonga's,Calle Luis de Morales 32,Sevilla
restaurant,37.3687305,-6.0797528,Asador Las Dos Jotas,Avenida Pablo Coso Calero 102,Sevilla
restaurant,37.4071405,-5.9566476,Bar Sierra de Aracena,NO STREET 9999,Sevilla
restaurant,37.4078201,-5.9546036,La Pitarra,NO STREET 9999,Sevilla
restaurant,37.4073493,-5.9569666,La Burra,NO STREET 9999,Sevilla
restaurant,37.4068491,-5.9559612,Wass@p,NO STREET 9999,Sevilla
restaurant,37.3829278,-6.0029109,Alboroque,Calle Pagés del Corro 107,Sevilla
restaurant,37.3992949,-5.9923078,Gibi Tapas,Calle Peris Mencheta 21,Sevilla
restaurant,37.3972078,-5.9931448,Dabuten Tapas,NO STREET 9999,Sevilla
restaurant,37.4012534,-6.0365313,NO NAME,NO STREET 9999,Sevilla
restaurant,37.3995961,-5.9927957,La Mata 24,Calle Mata 24,Sevilla
restaurant,37.4029674,-6.008932,Merkado,Calle Américo Vespucio 5,Sevilla
restaurant,37.4120709,-5.959816,Mesón Orosierra,NO STREET 9999,Sevilla
restaurant,37.3946276,-5.991599,Picciotti,Calle Regina 13,Sevilla
restaurant,37.4079831,-5.9165113,Mesón Las 5 bellotas,NO STREET 9999,Sevilla
restaurant,37.4017694,-6.0333748,Casa Isidoro,NO STREET 9999,Sevilla
restaurant,37.4015362,-5.9919275,sacramento,Feria 141,Sevilla
restaurant,37.3902182,-6.0803147,Restaurente Trieste,Calle Virgen del Pilar 11,Sevilla
restaurant,37.3874424,-5.9961034,Hotel Maestranza,NO STREET 9999,Sevilla
restaurant,37.3860704,-5.9894636,Casa Placido,NO STREET 9999,Sevilla
restaurant,37.38348,-5.9946,Torre De La Plata,NO STREET 9999,Sevilla
restaurant,37.40449,-5.97932,El Toruno,NO STREET 9999,Sevilla
restaurant,37.39027,-6.00155,Hermanos Fernandez,NO STREET 9999,Sevilla
restaurant,37.3803321,-5.9992058,Los Estribos,NO STREET 9999,Sevilla
restaurant,37.38295,-5.99404,Puerta De Jerez,NO STREET 9999,Sevilla
restaurant,37.38505,-5.95763,Cinco Jotas,NO STREET 9999,Sevilla
restaurant,37.4060939,-5.9344888,Restaurante Buda,NO STREET 9999,Sevilla
restaurant,37.388939,-6.0014681,El Manijero,Calle Albuera 9999,Sevilla
restaurant,37.38322,-5.96968,Sierra De Huelva,NO STREET 9999,Sevilla
restaurant,37.3735749,-5.9960679,Sancho Panza,NO STREET 9999,Sevilla
restaurant,37.38618,-5.96926,De Juan,NO STREET 9999,Sevilla
restaurant,37.3729555,-5.9682125,Serranía de Cádiz,NO STREET 9999,Sevilla
restaurant,37.3861655,-5.9960415,El Gallo Negro,NO STREET 9999,Sevilla
restaurant,37.38836,-5.9831,Sierra De Huelva,NO STREET 9999,Sevilla
restaurant,37.40288,-5.97245,Orgaz,NO STREET 9999,Sevilla
restaurant,37.4138,-5.96587,Grupo Parqueflores I Fase (Cafeteria),NO STREET 9999,Sevilla
restaurant,37.4066092,-5.9726768,Mike´s Burguer,Parque Torredamar 9999,Sevilla
restaurant,37.3789692,-6.0008962,Parrilla argentina Atahualpa,Calle Salado 11-Local 12,Sevilla
restaurant,37.3794303,-6.0080549,Jaylu,NO STREET 9999,Sevilla
restaurant,37.3812499,-6.0085387,100 Montaditos,NO STREET 9999,Sevilla
restaurant,37.3809352,-6.0054439,El CERO 10,NO STREET 9999,Sevilla
restaurant,37.3830762,-6.005912,Restaurante Blanca Paloma,Calle San Jacinto 51,Sevilla
restaurant,37.3792736,-6.0077603,Jun Yi Bar,Calle Avilés 7,Sevilla
restaurant,37.3553595,-5.9880977,Bodega La Pitarra,Calle Pava 1,Sevilla
restaurant,37.4111184,-6.005981,comedor CSIC Campus Isla de la Cartuja,NO STREET 9999,Sevilla
restaurant,37.358,-5.9860805,Döner Kebab El Turco,Avenida de Reina Mercedes 53,Sevilla
restaurant,37.3632329,-5.9858672,Confucio,Avenida de la Reina Mercedes 1,Sevilla
restaurant,37.4024122,-5.9195293,La Tapería de Lola,NO STREET 9999,Sevilla
restaurant,37.4025827,-5.9199236,NO NAME,NO STREET 9999,Sevilla
restaurant,37.4025102,-5.9184886,NO NAME,NO STREET 9999,Sevilla
restaurant,37.4032048,-5.9187917,El Populo,NO STREET 9999,Sevilla
restaurant,37.387262,-5.9946824,Casa de Extremadura,NO STREET 9999,Sevilla
restaurant,37.3876393,-5.9730045,Vinacle,Avenida de Kansas City 1,Sevilla
restaurant,37.388676,-6.0808473,Tapería La Era,NO STREET 9999,Sevilla
restaurant,37.3890105,-5.9988499,La Azotea,Calle Zaragoza 5,Sevilla
restaurant,37.395875,-5.9956034,La Azotea,Calle Jesús del Gran Poder 31,Sevilla
restaurant,37.3966105,-5.993837,Buoni,Calle Amor de Dios 9999,Sevilla
restaurant,37.3942049,-5.9915391,AlmaZen,NO STREET 9999,Sevilla
restaurant,37.3904016,-5.9999815,Estrella del Sur,NO STREET 9999,Sevilla
restaurant,37.3788317,-5.9771476,La Brioche,Calle Barrau 9999,Sevilla
restaurant,37.3749337,-6.0027126,Restaurante Sacristía Sebastián,Virgen de las Montañas 17,Sevilla
restaurant,37.3746286,-6.0036203,Sushi Chaki Japonés,Calle Virgen de Aguas Santas 8,Sevilla
restaurant,37.3947146,-5.9812848,Casa Morante,NO STREET 9999,Sevilla
restaurant,37.3945472,-5.981421,La Cigala Chica,NO STREET 9999,Sevilla
restaurant,37.376909,-5.9747744,Capitolio,Avenida Ramón y Cajal 32,Sevilla
restaurant,37.3919235,-5.9825869,RAFAEL RUIZ,Calle Amador de Los Ríos 46,Sevilla
restaurant,37.4044331,-5.9559269,Poseidon,NO STREET 9999,Sevilla
restaurant,37.3948568,-5.9812315,Cervecería La Roda,NO STREET 9999,Sevilla
restaurant,37.4031227,-6.0367013,Freiduria La Feria,NO STREET 9999,Sevilla
restaurant,37.3953787,-5.9908161,La Plazoleta,NO STREET 9999,Sevilla
restaurant,37.3812801,-5.9714333,Panrallao,NO STREET 9999,Sevilla
restaurant,37.3978286,-5.9937435,Churrería y Freiduría Victoria,Alameda de Hércules 9999,Sevilla
restaurant,37.3979082,-5.9921537,Bierkraft,Calle Correduría 35,Sevilla
restaurant,37.3978891,-5.9919526,Sushi & Brothers,Calle Correduría 46,Sevilla
restaurant,37.3977442,-5.9922503,HOB. House of Burger,Calle Correduría 38,Sevilla
restaurant,37.385568,-5.97399,MonTolivo,Santo Domingo de la Calzada 13,Sevilla
restaurant,37.4018153,-5.9238101,La Gitana Loca,Avenida Emilio Lemos 8,Sevilla
restaurant,37.3863949,-5.9961334,Abacería La Cantinela,NO STREET 9999,Sevilla
restaurant,37.3870689,-5.9956598,Bodeguita Romero,Calle Harinas 10,Sevilla
restaurant,37.4280404,-5.9771637,La Cantina de Torneo,NO STREET 9999,Sevilla
restaurant,37.3708241,-5.9836316,l'inspiration,NO STREET 9999,Sevilla
restaurant,37.3918338,-5.9797389,Trattoria Filomena,Calle Padre Méndez Casariego 24,Sevilla
restaurant,37.3997436,-5.9844161,Domino's Pizza,Ronda de Capuchinos 2,Sevilla
restaurant,37.3844007,-6.0040001,Taberna Miami,Calle San Jacinto 21,Sevilla
restaurant,37.3857004,-5.9871286,Modesto,Calle Cano y Cueto 9999,Sevilla
restaurant,37.392469,-5.982147,Karpanta,Gonzalo Bilbao 10,Sevilla
restaurant,37.401197,-5.9961646,KIMBAP,Calle Lumbreras 38,Sevilla
restaurant,37.3808713,-5.9974678,Restaurante Río Grande,C/Betis 69 9999,Sevilla
restaurant,37.3865796,-5.972626,Foster Hollywood,Luis de Morales 2,Sevilla
restaurant,37.3850098,-6.0021374,Restaurante Betis 7,NO STREET 9999,Sevilla
restaurant,37.4332252,-6.0447161,Bar Camino del Rocío,NO STREET 9999,Sevilla
restaurant,37.3945768,-5.9201932,Hermanos Ceballos,NO STREET 9999,Sevilla
restaurant,37.3876628,-6.0009323,Orsini,Calle Reyes Católicos 25,Sevilla
restaurant,37.4372538,-6.0414035,Peña Cultural Sevillista Santiponce,NO STREET 9999,Sevilla
restaurant,37.3941292,-5.9917849,Al Baraka,NO STREET 9999,Sevilla
restaurant,37.3845183,-6.0371509,Quini,Plaza Juan Ramón Jiménez 9999,Sevilla
restaurant,37.3750386,-6.0807942,Chicken da Guía,Avenida República Argentina 9999,Sevilla
restaurant,37.3750066,-6.0079913,Puerta Principe,NO STREET 9999,Sevilla
restaurant,37.3753942,-6.004796,El Panzón Restaurante,Calle Santa Fe 3,Sevilla
restaurant,37.3859969,-6.0811347,Freiduría Arellano,Avenida Colón 29,Sevilla
restaurant,37.3852634,-6.0272527,Wok El Sol Naciente,NO STREET 9999,Sevilla
restaurant,37.3825922,-6.0101359,Gastro Eden,Ronda de Triana 29,Sevilla
restaurant,37.3828211,-6.0841589,El Picoteo del Aljarafe,NO STREET 9999,Sevilla
restaurant,37.3832723,-6.0022177,Freiduría Reina Victoria,Calle Rodrigo de Triana 51,Sevilla
restaurant,37.3894968,-5.9213313,Cervecería Bar Juanlu,NO STREET 9999,Sevilla
restaurant,37.3893945,-5.9213273,Restaurante Las Bambalinas,NO STREET 9999,Sevilla
restaurant,37.406686,-5.9366045,Cervecería Bar Arturo,NO STREET 9999,Sevilla
restaurant,37.3808778,-6.0649091,Asador Bormujos,Calle Francisco Tomás y Valiente 9999,Sevilla
restaurant,37.3779084,-6.0138014,Bar La Tomata,Calle Arcángel San Miguel 7,Sevilla
restaurant,37.386328,-5.9954489,Pimenton,NO STREET 9999,Sevilla
restaurant,37.3527222,-6.0384543,Mesón - Bar Alfaray,NO STREET 9999,Sevilla
restaurant,37.3546039,-6.0389325,Freiduría Mena,NO STREET 9999,Sevilla
restaurant,37.3421407,-6.0673453,Pizzón Pizza,Calle Guadalquivir 30,Sevilla
restaurant,37.3529957,-6.0457677,Pomodoro,NO STREET 9999,Sevilla
restaurant,37.3798445,-6.0718941,El Gallo Colorao,NO STREET 9999,Sevilla
restaurant,37.3800829,-6.0720448,La Nueva Piccola Italia,NO STREET 9999,Sevilla
restaurant,37.3836837,-6.0009683,Casa Remesal,Calle Pureza 64,Sevilla
restaurant,37.3920194,-6.0802305,Bar La Ballena,Calle Virgen del Pilar 15,Sevilla
restaurant,37.3962526,-5.9731595,Parrilla Argentina Malambo's,Calle Doctor Pedro Vallina 11,Sevilla
restaurant,37.3872836,-5.9760431,Alqamar Döner Kebab,Calle Luis Montoto 71,Sevilla
restaurant,37.3935159,-6.0939495,Espejos,NO STREET 9999,Sevilla
restaurant,37.3913302,-5.9956002,Bodeguita Blanco Cerrillo,Calle José de Velilla 1,Sevilla
restaurant,37.3870956,-6.0493813,NO NAME,NO STREET 9999,Sevilla
restaurant,37.3814531,-6.0077157,Restaurante Valverde,Calle Olivares 3,Sevilla
restaurant,37.3861031,-5.9965694,Antonio Romero,Calle Antonia Díaz 5,Sevilla
restaurant,37.3856492,-5.9972722,Bodeguita Antonio Romero,Calle Antonia Díaz 19,Sevilla
restaurant,37.3740071,-5.9765046,Albarale,NO STREET 9999,Sevilla
restaurant,37.3845582,-6.0643696,Venta La Antigua,NO STREET 9999,Sevilla
restaurant,37.3861754,-6.0810314,La Gran Exquisitez,Avenida Colón 29,Sevilla
restaurant,37.3821263,-5.9955157,Uno de Delicias,Paseo de las Delicias 1,Sevilla
restaurant,37.4019628,-5.9942314,La Gorda de Calatrava,Calle Calatrava 9999,Sevilla
restaurant,37.3718492,-6.0723682,La Fresquita,NO STREET 9999,Sevilla
restaurant,37.3488663,-6.0423468,La Alternativa,NO STREET 9999,Sevilla
restaurant,37.3548106,-5.984607,Cambados,Calle Uruguay 12,Sevilla
restaurant,37.3551652,-5.9848076,Boutique Hotel Holos,Calle Uruguay 8,Sevilla
restaurant,37.388567,-5.9938457,Albarama,Plaza de San Francisco 5,Sevilla
restaurant,37.3884392,-5.9938081,Puracepa - Gastrobar,Plaza de San Francisco 8,Sevilla
restaurant,37.3813276,-6.0091355,La Cochera,NO STREET 9999,Sevilla
restaurant,37.3793353,-6.0430063,Restaurante Jaramillo,NO STREET 9999,Sevilla
restaurant,37.3852131,-6.0794048,Bar Blanco Cerrillo,Calle Manuel Canela 31,Sevilla
restaurant,37.3928518,-5.9850579,NO NAME,NO STREET 9999,Sevilla
restaurant,37.384592,-5.9966713,Petit Comité,NO STREET 9999,Sevilla
restaurant,37.3978965,-5.9934411,Arte y Sabor,Alameda de Hércules 85,Sevilla
restaurant,37.3652429,-5.9820246,Ristorante Don Salvatore,Calle Tabladilla 2,Sevilla
restaurant,37.3872861,-6.0533578,Arduiña,NO STREET 9999,Sevilla
restaurant,37.3874391,-5.9955786,Torres y García,Calle Harinas 2-4,Sevilla
restaurant,37.376979,-6.0402652,Casa Alta,Calle El Palancar 9999,Sevilla
restaurant,37.3893534,-5.9928756,Paco-Pepe Bar,NO STREET 9999,Sevilla
restaurant,37.3904397,-5.9905445,luzanda,NO STREET 9999,Sevilla
restaurant,37.390407,-5.9915336,Sal Gorda,Calle Alcaicería de la Loza 23,Sevilla
restaurant,37.3979145,-5.989301,El Coco Verde,NO STREET 9999,Sevilla
restaurant,37.3997612,-5.9941155,Parilla de Badulaque,NO STREET 9999,Sevilla
restaurant,37.3974184,-5.9944434,Las Columnad,NO STREET 9999,Sevilla
restaurant,37.3971946,-5.9944856,Al Solito Posto,NO STREET 9999,Sevilla
restaurant,37.3948023,-5.9951137,No Lugar,Calle Trajano 9999,Sevilla
restaurant,37.3913903,-5.9994874,Mechela,NO STREET 9999,Sevilla
restaurant,37.3898278,-5.9908913,Buentrago,NO STREET 9999,Sevilla
restaurant,37.3894397,-5.9935227,Entre Cárceles,NO STREET 9999,Sevilla
restaurant,37.3894123,-5.9932203,Las Casas de los Mercaderes,NO STREET 9999,Sevilla
restaurant,37.3963157,-5.9945642,La Dalia,NO STREET 9999,Sevilla
restaurant,37.3926857,-5.994133,Volapie,NO STREET 9999,Sevilla
restaurant,37.3938926,-5.9918168,Mupanky Bowls,Calle Regina 1,Sevilla
restaurant,37.3854532,-6.0741166,La Gastroteca,Avenida de la Constitución 4,Sevilla
restaurant,37.3855687,-6.0739475,Restaurante Arturo,Avenida de la Constitución 17,Sevilla
restaurant,37.3909935,-5.9911151,Fargo,NO STREET 9999,Sevilla
restaurant,37.3756619,-6.0067329,Blas Infante,Avenida Blas Infante 4,Sevilla
restaurant,37.3846341,-6.0743192,Restaurante La Pepa,Avenida de Europa 9,Sevilla
restaurant,37.4267337,-5.9779836,Hostería del Condado,Calle Tecnología 26,Sevilla
restaurant,37.3860948,-5.9868895,La Gallina Bianca,NO STREET 9999,Sevilla
restaurant,37.3860187,-5.9870149,Kaede,NO STREET 9999,Sevilla
restaurant,37.384449,-5.9805404,seamarket,NO STREET 9999,Sevilla
restaurant,37.3846397,-5.978843,Velouté,NO STREET 9999,Sevilla
restaurant,37.3843433,-5.9785764,El Pincho,Calle Diego Angulo Íñiguez 16,Sevilla
restaurant,37.3859351,-5.9968813,Mesón el Serranito,NO STREET 9999,Sevilla
restaurant,37.3823962,-5.9926664,Hard Rock Cafe Sevilla,NO STREET 9999,Sevilla
restaurant,37.3919776,-5.9966121,Doña Carmen Restaurante,NO STREET 9999,Sevilla
restaurant,37.3864356,-5.9954504,Macheroni & Co,NO STREET 9999,Sevilla
restaurant,37.3820548,-5.9698842,Bodega La doma,NO STREET 9999,Sevilla
restaurant,37.3932024,-5.9913262,Jaipur,NO STREET 9999,Sevilla
restaurant,37.3954672,-5.9752118,Manila,NO STREET 9999,Sevilla
restaurant,37.3894937,-5.995454,Goiko Grill,NO STREET 14,Sevilla
restaurant,37.393561,-6.001394,La Chala,NO STREET 9999,Sevilla
restaurant,37.3823265,-5.9940026,El Coliseo,NO STREET 9999,Sevilla
restaurant,37.3791675,-6.0731283,La Sidrería,NO STREET 9999,Sevilla
restaurant,37.3736999,-6.0392245,NO NAME,NO STREET 9999,Sevilla
restaurant,37.3866089,-5.9956894,El rincon gallego del pulpo,Calle Harinas 21,Sevilla
restaurant,37.3883253,-5.9994057,La Brunilda,NO STREET 9999,Sevilla
restaurant,37.3891864,-5.9926103,la cantina,NO STREET 9999,Sevilla
restaurant,37.3862059,-5.9908782,mama bistro,NO STREET 9999,Sevilla
restaurant,37.3828727,-5.9858433,ancora,NO STREET 9999,Sevilla
restaurant,37.3894974,-5.9995329,Flores Gourmet,NO STREET 9999,Sevilla
restaurant,37.3867512,-5.9899185,La Fresquita,Calle Mateos Gago 29,Sevilla
restaurant,37.387528,-5.9935809,Torito Rojo,NO STREET 9999,Sevilla
restaurant,37.3967707,-5.9958972,D'mercao,Calle Conde Barajas 23,Sevilla
restaurant,37.3875754,-5.9935871,NO NAME,NO STREET 12,Sevilla
restaurant,37.3875001,-5.9935806,La Cava.Bar,NO STREET 9999,Sevilla
restaurant,37.3857909,-5.9868119,Freiduría Puerta de la Carne,Calle Santa María la Blanca 36,Sevilla
restaurant,37.3896953,-5.9989727,NO NAME,NO STREET 9999,Sevilla
restaurant,37.3852685,-5.9945999,La Moneda,Calle Almirantazgo 4,Sevilla
restaurant,37.3858932,-6.0040763,La Comidilla,NO STREET 9999,Sevilla
restaurant,37.386027,-6.0044114,Casa cuesta,Calle Castilla 1,Sevilla
restaurant,37.4105917,-5.9341951,La Monella,Calle Eúfrates 6,Sevilla
restaurant,37.3879864,-5.9610243,Foster's Hollywood,NO STREET 9999,Sevilla
restaurant,37.3866396,-5.9976217,Jaime Alpresa,NO STREET 9999,Sevilla
restaurant,37.3906929,-5.9910883,Los Caracoles - Casa Antonio,NO STREET 13,Sevilla
restaurant,37.3874426,-5.9959209,Casa Moreno,NO STREET 9999,Sevilla
restaurant,37.3874029,-5.9678379,Taberna Azafrán,Calle Luis Montoto 148,Sevilla
restaurant,37.3861584,-5.9912081,La Traditional,NO STREET 9999,Sevilla
restaurant,37.3879291,-5.9837138,Abantal,Calle Alcalde José de la Bandera 7,Sevilla
restaurant,37.3999422,-6.018482,NO NAME,NO STREET 9999,Sevilla
restaurant,37.3827798,-6.000946,Bar Bistec,Calle Pelay Correa 34,Sevilla
restaurant,37.3977234,-5.991412,La Locanda,Calle Feria 50,Sevilla
restaurant,37.3877964,-5.9959146,El Puntal,NO STREET 9999,Sevilla
restaurant,37.3876843,-5.995735,Bar Restaurante Enrique Becerra,NO STREET 9999,Sevilla
restaurant,37.3873373,-5.9960957,Bodega Paco Góngora,NO STREET 9999,Sevilla
restaurant,37.3808044,-6.0833978,Noha Sushi,NO STREET 9999,Sevilla
restaurant,37.3868608,-5.9937481,NO NAME,NO STREET 9999,Sevilla
restaurant,37.3924378,-5.9906165,spala,NO STREET 9999,Sevilla
restaurant,37.392188,-5.9902257,Restaurante El Mirlo Blanco,NO STREET 9999,Sevilla
restaurant,37.3848483,-6.0055693,Bar Las Golondrinas,Calle Antillano Campos 26,Sevilla
restaurant,37.3978438,-5.9975647,Antigua Abacería de San Lorenzo,Calle Teodosio 53,Sevilla
restaurant,37.3894175,-5.9953161,Bar Barbiana,NO STREET 9999,Sevilla
restaurant,37.3883249,-6.0022437,WOK Restaurant,NO STREET 9999,Sevilla
restaurant,37.3861594,-5.9914526,Cerveceria Giralda,Calle Mateos Gago 1,Sevilla
restaurant,37.3706033,-5.9834294,Manolo León,Calle Juan Pablos 8,Sevilla
restaurant,37.3835193,-6.0559086,Bar La Espuela,Calle Alcalde Juan Sánchez Mesa 8,Sevilla
restaurant,37.3787134,-5.9820912,Borda Vinoteca,NO STREET 9999,Sevilla
restaurant,37.3727995,-5.9847159,Leña al Lomo,Calle Progreso 14,Sevilla
restaurant,37.3838501,-5.9867655,Moon,NO STREET 9999,Sevilla
restaurant,37.3852136,-5.9943019,NO NAME,NO STREET 9999,Sevilla
restaurant,37.3798097,-5.9774959,Los 100 montaditos,NO STREET 9999,Sevilla
restaurant,37.379742,-5.977282,Tapas Viapol,NO STREET 9999,Sevilla
restaurant,37.3972555,-5.9913988,Lola Por Dios,NO STREET 9999,Sevilla
restaurant,37.4013354,-5.9938776,Dúo Tapas,Calle Calatrava 10,Sevilla
restaurant,37.4061184,-5.9349178,Taberna Congreso,NO STREET 9999,Sevilla
restaurant,37.390063,-5.9961407,Lobo López,NO STREET 9999,Sevilla
restaurant,37.3709716,-6.0862607,La Hispalense,Calle Avicena 9999,Sevilla
restaurant,37.3645651,-5.9794341,Bar Scott,NO STREET 9999,Sevilla
restaurant,37.3890257,-5.9818136,Chupadedos Bar,Calle Juan Antonio Cavestany 11,Sevilla
restaurant,37.3861497,-5.989902,San Marco,NO STREET 9999,Sevilla
restaurant,37.3886816,-5.999089,Patronas,Calle Santas Patronas 9999,Sevilla
restaurant,37.403526,-5.987019,NO NAME,NO STREET 9999,Sevilla
restaurant,37.3838904,-5.9930139,Rayuela,NO STREET 9999,Sevilla
restaurant,37.3944152,-5.9915398,Linterna Ciega,Calle Regina 10,Sevilla
restaurant,37.3990057,-5.9847364,El Obrador De Pasta,Calle San Hermenegildo 6A,Sevilla
restaurant,37.3862354,-6.0093082,Trianilla,NO STREET 9999,Sevilla
restaurant,37.3912038,-5.9961551,Restaurant Gaia,NO STREET 9999,Sevilla
restaurant,37.3850993,-5.9969884,Tablao El Arenal,NO STREET 9999,Sevilla
restaurant,37.3583363,-5.9873534,Cafetería/comedor de la ETSI Informática,NO STREET 9999,Sevilla
restaurant,37.3895104,-5.9952112,Casa La Viuda,NO STREET 2,Sevilla
restaurant,37.3783399,-5.9964272,La Placita del Nonina,NO STREET 9999,Sevilla
restaurant,37.388646,-6.0082686,Bar El Tropiezo,Calle Pinzón 2,Sevilla
restaurant,37.3915949,-6.06097,Terraza Joselito,Avenida Plácido Fernández Viagas 9999,Sevilla
restaurant,37.3742348,-5.9764296,No Veas,Avenida de Diego Martínez Barrio 10,Sevilla
restaurant,37.386815,-5.9879857,La Bartola,San José 24,Sevilla
restaurant,37.3803351,-6.0433318,Jaramillo Tapas,NO STREET 9999,Sevilla
restaurant,37.384893,-6.0031689,Restaurante Velella,Plaza del Altozano 9,Sevilla
restaurant,37.3900571,-5.9903014,La Bodega,NO STREET 9999,Sevilla
restaurant,37.4358866,-5.9799535,Salón de celebraciones Los Viveros,NO STREET 9999,Sevilla
restaurant,37.3857116,-5.9901782,El librero tapas,Pasaje de Andreu 4,Sevilla
restaurant,37.3821676,-6.0849913,Mesón Aljares,NO STREET 9999,Sevilla
restaurant,37.381288,-6.0852802,Mesón El Coto,NO STREET 9999,Sevilla
restaurant,37.3813951,-6.0852652,Mesón El Sevillano,NO STREET 9999,Sevilla
restaurant,37.3859998,-5.9913454,La Azotea,NO STREET 9999,Sevilla
restaurant,37.3875848,-5.9956338,La flor de Toranzo,NO STREET 1,Sevilla
restaurant,37.3854551,-5.986635,Vinería San Telmo,NO STREET 9999,Sevilla
restaurant,37.3898244,-5.9892675,El Traga,Calle Águilas 6,Sevilla
restaurant,37.3950055,-5.9967642,Bodega Palo Santo,Plaza de la Gavidia 5,Sevilla
restaurant,37.3936094,-5.9936361,Cañabota,Calle José Gestoso 19,Sevilla
restaurant,37.3850699,-6.0061783,Amarra Tapas,Calle Pagés del Corro 43,Sevilla
restaurant,37.3865275,-5.9946141,Casa Morales,Calle García de Vinuesa 11,Sevilla
restaurant,37.3932656,-6.0009696,Caliche vinos y tapas,NO STREET 9999,Sevilla
restaurant,37.3861869,-5.9963665,Freiduria el Arenal,NO STREET 9999,Sevilla
restaurant,37.3838552,-6.0008613,Freiduria Pureza,Calle Pureza 61,Sevilla
restaurant,37.3851011,-5.9947045,MILONGUITAS,NO STREET 9999,Sevilla
restaurant,37.374381,-5.9823951,Otaola,NO STREET 9999,Sevilla
restaurant,37.3926194,-5.9896522,Taberna de el Espigón,NO STREET 9999,Sevilla
restaurant,37.4014577,-5.9939803,Sidonia,NO STREET 9999,Sevilla
restaurant,37.3876238,-5.9918566,Sagardi,NO STREET 9999,Sevilla
restaurant,37.386978,-5.9986838,Jamón Real,NO STREET 9999,Sevilla
restaurant,37.3868123,-5.9984927,Tendido 1,NO STREET 9999,Sevilla
restaurant,37.4013884,-5.9945058,Alameda Rock,Calle Crédito 20,Sevilla
restaurant,37.3983659,-5.991666,El Enano Verde,Calle Feria 61,Sevilla
restaurant,37.3692536,-6.0403568,La Despensa del Irlandés,NO STREET 9999,Sevilla
restaurant,37.369183,-6.0401184,Kaede,NO STREET 9999,Sevilla
restaurant,37.3806691,-5.9657442,Bar Casa Pulido,Avenida de la Ciudad Jardin 9999,Sevilla
restaurant,37.3998582,-5.9970861,Casa Manolo León,Calle Guadalete 8,Sevilla
restaurant,37.4030262,-5.9225616,Cervecería Las Tres Jotas,NO STREET 9999,Sevilla
restaurant,37.379812,-6.0719823,Pomodoro,NO STREET 9999,Sevilla
restaurant,37.4002392,-5.9918609,La Calle Burger,NO STREET 9999,Sevilla
restaurant,37.3999728,-5.9930042,Amanecer,NO STREET 9999,Sevilla
restaurant,37.3973472,-5.9841363,El Pelicano,NO STREET 9999,Sevilla
restaurant,37.3963984,-5.9939738,Wasabi,NO STREET 9999,Sevilla
restaurant,37.3968228,-5.9964653,Az-Zait,Plaza de San Lorenzo 1,Sevilla
restaurant,37.3994151,-5.9893016,La Madriguera De Mai,NO STREET 9999,Sevilla
restaurant,37.3959785,-5.9912657,La Hermandad De Sushi,NO STREET 9999,Sevilla
restaurant,37.398534,-5.9932532,Al Aljibe,NO STREET 9999,Sevilla
restaurant,37.3970417,-5.9937618,Carniborea,NO STREET 9999,Sevilla
restaurant,37.3867273,-5.9935315,Manolete,NO STREET 9999,Sevilla
restaurant,37.3953202,-5.9986945,Nazca,Calle Baños 32,Sevilla
restaurant,37.356285,-6.0590865,Mesón Casa Pablo III,NO STREET 9999,Sevilla
restaurant,37.3543242,-6.0613109,Bar Las Palmeras,Calle Fomento 13,Sevilla
restaurant,37.3704158,-6.0741543,Comidas Kilómetro 1,Calle Ramón y Cajal 53,Sevilla
restaurant,37.3918074,-5.9935779,NO NAME,NO STREET 9999,Sevilla
restaurant,37.3709476,-6.0730441,Ensupunto,Calle Ramón y Cajal 14,Sevilla
restaurant,37.3874699,-5.9925762,NO NAME,NO STREET 9999,Sevilla
restaurant,37.3748517,-6.0406929,Cervecería Santa Eufemía,NO STREET 9999,Sevilla
restaurant,37.373978,-5.9744981,Freiduría El Arecife,Avenida José Saramago 7A,Sevilla
restaurant,37.3873438,-5.9742542,El Burro Canaglia Bar & Resto,Calle Luis Montoto 112,Sevilla
restaurant,37.3888944,-6.0009441,La Piemontesa,NO STREET 9999,Sevilla
restaurant,37.34383,-5.9763226,La Bodeguita,NO STREET 9999,Sevilla
restaurant,37.3436058,-5.9777516,La Gitana Loca,Avenida de Finlandia 5,Sevilla
restaurant,37.3435851,-5.9778894,La Escapada,Avenida de Finlandia 5,Sevilla
restaurant,37.374752,-6.052535,Aljamar Tapas,NO STREET 9999,Sevilla
restaurant,37.3747167,-6.0524336,El Rincón de Tomares,NO STREET 9999,Sevilla
restaurant,37.3747114,-6.0523719,Taberna El Salmorejo,NO STREET 9999,Sevilla
restaurant,37.3439439,-5.9781099,Würst & Burger,NO STREET 9999,Sevilla
restaurant,37.3439791,-5.9778766,Taberna Bocanegra,NO STREET 9999,Sevilla
restaurant,37.3440217,-5.9775933,Sushi Fusion,NO STREET 9999,Sevilla
restaurant,37.3459621,-5.9768423,Hong Kong,Avenida de Alemania 9999,Sevilla
restaurant,37.3459256,-5.9770883,Sanbers,NO STREET 9999,Sevilla
restaurant,37.3459941,-5.9766271,Alacena La Jabuteca,NO STREET 9999,Sevilla
restaurant,37.345838,-5.9776714,Pepa Pilares,NO STREET 9999,Sevilla
restaurant,37.3457574,-5.9782468,Cervecería Huracán,Avenida de Alemania 9999,Sevilla
restaurant,37.3856846,-5.9864797,La Taraceina,Calle Puerta la Carne 6,Sevilla
restaurant,37.4029755,-6.0071726,Acua,NO STREET 9999,Sevilla
restaurant,37.4182402,-6.0369234,Restaurante Venta Curro,NO STREET 9999,Sevilla
restaurant,37.3861558,-5.9914755,Cerveceria Giralda,Calle Mateos Gago 1,Sevilla
restaurant,37.3939098,-5.9948317,casaplata,NO STREET 9999,Sevilla
restaurant,37.3943012,-5.9915264,Lasanta,Calle Regina 9999,Sevilla
restaurant,37.3889761,-5.9969444,Matapedena,NO STREET 9999,Sevilla
restaurant,37.4285353,-5.9681636,Mesón Las Torres,NO STREET 9999,Sevilla
restaurant,37.3867957,-5.9987869,Pepe Hillo,NO STREET 9999,Sevilla
restaurant,37.387123,-5.9992895,Porta Rossa,NO STREET 9999,Sevilla
restaurant,37.3873085,-5.9990793,Bartolomea,NO STREET 9999,Sevilla
restaurant,37.3820517,-5.9912457,Cristina and Co,Calle San Fernando 19,Sevilla
restaurant,37.3801077,-6.0060937,Asador Los Tejares,Calle Evangelista 59,Sevilla
restaurant,37.3794993,-6.0008138,Mesón Casa Luciano,NO STREET 9999,Sevilla
restaurant,37.3793906,-6.0009439,Mesón Restaurante El Candil,NO STREET 9999,Sevilla
restaurant,37.3795926,-6.0007126,Restaurante Los Cuevas,NO STREET 9999,Sevilla
restaurant,37.3792819,-6.0010539,La Casa del Cordero,NO STREET 9999,Sevilla
restaurant,37.4015544,-5.9918609,retro. vermut,NO STREET 9999,Sevilla
restaurant,37.3719777,-5.9840798,Taberna L. Authentica,NO STREET 9999,Sevilla
restaurant,37.3900183,-6.0542173,Casa Pernía,NO STREET 9999,Sevilla
restaurant,37.379583,-6.0003389,Restaurante Chino Zhen Bao,NO STREET 9999,Sevilla
restaurant,37.3794112,-6.000475,Restaurante Samurai,Calle Salado 9999,Sevilla
restaurant,37.3793463,-6.0005626,Shoarma Bar Jerusalén,NO STREET 9999,Sevilla
restaurant,37.3393231,-6.053672,Venta El Capricho,NO STREET 9999,Sevilla
restaurant,37.386198,-5.9971158,Bajo Guía,NO STREET 9999,Sevilla
restaurant,37.3976696,-5.9951168,Palacio Oriental,NO STREET 9999,Sevilla
restaurant,37.3966401,-5.9945812,Al Sultan,NO STREET 9999,Sevilla
restaurant,37.3995833,-5.991326,Atticus Finch,Calle Calderón de la Barca 9999,Sevilla
restaurant,37.3861635,-5.9910013,NO NAME,NO STREET 9999,Sevilla
restaurant,37.3898514,-6.0005192,Tata pila,NO STREET 9999,Sevilla
restaurant,37.3887146,-6.0019466,La Chunga,NO STREET 9999,Sevilla
restaurant,37.3860326,-5.9915346,Gago seis,NO STREET 9999,Sevilla
restaurant,37.3881577,-5.9929494,El pinton,NO STREET 9999,Sevilla
restaurant,37.3830235,-5.999569,Restaurante Cuervo Triana,NO STREET 9999,Sevilla
restaurant,37.3836625,-6.000231,Don Cammillo e Peppone,NO STREET 9999,Sevilla
restaurant,37.3817881,-5.999006,El Mesón de Emilio,Calle Pureza 118,Sevilla
restaurant,37.3714241,-6.0815251,La Nueva Bodeguita,NO STREET 9999,Sevilla
restaurant,37.3711194,-6.0826391,Freidura (pròxima apertura),NO STREET 9999,Sevilla
restaurant,37.3705971,-6.0863367,NO NAME,NO STREET 9999,Sevilla
restaurant,37.3705882,-6.0863853,NO NAME,NO STREET 9999,Sevilla
restaurant,37.3891638,-6.0101052,Sol y Sombra,Calle Castilla 151,Sevilla
restaurant,37.3892303,-5.9848741,La Urbana,Puerta de Carmona 4,Sevilla
restaurant,37.3866264,-5.9882916,El Pasaje,NO STREET 9999,Sevilla
restaurant,37.3799565,-6.0049542,La Vieja Pizzería,Calle Esperanza de Triana 22,Sevilla
restaurant,37.391316,-5.9960057,Organic's - Restaurante,Calle José de Velilla 3,Sevilla
restaurant,37.3902412,-6.0016792,Centro Gaia,NO STREET 9999,Sevilla
restaurant,37.3860273,-5.9916941,Mateos,NO STREET 9999,Sevilla
restaurant,37.3853223,-6.0026492,El Mero,Plaza del Altozano 1,Sevilla
restaurant,37.3870231,-5.9931082,Restaurante Antigua Taberna de Las Escobas,Calle Álvarez Quintero 62,Sevilla
restaurant,37.3723167,-6.0355361,Ginos,NO STREET 9999,Sevilla
restaurant,37.3916173,-5.9801421,Lar Gallego de Sevilla,NO STREET 9999,Sevilla
restaurant,37.3915045,-5.9788154,Kiyo,NO STREET 9999,Sevilla
restaurant,37.3739515,-6.0801511,Restaurante Bocana,NO STREET 9999,Sevilla
restaurant,37.3947102,-6.0631074,El Rancho de Bartolo,NO STREET 9999,Sevilla
restaurant,37.3857464,-6.0042398,Bicho Malo,Calle Callao 5,Sevilla
restaurant,37.428089,-5.9763687,Bodegón La Posada,Calle Arqueología 19,Sevilla
restaurant,37.4249505,-5.957913,Venta Avelino,NO STREET 9999,Sevilla
restaurant,37.3861488,-5.9913134,Cerveceria catedral,NO STREET 9999,Sevilla
restaurant,37.3987443,-5.9942444,Blossom,NO STREET 9999,Sevilla
restaurant,37.3788762,-5.9789044,Pizza Hut,NO STREET 9999,Sevilla
restaurant,37.3787845,-5.9786131,Vips,NO STREET 9999,Sevilla
restaurant,37.3899936,-5.9914951,Tradevo,plaza de la pescaderia 9999,Sevilla
restaurant,37.3855852,-6.00326,La casa fundida,NO STREET 9999,Sevilla
restaurant,37.3931288,-5.9889442,Tradicion Meraki Vanguardia,Calle San Felipe 11 11,Sevilla
restaurant,37.3903364,-5.9910578,La Escalona,NO STREET 9999,Sevilla
restaurant,37.3808812,-6.0832258,Tuk Tuk,NO STREET 9999,Sevilla
restaurant,37.3876611,-5.9921839,Cuesta del Bacalao,NO STREET 9999,Sevilla
restaurant,37.4117532,-5.9766972,Cervecería Cafetería Al Alba,NO STREET 9999,Sevilla
restaurant,37.4106939,-5.9770523,Esquinita de Pedro,NO STREET 9999,Sevilla
restaurant,37.4112271,-5.976371,Bar Doble R,NO STREET 9999,Sevilla
restaurant,37.3913041,-5.9898784,Restaurante Bache San Pedro,Plaza del Cristo de Burgos 23,Sevilla
restaurant,37.3802028,-5.9773122,Sloppy Joes,NO STREET 9999,Sevilla
restaurant,37.3847919,-6.001759,La Caseta de Noniná,Calle Betis 9999,Sevilla
restaurant,37.3895531,-5.9852314,Fez,NO STREET 9999,Sevilla
restaurant,37.3397369,-6.0619637,Cerveceria La Calita,Avenida de las Civilizaciones 15,Sevilla
restaurant,37.3407978,-6.0590237,Taberna Alambique,Avenida del Jardinillo Bloque 29 Local 4,Sevilla
restaurant,37.373605,-5.9954064,Hermanos Sánchez,NO STREET 9999,Sevilla
restaurant,37.3981845,-5.9799264,Verdetariano,Calle Carretera de Carmona 10 Local 3,Sevilla
restaurant,37.3985993,-6.0302819,Express Vip Pizzas Camas,NO STREET 9999,Sevilla
restaurant,37.3982303,-5.9877997,Kok Tu Cocina,Calle San Luis 46,Sevilla
restaurant,37.3970451,-5.9976175,Bodega San Lorenzo,NO STREET 9999,Sevilla
restaurant,37.3973605,-5.9975381,LaLola,NO STREET 9999,Sevilla
restaurant,37.389233,-6.0006725,Zoko,NO STREET 9999,Sevilla
restaurant,37.3837815,-6.0108149,Restaurante La Barca,NO STREET 9999,Sevilla
restaurant,37.3891343,-6.0100253,Sol y Sombra 2,Calle Castilla 151,Sevilla
restaurant,37.3891171,-6.0099355,Salón Sol y Sombra,Calle Castilla 151,Sevilla
restaurant,37.3793063,-6.003442,Tracatapas,Calle Esperanza de Triana 45,Sevilla
restaurant,37.3736309,-6.0392243,NO NAME,NO STREET 9999,Sevilla
restaurant,37.3733868,-6.039176,NO NAME,NO STREET 9999,Sevilla
restaurant,37.3726267,-6.0357642,Thai House,NO STREET 9999,Sevilla
restaurant,37.3857295,-6.0038054,Bodega La Doma,NO STREET 9999,Sevilla
restaurant,37.385852,-6.003722,Ostrería del Mercado,NO STREET 9999,Sevilla
restaurant,37.3855302,-6.0033555,Arrocería Criaito,NO STREET 9999,Sevilla
restaurant,37.3856222,-6.0032297,"Tapincho, vinos y tapas",NO STREET 9999,Sevilla
restaurant,37.3990574,-5.9756442,La Rosaleda,NO STREET 9999,Sevilla
restaurant,37.3561842,-5.9791733,Al Gusto,NO STREET 9999,Sevilla
restaurant,37.3745501,-5.9978234,Domino's Pizza,NO STREET 9999,Sevilla
restaurant,37.3744794,-6.0004852,Teresa,NO STREET 9999,Sevilla
restaurant,37.3743895,-6.0026565,Bodegón,NO STREET 9999,Sevilla
restaurant,37.377979,-6.0012837,Foster's Hollywood,NO STREET 9999,Sevilla
restaurant,37.3779078,-6.0014289,Ginos,NO STREET 9999,Sevilla
restaurant,37.377765,-6.0017206,La Tagliatella,NO STREET 9999,Sevilla
restaurant,37.3778364,-6.0015748,VIPS,NO STREET 9999,Sevilla
restaurant,37.3781022,-6.0019471,Goiko Grill,NO STREET 9999,Sevilla
restaurant,37.3792981,-5.9995954,Mr. Pizza,NO STREET 9999,Sevilla
restaurant,37.3773452,-5.9984398,Casa Rafel,NO STREET 9999,Sevilla
restaurant,37.3783774,-5.998521,Botavino Restaurante,NO STREET 9999,Sevilla
restaurant,37.3792524,-6.0003337,Al Compas de Triana,Calle Salado 11-Local 1-2-3,Sevilla
restaurant,37.3756046,-5.9981121,La Maceta,NO STREET 9999,Sevilla
restaurant,37.382018,-5.9910428,El Rincón de Beirut,NO STREET 9999,Sevilla
restaurant,37.3767061,-5.9966615,Ivantxu Espacio Bistronómico,NO STREET 9999,Sevilla
restaurant,37.3767059,-5.996178,Restaurante Viejo Tito,NO STREET 9999,Sevilla
restaurant,37.385084,-6.0022318,Bodega La Albariza,NO STREET 9999,Sevilla
restaurant,37.3765261,-5.9960754,Mesón La Montanera,NO STREET 9999,Sevilla
restaurant,37.3812639,-6.0056342,Pizzería al Natural,NO STREET 6,Sevilla
restaurant,37.3852968,-5.9897933,El Rey Moro,NO STREET 9999,Sevilla
restaurant,37.3847823,-6.0027284,Restaurante y Tapas El Sella,NO STREET 9999,Sevilla
restaurant,37.3817474,-5.9987759,Casa del Dolma,Calle Troya 4,Sevilla
restaurant,37.3830711,-6.0025467,Restaurante Victoria 8,Calle Victoria 8,Sevilla
restaurant,37.3743831,-6.0405548,maki sushi,NO STREET 9999,Sevilla
restaurant,37.3869463,-6.0771681,La antigua tasca,Calle Real 12,Sevilla
restaurant,37.3890218,-5.9990362,castizo,NO STREET 9999,Sevilla
restaurant,37.3853782,-6.0125487,Pizzería Pizzicato,Calle Juan de Pineda 1,Sevilla
restaurant,37.3799863,-5.9787153,Cerveceriá Mr Beer,NO STREET 9999,Sevilla
restaurant,37.3881974,-5.997226,NO NAME,NO STREET 9999,Sevilla
restaurant,37.3897915,-6.0002952,NO NAME,NO STREET 9999,Sevilla
restaurant,37.3775557,-5.9962407,Pizzeria La Bambina,Calle Virgen de Regla 1,Sevilla
restaurant,37.3819518,-5.966426,Taberna El Papelón,NO STREET 9999,Sevilla
restaurant,37.3876898,-5.9926321,placentines Vinos y Tapas,NO STREET 9999,Sevilla
restaurant,37.3934331,-5.993629,La Barra de Cañabota,NO STREET 9999,Sevilla
restaurant,37.3898697,-5.9893391,NO NAME,NO STREET 9999,Sevilla
restaurant,37.3922149,-5.9921768,La Malvaloca,NO STREET 9999,Sevilla
restaurant,37.3900885,-5.9919216,Casa Toni,NO STREET 9999,Sevilla
restaurant,37.39013,-5.9906783,Maccheroni,NO STREET 9999,Sevilla
restaurant,37.3894029,-5.9954699,La Piazza,NO STREET 9999,Sevilla
restaurant,37.4032503,-5.9938472,El Rincón de Rosita,NO STREET 9999,Sevilla
restaurant,37.377963,-6.0045698,Kentia,NO STREET 9999,Sevilla
restaurant,37.368183,-5.9532466,Mundo,NO STREET 9999,Sevilla
restaurant,37.382149,-5.9952386,Taberna de Arenal,NO STREET 9999,Sevilla
restaurant,37.3851083,-5.995648,Arco,NO STREET 8,Sevilla
restaurant,37.3852071,-5.9954465,Postiguillo,NO STREET 9999,Sevilla
restaurant,37.3935727,-5.9925985,Burro,Calle José Gestoso 3,Sevilla
restaurant,37.383703,-6.0112076,La Esquinita de Agu,Ronda de Triana 52,Sevilla
restaurant,37.3858712,-6.0114136,Mr. Pizza,NO STREET 9999,Sevilla
restaurant,37.4073701,-6.004696,Cafetería pabellón de Italia,Calle Isaac Newton 1,Sevilla
restaurant,37.4004344,-5.9898182,La vida loca,Calle Relator 9999,Sevilla
restaurant,37.4019957,-6.0051663,Klasico,NO STREET 9999,Sevilla
restaurant,37.4019663,-6.0048898,Sabino,NO STREET 9999,Sevilla
restaurant,37.4109711,-6.000689,Cafetería ETSI,NO STREET 9999,Sevilla
restaurant,37.4116848,-6.0004717,Cafetería ETSI,NO STREET 9999,Sevilla
restaurant,37.3514544,-6.0470442,Ginos,NO STREET 9999,Sevilla
restaurant,37.3870523,-5.9923177,Pelayo Bar de Tapas,NO STREET 9999,Sevilla
restaurant,37.3533468,-6.0472887,Bar Metro,NO STREET 9999,Sevilla
restaurant,37.3528455,-6.0471752,Gran mundo,NO STREET 9999,Sevilla
restaurant,37.3445651,-6.0458832,La pinzelá,NO STREET 9999,Sevilla
restaurant,37.3715977,-5.9912683,Iguana,NO STREET 9999,Sevilla
restaurant,37.3890343,-5.9993416,el uno,NO STREET 9999,Sevilla
restaurant,37.3436502,-5.9879596,Brasa y Leña,Avenida de Palmas Altas 1,Sevilla
restaurant,37.3832267,-5.9955515,Casa Carmen,NO STREET 9999,Sevilla
restaurant,37.3894993,-5.9929308,Universal People Bar,NO STREET 9999,Sevilla
restaurant,37.3422115,-6.0599983,La Capocha,Calle Aristóteles 2 Local 15,Sevilla
restaurant,37.3473693,-6.03957,Los Pilarillos,"Avenida San Juan - Palomares, 5",Sevilla
restaurant,37.3499058,-6.0492576,La taberna,NO STREET 9999,Sevilla
restaurant,37.3530231,-6.0472593,Pizzería Gayra,NO STREET 9999,Sevilla
restaurant,37.3528758,-6.0472028,Japo Miyagi,NO STREET 9999,Sevilla
restaurant,37.3679488,-6.0805678,Cocomá Slow Food,NO STREET 9999,Sevilla
restaurant,37.3851831,-6.0038883,Restaurante Chino Asia,Calle San Jorge 7,Sevilla
restaurant,37.3852336,-6.0039541,La Vega de Triana,Calle San Jorge 9,Sevilla
restaurant,37.3924708,-6.0638917,El Niño de la Rubita,NO STREET 9999,Sevilla
restaurant,37.3759823,-5.9704083,Nigishi Sushi,Avenida Ramón y Cajal 23,Sevilla
restaurant,37.3776072,-5.977016,Ricos Tacos Cantina,Avenida de Ramón y Cajal 2,Sevilla
restaurant,37.4031694,-5.9274024,Amanecer,NO STREET 9999,Sevilla
restaurant,37.3781544,-5.974482,Sakura,Avenida San Francisco Javier 19,Sevilla
restaurant,37.3692606,-6.0775998,La Esquinita de Agu II,Avenida Pablo Coso Calero 95,Sevilla
restaurant,37.4084981,-5.9787214,El Soberao,NO STREET 9999,Sevilla
restaurant,37.3935012,-5.9946032,La Cayetana,NO STREET 9999,Sevilla
restaurant,37.4118331,-5.9764268,Bar Amaro II,NO STREET 9999,Sevilla
restaurant,37.3430317,-6.0548967,El mercado de Enma,NO STREET 9999,Sevilla
restaurant,37.3529577,-6.0460774,Parrilla Argentina Nuevos Aires,NO STREET 9999,Sevilla
restaurant,37.3729417,-5.9773068,Aderezo Tapas,NO STREET 9999,Sevilla
restaurant,37.3890278,-5.9904539,En La Espero Te Esquina,NO STREET 9999,Sevilla
restaurant,37.3868122,-5.9934132,Bar Gonzalo,NO STREET 9999,Sevilla
restaurant,37.3685759,-5.9816581,El Cenachero,Cardenal Bueno Monreal 33,Sevilla
restaurant,37.4077416,-5.9330634,Seoul,Avenida de la Innovación 9999,Sevilla
restaurant,37.4051832,-5.9359046,Cervecería Gambrinus,NO STREET 9999,Sevilla
restaurant,37.4049586,-5.9359503,Ozturk Kebab Fast Food,NO STREET 9999,Sevilla
restaurant,37.4002518,-5.9916715,Botegga Italia,Calle Feria 118,Sevilla
restaurant,37.3903346,-5.9494978,Chino Sichuan,NO STREET 9999,Sevilla
restaurant,37.3404644,-6.0594923,El Antojo,NO STREET 9999,Sevilla
restaurant,37.3390246,-5.9270838,Antonio Naranjo,NO STREET 9999,Sevilla
restaurant,37.3400712,-6.060436,Dragón de Oro,Avenida de las Civilizaciones 21,Sevilla
restaurant,37.3400921,-6.0603689,Kaiseki,Avenida de las Civilizaciones 23,Sevilla
restaurant,37.3886731,-5.9981602,La Cata Ciega,NO STREET 9999,Sevilla
restaurant,37.3883192,-5.9993984,La Brunilda,NO STREET 9999,Sevilla
restaurant,37.3416416,-6.0593281,La tasca de Andrés,NO STREET 9999,Sevilla
restaurant,37.3644367,-5.9824025,La Espumosa,Cardenal Ilundain 3,Sevilla
restaurant,37.3655765,-5.9828939,Restaurante Mara,Calle Gustavo Gallardo 8,Sevilla
restaurant,37.3503804,-5.9779809,L'Albufera,NO STREET 9999,Sevilla
restaurant,37.3501223,-6.0513511,Foste's Hollywood Metromar,NO STREET 9999,Sevilla
restaurant,37.3783142,-5.9420628,Cerveceria Aki Te Espero,Calle Cartaya 4,Sevilla
restaurant,37.3757444,-5.9415813,Cerveceria La Esquinita,Calle La Puebla del Rio 7,Sevilla
restaurant,37.3792167,-5.9412012,Cervecería El Abuelo,Calle Chucena 36,Sevilla
restaurant,37.3795366,-5.9408931,Aki Te Espero,Calle Chucena 32,Sevilla
restaurant,37.3814196,-5.9392999,Bar Casa Manolo,Calle Chucena 4,Sevilla
restaurant,37.3814974,-5.9392574,Las Marismas,Calle Chucena 0,Sevilla
restaurant,37.3861753,-5.9917426,Restaurante El Giraldillo Sevilla,NO STREET 9999,Sevilla
restaurant,37.3887555,-5.9935409,Chicarreros,NO STREET 9999,Sevilla
restaurant,37.3937859,-6.0079179,Escuela de hostelería,Camino de los Descubrimientos 2,Sevilla
restaurant,37.3855834,-5.9784213,Lateral Buhaira,Avenida de la Buhaira 17,Sevilla
restaurant,37.3858026,-5.9871059,CALENTERIA desde 1860,NO STREET 9999,Sevilla
restaurant,37.4051487,-5.9754196,Kingdo Lite,NO STREET 9999,Sevilla
restaurant,37.399468,-5.991109,Condendê,Plaza Calderón de la Barca 9999,Sevilla
restaurant,37.3485122,-6.0433592,Mudaki,NO STREET 9999,Sevilla
restaurant,37.4006429,-5.9756901,La gran Muralla,Calle Carretera de Carmona 32,Sevilla
bar,37.3975489,-5.9969243,Eslava,Calle Eslava 3,Sevilla
bar,37.3859859,-5.9860999,Taberna El papelón,NO STREET 9999,Sevilla
bar,37.390422,-5.9920791,Europa,NO STREET 9999,Sevilla
bar,37.3952626,-5.9913525,Bar San Juan de la Palma,NO STREET 9999,Sevilla
bar,37.3965326,-5.9938871,La Bohemia,NO STREET 9999,Sevilla
bar,37.3877927,-5.9872658,La Carbonería,Calle Levíes 18,Sevilla
bar,37.3883027,-6.0074539,las Angarillas,NO STREET 9999,Sevilla
bar,37.4074871,-5.9321948,La Flor del Este,NO STREET 9999,Sevilla
bar,37.3904153,-5.9912639,Al Cartuchito,NO STREET 9999,Sevilla
bar,37.3906251,-5.9912105,NO NAME,NO STREET 9999,Sevilla
bar,37.3905484,-5.9910978,NO NAME,NO STREET 9999,Sevilla
bar,37.3912985,-5.99113,La Barbería,NO STREET 9999,Sevilla
bar,37.3909989,-5.9909254,Cabo Loco,NO STREET 9999,Sevilla
bar,37.390868,-5.9908457,Berlín,NO STREET 9999,Sevilla
bar,37.39042,-5.9904792,Casa Diego,NO STREET 9999,Sevilla
bar,37.390481,-5.9910545,Bar Manolo,NO STREET 9999,Sevilla
bar,37.3899134,-5.9932672,Los Soportales,NO STREET 9999,Sevilla
bar,37.3933426,-5.9881594,Los claveles,NO STREET 9999,Sevilla
bar,37.393821,-5.9881781,"La Huerta, 9",NO STREET 9999,Sevilla
bar,37.3935632,-5.9882506,NO NAME,NO STREET 9999,Sevilla
bar,37.3934519,-5.9878659,El Colmado,NO STREET 9999,Sevilla
bar,37.3930367,-5.9887907,La Cabaña,NO STREET 9999,Sevilla
bar,37.392943,-5.9888255,El cangrejo,NO STREET 9999,Sevilla
bar,37.3929835,-5.9887183,El Tremendo,NO STREET 9999,Sevilla
bar,37.3943515,-5.9891591,Zalata,NO STREET 9999,Sevilla
bar,37.3925023,-5.979434,Kiki,NO STREET 9999,Sevilla
bar,37.3917933,-5.9787159,NO NAME,NO STREET 9999,Sevilla
bar,37.3988414,-5.9944851,El Barón Rampante,NO STREET 9999,Sevilla
bar,37.3988466,-5.9945706,El Bosque animado,NO STREET 9999,Sevilla
bar,37.3972559,-5.9937286,Cardamomo‘s Club,NO STREET 9999,Sevilla
bar,37.3931175,-5.9808359,Bar las niñas,NO STREET 9999,Sevilla
bar,37.392785,-5.9832284,Vitrubio,NO STREET 9999,Sevilla
bar,37.3928191,-5.9834001,darthe,NO STREET 9999,Sevilla
bar,37.3872019,-6.0020058,Terraza Bar Capote,NO STREET 9999,Sevilla
bar,37.3820443,-5.9954505,NO NAME,NO STREET 9999,Sevilla
bar,37.3830302,-5.9801353,NO NAME,NO STREET 9999,Sevilla
bar,37.3774701,-5.9690423,Bar Guillermo,NO STREET 9999,Sevilla
bar,37.3747734,-6.0525882,Cervecería La de Arriba,NO STREET 9999,Sevilla
bar,37.3646227,-5.9689091,NO NAME,NO STREET 9999,Sevilla
bar,37.364113,-5.9687441,Bar Melina,NO STREET 9999,Sevilla
bar,37.3651263,-5.9679288,Bar Rodríguez,NO STREET 9999,Sevilla
bar,37.3715461,-5.9568341,NO NAME,NO STREET 9999,Sevilla
bar,37.3840304,-5.9778177,Bar Cafetería Oscar Lan,Avenida de Eduardo Dato 39,Sevilla
bar,37.3935958,-5.9924884,Bar Mercado Provenzal,NO STREET 9999,Sevilla
bar,37.399927,-5.9929566,Habanilla,NO STREET 9999,Sevilla
bar,37.399754,-5.9931325,Central,NO STREET 9999,Sevilla
bar,37.372744,-6.0471911,Cervecería Ponme Otra,NO STREET 9999,Sevilla
bar,37.3734928,-6.0470003,Cafe Soleá,NO STREET 9999,Sevilla
bar,37.3647075,-6.0321551,NO NAME,NO STREET 9999,Sevilla
bar,37.3834657,-6.0103252,Bar Casa Diego,Avenida Santa Cecilia 29,Sevilla
bar,37.383355,-5.974536,Mr. Triton Cerveceria,NO STREET 9999,Sevilla
bar,37.3851256,-5.9739762,La Esperanza,NO STREET 9999,Sevilla
bar,37.3880885,-5.9607536,NO NAME,NO STREET 9999,Sevilla
bar,37.3802288,-5.9737028,NO NAME,NO STREET 9999,Sevilla
bar,37.3938364,-5.9833983,NO NAME,NO STREET 9999,Sevilla
bar,37.3937874,-5.9830657,NO NAME,NO STREET 9999,Sevilla
bar,37.396716,-5.9912187,Casa Vizcaino,Calle Feria 27,Sevilla
bar,37.378928,-5.98883,Bar Citroen,NO STREET 9999,Sevilla
bar,37.3856098,-5.9863251,La Auténtica,Avda. Menéndez y Pelayo 9999,Sevilla
bar,37.4036379,-5.9927732,Bar Kiosko Torre de los perdigones,NO STREET 9999,Sevilla
bar,37.4073059,-5.9287204,La Taperia del Nene,NO STREET 9999,Sevilla
bar,37.4062492,-5.9282322,Bar Almendralejo,NO STREET 9999,Sevilla
bar,37.4041522,-5.9947453,Macarena,NO STREET 9999,Sevilla
bar,37.339645,-6.0694273,NO NAME,NO STREET 9999,Sevilla
bar,37.3849025,-5.9504828,NO NAME,NO STREET 9999,Sevilla
bar,37.3857252,-5.9501127,Julian,NO STREET 9999,Sevilla
bar,37.3859797,-5.9535896,NO NAME,NO STREET 9999,Sevilla
bar,37.3830569,-5.9507135,NO NAME,NO STREET 9999,Sevilla
bar,37.3862452,-5.9498981,Mi Tierra,NO STREET 9999,Sevilla
bar,37.3831976,-5.95,M'alegro en verte,NO STREET 9999,Sevilla
bar,37.3766202,-5.947586,Cofrade,NO STREET 9999,Sevilla
bar,37.3773363,-5.9474573,NO NAME,NO STREET 9999,Sevilla
bar,37.3822427,-5.9511373,NO NAME,NO STREET 9999,Sevilla
bar,37.3826915,-5.9517297,NO NAME,NO STREET 9999,Sevilla
bar,37.3810322,-5.9538517,NO NAME,NO STREET 9999,Sevilla
bar,37.3816161,-5.9499464,Parque Amate,NO STREET 9999,Sevilla
bar,37.3833041,-5.9498444,En'ca Omaita,NO STREET 9999,Sevilla
bar,37.3825241,-5.949544,NO NAME,NO STREET 9999,Sevilla
bar,37.382669,-5.9492704,Cervecería Atlántico,NO STREET 9999,Sevilla
bar,37.3772511,-5.9474573,Trebol,NO STREET 9999,Sevilla
bar,37.3767907,-5.9476665,NO NAME,NO STREET 9999,Sevilla
bar,37.362561,-5.9613747,NO NAME,NO STREET 9999,Sevilla
bar,37.3624182,-5.9622572,NO NAME,NO STREET 9999,Sevilla
bar,37.3622199,-5.9610314,NO NAME,NO STREET 9999,Sevilla
bar,37.3616976,-5.961431,NO NAME,NO STREET 9999,Sevilla
bar,37.3619577,-5.9617127,NO NAME,NO STREET 9999,Sevilla
bar,37.3629639,-5.9619433,NO NAME,NO STREET 9999,Sevilla
bar,37.4019115,-5.9904483,Allegro ma non tropo,NO STREET 9999,Sevilla
bar,37.4032092,-5.9893869,NO NAME,NO STREET 9999,Sevilla
bar,37.3945419,-5.9916005,Bar Regina,NO STREET 9999,Sevilla
bar,37.3939691,-5.991381,Café Bar la Centuria,NO STREET 9999,Sevilla
bar,37.3874107,-5.9926424,Bar Subata,NO STREET 9999,Sevilla
bar,37.3873127,-5.9927685,Bar Antiguedades,NO STREET 9999,Sevilla
bar,37.3869054,-5.9924883,Milagritos,NO STREET 9999,Sevilla
bar,37.3897218,-6.0002349,Noveccento,NO STREET 9999,Sevilla
bar,37.3895172,-6.0003932,Vintage,NO STREET 9999,Sevilla
bar,37.3860237,-5.9096368,Boulevar,NO STREET 9999,Sevilla
bar,37.3776971,-5.9752495,Caramelo,NO STREET 9999,Sevilla
bar,37.3461629,-5.9782292,La Tiza,Avda. deAlemania 9999,Sevilla
bar,37.3464299,-5.9791204,NO NAME,Paseo de Europa 9999,Sevilla
bar,37.3463358,-5.9795065,Zahora,Parque del Paseo de Europa 9999,Sevilla
bar,37.3841105,-5.986648,Bar Galán,Avda. Menéndez y Pelayo 9999,Sevilla
bar,37.3838995,-5.9867687,La Galantina,Avda. Menéndez y Pelayo 9999,Sevilla
bar,37.3840987,-5.9846149,Pizzeria Alimentari,Calle Bartolomé de Medina 21,Sevilla
bar,37.3839194,-5.9842866,NO NAME,"Avda, Juan de Mata Carriazo 9999",Sevilla
bar,37.3829766,-5.9853364,Sevilla-Cádiz,Avda. de Cádiz 9999,Sevilla
bar,37.387914,-5.9811923,La Chicotá,Avda. Luis Montoto 9999,Sevilla
bar,37.3748417,-6.0403449,El simio,NO STREET 9999,Sevilla
bar,37.3745827,-6.0404788,Puerto Tomares,NO STREET 9999,Sevilla
bar,37.3748617,-6.0404351,Zetineb,NO STREET 9999,Sevilla
bar,37.4058716,-5.9803596,Bar Fernando,NO STREET 9999,Sevilla
bar,37.4039965,-5.980645,Blanco Cerrillo,C/ Doctor Jiménez Díaz 16,Sevilla
bar,37.4069634,-5.9738771,Bar Pino,NO STREET 9999,Sevilla
bar,37.3874655,-5.9802423,Las Cabrillas,NO STREET 9999,Sevilla
bar,37.3890115,-5.9793196,Raimundo,NO STREET 9999,Sevilla
bar,37.3495793,-6.0619497,El Badulaque,NO STREET 9999,Sevilla
bar,37.3873378,-5.9926845,Robles Tapas,NO STREET 9999,Sevilla
bar,37.3900833,-5.9981275,Los 100 montaditos,NO STREET 9999,Sevilla
bar,37.3896058,-6.0008231,Pup Noha,Calle Marqués de Paradas 9999,Sevilla
bar,37.3859769,-6.0001284,Kiosko Havana Club,NO STREET 9999,Sevilla
bar,37.3542651,-5.9856322,Avelino,NO STREET 9999,Sevilla
bar,37.3911285,-6.0024651,Kudetá,NO STREET 9999,Sevilla
bar,37.3921293,-5.9994027,Iscariote,NO STREET 9999,Sevilla
bar,37.3736188,-6.0465046,Peña Flamenca de Tomares,NO STREET 9999,Sevilla
bar,37.3791146,-6.0458725,NO NAME,NO STREET 9999,Sevilla
bar,37.3734074,-6.0468554,NO NAME,NO STREET 9999,Sevilla
bar,37.3900141,-6.0529635,NO NAME,NO STREET 9999,Sevilla
bar,37.4018002,-5.9264597,Bar La Mina,Avenida de las Ciencias 9999,Sevilla
bar,37.4018459,-5.9271953,Bar Camargo,Avenida de las Ciencias 9999,Sevilla
bar,37.3994352,-5.9941114,La Sureña,NO STREET 9999,Sevilla
bar,37.3988711,-5.9946648,Versalles,NO STREET 9999,Sevilla
bar,37.4205597,-5.9856374,Cerveceria Andén Tapas,NO STREET 9999,Sevilla
bar,37.4093452,-5.9804809,Bar Atlantico,NO STREET 9999,Sevilla
bar,37.4089352,-5.9805795,NO NAME,NO STREET 9999,Sevilla
bar,37.4100688,-5.9787946,Bar Avellanita,NO STREET 9999,Sevilla
bar,37.4085553,-5.9795372,NO NAME,NO STREET 9999,Sevilla
bar,37.4081697,-5.9793843,NO NAME,NO STREET 9999,Sevilla
bar,37.4096312,-5.9783838,Bar La Fuente,NO STREET 9999,Sevilla
bar,37.4089942,-5.9787808,NO NAME,NO STREET 9999,Sevilla
bar,37.3726847,-6.0471077,Bocana,NO STREET 9999,Sevilla
bar,37.392877,-5.9878333,NO NAME,NO STREET 9999,Sevilla
bar,37.3649281,-5.9810064,Bar Cafeteria L'Orangier,NO STREET 9999,Sevilla
bar,37.422252,-5.900783,Gambrinus,NO STREET 9999,Sevilla
bar,37.373249,-5.9734424,Garrote,NO STREET 9999,Sevilla
bar,37.3749245,-6.0462979,NO NAME,NO STREET 9999,Sevilla
bar,37.4272009,-5.9766527,Paddintom,NO STREET 9999,Sevilla
bar,37.3742416,-6.0442926,NO NAME,NO STREET 9999,Sevilla
bar,37.3909095,-5.9909858,Bodega La Aurora,Calle Pérez Galdós 9,Sevilla
bar,37.3849644,-5.9903999,Vinela,NO STREET 9999,Sevilla
bar,37.3818476,-5.9905745,NO NAME,NO STREET 9999,Sevilla
bar,37.3819504,-5.9909458,NO NAME,NO STREET 9999,Sevilla
bar,37.3858753,-5.9902561,Bodeguita La Parihuela,NO STREET 9999,Sevilla
bar,37.3852937,-5.9897167,El Jardin de la Tapas,NO STREET 9999,Sevilla
bar,37.384212,-6.005412,Lola Cazerola,Pagés del Corro 74,Sevilla
bar,37.386572,-6.007956,Meson bar el Cachorro,Clara de Jesús Montero 9999,Sevilla
bar,37.3756044,-6.0026998,El Madroño,NO STREET 9999,Sevilla
bar,37.3794835,-6.0090274,La Despensa de Triana,NO STREET 9999,Sevilla
bar,37.3786265,-6.0072885,Las Macetas de Triana,NO STREET 9999,Sevilla
bar,37.3899821,-5.9901613,Bar Alfalfa,Calle Candilejo 1,Sevilla
bar,37.3953074,-6.0280367,Cervecería de la Feria,NO STREET 9999,Sevilla
bar,37.3985634,-6.0323457,Bar Leo,NO STREET 9999,Sevilla
bar,37.3983023,-6.032436,Thaoma's Bar,NO STREET 9999,Sevilla
bar,37.3954719,-6.0285893,NO NAME,NO STREET 9999,Sevilla
bar,37.3856461,-6.0027945,Mariatrifulca,Punte de Triana 9999,Sevilla
bar,37.3854941,-5.9785253,La Andaluza,Avenida de la Buhaira 17,Sevilla
bar,37.3989196,-5.9915832,Docror Bar,Calle Feria 9999,Sevilla
bar,37.3992126,-5.9908994,Bar Algabeño,NO STREET 9999,Sevilla
bar,37.4034502,-6.0351714,Cervecería Cabrera,Santa María de Gracia 9999,Sevilla
bar,37.3991052,-5.9920564,NO NAME,NO STREET 9999,Sevilla
bar,37.3996877,-5.9910817,Pitacasso,Calle Calderón de la Barca 9999,Sevilla
bar,37.3995961,-5.993139,Eureka,NO STREET 9999,Sevilla
bar,37.399453,-5.9932033,El Corto Maltés,NO STREET 9999,Sevilla
bar,37.3898131,-5.9890436,Taberna Águilas,Calle Águilas 10,Sevilla
bar,37.3710767,-5.9783547,Bar el Sur,Avenida Ramón Carande 10,Sevilla
bar,37.3703351,-5.983595,Soravito,Calle Valparaiso 13,Sevilla
bar,37.3719399,-5.9818139,Cervecería el 21,calle Felipe ll 21,Sevilla
bar,37.4015607,-5.9919208,Sacramento,Calle Feria 141,Sevilla
bar,37.4079148,-5.9551604,Jazz Corner,Calle Rodio 41,Sevilla
bar,37.3978192,-5.9933726,Fun club,Alameda de Hércules 9999,Sevilla
bar,37.3889778,-5.9995513,Taberna El Papelon,NO STREET 9999,Sevilla
bar,37.3914579,-6.0010399,Zucchero,NO STREET 9999,Sevilla
bar,37.3931801,-6.000831,La Espadana,NO STREET 9999,Sevilla
bar,37.3881825,-6.0803531,El Rancho,Avenida Colón 8,Sevilla
bar,37.3886303,-6.0804301,Cervecería La Ponderosa,NO STREET 9999,Sevilla
bar,37.3754614,-6.002591,Bodega Mi Serrania,Calle Santo Ángel 1,Sevilla
bar,37.3649836,-6.0799873,NO NAME,NO STREET 9999,Sevilla
bar,37.4069085,-5.9727289,Los Dos Hermanos,Avenida de San Juan de la Salle 9999,Sevilla
bar,37.3767008,-5.997457,Cerveceria Emilio,NO STREET 9999,Sevilla
bar,37.3483229,-5.9835481,Cervecería Los Bermejales,Avenida de Grecia 19,Sevilla
bar,37.3471706,-5.9832631,Infanta Sevilla,Avenida de Grecia 27,Sevilla
bar,37.3776943,-6.0089788,"Casa Salva ""El Rondeño""",NO STREET 9999,Sevilla
bar,37.3415314,-5.9316445,Bar Los Caminantes,NO STREET 9999,Sevilla
bar,37.377403,-6.0069509,Cervecería La Grande,NO STREET 9999,Sevilla
bar,37.3749532,-6.0036029,Bar El Pique,NO STREET 9999,Sevilla
bar,37.3793861,-6.0088878,Triana Mía,NO STREET 9999,Sevilla
bar,37.3766752,-6.0058726,Bar Gómara,NO STREET 9999,Sevilla
bar,37.3798785,-6.0084244,Bar Salomón,NO STREET 9999,Sevilla
bar,37.3798177,-6.0083747,Casa Pedro,NO STREET 9999,Sevilla
bar,37.3791656,-6.0078484,Trianeando,NO STREET 9999,Sevilla
bar,37.3793588,-6.0080113,Cervecería El Muelle,NO STREET 9999,Sevilla
bar,37.3772926,-6.006847,Abacería Salvatierra,NO STREET 9999,Sevilla
bar,37.378586,-6.0115041,Bar Avenida,NO STREET 9999,Sevilla
bar,37.3866266,-6.0102218,Puratasca,Calle Numancia 5,Sevilla
bar,37.3816397,-6.0076759,Mesón Metrópolis,NO STREET 9999,Sevilla
bar,37.3816463,-6.0070836,Bodega El Picadero,NO STREET 9999,Sevilla
bar,37.3813031,-6.0084395,La Esperanza,NO STREET 9999,Sevilla
bar,37.3816728,-6.0079563,Bar Duero,Calle San Jacinto 85,Sevilla
bar,37.3813701,-6.0090042,Bar La Estrellita,NO STREET 9999,Sevilla
bar,37.3851392,-6.002807,Cervecería Akela,NO STREET 9999,Sevilla
bar,37.3838332,-6.0047308,Cervecería La Grande,Calle San Jacinto 39,Sevilla
bar,37.3830376,-6.0059696,Bar La Esperanza,NO STREET 9999,Sevilla
bar,37.3831247,-6.0058348,Bar-Restaurante Blanca Paloma,Calle San Jacinto 49,Sevilla
bar,37.38251,-6.0067465,Bar La Oliva,Calle Olivares 3,Sevilla
bar,37.3837042,-6.0052848,Típico Barra de Tapas,NO STREET 9999,Sevilla
bar,37.3769254,-6.0065649,Entre Dos Mareas,Calle López de Gomara 24,Sevilla
bar,37.3795474,-6.0030648,Tapería Bar Gastón,NO STREET 9999,Sevilla
bar,37.3794503,-6.002937,Bar Tribuna,NO STREET 9999,Sevilla
bar,37.3768675,-6.0090162,La Atrayana Bar,Plaza Virgen de los Dolores 6,Sevilla
bar,37.3769217,-6.0100754,Bar La Janda,NO STREET 9999,Sevilla
bar,37.3807157,-6.0087167,Calla Canalla Triana,NO STREET 9999,Sevilla
bar,37.3797414,-6.0081716,Cervecería Mare Mía,NO STREET 9999,Sevilla
bar,37.3780267,-6.0069207,El Arriate,NO STREET 9999,Sevilla
bar,37.3581044,-5.9861048,Casa Félix,Avenida de la Reina Mercedes 51,Sevilla
bar,37.3565795,-5.9861689,Combarro Taperías,NO STREET 9999,Sevilla
bar,37.3561778,-5.9858289,El Rincón de Manolo,Avenida del Padre García Tejero 9999,Sevilla
bar,37.3620794,-5.9856433,Bar La Encina,Calle Monzón 2 A,Sevilla
bar,37.3606706,-5.9856645,Bar El Seto,NO STREET 9999,Sevilla
bar,37.3609157,-5.9857137,Bar El Aljibe,Calle Monzón 9999,Sevilla
bar,37.3915224,-5.9976374,La Mar de Fresquita,NO STREET 9999,Sevilla
bar,37.3783757,-6.0117443,Bar Escudería,Avenida Álvar Núñez 20,Sevilla
bar,37.3779168,-6.0122508,Cervecería Triana,NO STREET 9999,Sevilla
bar,37.3775323,-6.0120875,Casa Enrique,Avenida Álvar Núñez 47,Sevilla
bar,37.3772843,-6.0128814,El Rincón de Lucía,Calle Arcángel San Miguel 2,Sevilla
bar,37.3802495,-6.003214,La Gamba Blanca,Calle Febo 20,Sevilla
bar,37.3957446,-5.9777707,Los Cantillos,Calle San Juan Bosco 9999,Sevilla
bar,37.4009034,-5.9950472,La Medusa,Calle Lumbreras 12,Sevilla
bar,37.3972613,-5.9944756,Gigante Bar,Alameda de Hércules 9999,Sevilla
bar,37.3744374,-6.0040133,Almacén de Santa Fe,NO STREET 9999,Sevilla
bar,37.4020298,-5.9830462,NO NAME,NO STREET 9999,Sevilla
bar,37.402522,-5.9838482,NO NAME,NO STREET 9999,Sevilla
bar,37.3969395,-5.99082,Kilo DE Higos,Plaza de Montesión 9999,Sevilla
bar,37.3861144,-6.0113963,Al Norte de Triana,Ronda de Triana 18,Sevilla
bar,37.3939435,-5.9915255,Perrochikö,NO STREET 9999,Sevilla
bar,37.3941208,-5.9915418,Abaceria Reinas,NO STREET 9999,Sevilla
bar,37.3774325,-5.9930593,New York,NO STREET 9999,Sevilla
bar,37.377626,-5.9771253,Marbella,Avenida de Ramón y Cajal 9999,Sevilla
bar,37.3751585,-6.0031967,La Otra Esquina,Calle Santo Ángel 7,Sevilla
bar,37.3757324,-6.0042243,Bar-Cafetería Aarón,Calle Salado 41,Sevilla
bar,37.3760598,-6.0030659,Café-Bar Escuela,Calle Virgen de África 10,Sevilla
bar,37.3759505,-6.0030748,Café-Bar Linea 1,Calle Virgen de Todos Los Santos 2,Sevilla
bar,37.3744456,-6.003477,El Alisar Gourmet,Calle Virgen de Luján 52,Sevilla
bar,37.3747395,-6.0034138,La Cañera,Calle Virgen de Aguas Santas 15,Sevilla
bar,37.3748732,-6.0035441,La Alpargata,Calle Virgen de Aguas Santas 9999,Sevilla
bar,37.3785188,-6.0068936,La Carrucha,Calle Constancia 21,Sevilla
bar,37.3793376,-6.006989,Bar El Paletas de Triana,Calle Evangelista 71,Sevilla
bar,37.3870999,-6.0070633,Sala El Cachorro,Procurador 9999,Sevilla
bar,37.3963164,-6.0017781,Bar Paradise,NO STREET 9999,Sevilla
bar,37.3435671,-5.9803906,Mercado Provenzal,Avenida de Finlandia 9999,Sevilla
bar,37.3451875,-5.9821951,La Sartená,Avenida de Alemania 9999,Sevilla
bar,37.3455581,-5.982363,Taberna Oly,Avenida de Alemania 46,Sevilla
bar,37.3457706,-5.9808626,Bar La Alúa,Avenida de Alemania 18,Sevilla
bar,37.3462773,-5.9790886,Cafetería Colibry,Avenida Paseo de Europa 21,Sevilla
bar,37.382934,-5.9857012,Cádiz 9,Avenida de Cádiz 9999,Sevilla
bar,37.3795324,-6.000173,La Bendita,Calle Salado 9999,Sevilla
bar,37.3883286,-5.9998753,El Picadero,NO STREET 9999,Sevilla
bar,37.3982124,-5.9851226,Bar Tolina (Márquez),NO STREET 9999,Sevilla
bar,37.40292,-5.9281841,Las Ciencias,NO STREET 9999,Sevilla
bar,37.4019667,-5.938903,Menta,NO STREET 9999,Sevilla
bar,37.3789431,-6.00538,Bar Los Claveles Café,NO STREET 9999,Sevilla
bar,37.3769161,-6.0019344,Bar Grana y Oro,NO STREET 9999,Sevilla
bar,37.3561128,-5.9851355,Cafetería-Bar Pavón,NO STREET 9999,Sevilla
bar,37.3558483,-5.9849734,Bar Uruguay,NO STREET 9999,Sevilla
bar,37.3818806,-6.0085818,Bar Casa Ruperto,NO STREET 9999,Sevilla
bar,37.3820488,-6.008847,Bar La Esquinita,NO STREET 9999,Sevilla
bar,37.3658132,-5.9822689,Fernanda Bar de Abastos,Calle Gustavo Gallardo 14,Sevilla
bar,37.4219958,-5.9525408,El rincón del Hortelano,NO STREET 9999,Sevilla
bar,37.3788618,-6.0072386,La Petarda,Calle Constancia 7A,Sevilla
bar,37.3821107,-5.9984534,Kiosko de las Flores,Betis 9999,Sevilla
bar,37.3788423,-6.00986,Conquista Bar,Plaza Cerámicas Mensaque 4,Sevilla
bar,37.3792782,-6.0094142,Bar el Tardón,NO STREET 9999,Sevilla
bar,37.3887144,-6.0300744,Bodegas Gavino,NO STREET 9999,Sevilla
bar,37.3950718,-5.9972799,Bogeda Amarillo Albero,NO STREET 9999,Sevilla
bar,37.3879236,-5.9811768,La Chicotá,Calle Luis Montoto 9999,Sevilla
bar,37.3508697,-6.0490969,Tintín,NO STREET 9999,Sevilla
bar,37.3790879,-6.0073464,Bar Paletas Antigüo,Calle Evangelista 71,Sevilla
bar,37.3817431,-6.0074472,Bar Blanco Cerrillo,Calle Peñaflor 3,Sevilla
bar,37.3816603,-6.0073468,Taberna La Plaza,Calle Peñaflor 3,Sevilla
bar,37.3770137,-6.0105296,Bar Casa Isidoro,NO STREET 9999,Sevilla
bar,37.3798471,-6.0035057,Café Bar Rafael,Calle Trabajo 7,Sevilla
bar,37.386869,-6.0629583,Bar Tu Casa,NO STREET 9999,Sevilla
bar,37.3751928,-6.0076186,Tablao Flamenco Lola de los Reyes,Avenida Blas Infante 6 (Local 1),Sevilla
bar,37.3749146,-6.0081554,Café Bar La Espuela,NO STREET 9999,Sevilla
bar,37.3743713,-6.0039677,Gastrobar El Punto del Rey,NO STREET 9999,Sevilla
bar,37.3749255,-6.0044424,Café-Bar Los Cantaros,NO STREET 9999,Sevilla
bar,37.381223,-6.0008467,Cervecería La Cruz,Calle Farmaceutico Murillo Herrara 1,Sevilla
bar,37.3790183,-6.0052513,NO NAME,Calle Trabajo 16,Sevilla
bar,37.3788808,-6.0051099,Café Bar Manzanilla,Calle Trabajo 31,Sevilla
bar,37.3750802,-6.0045694,Bar Santa Fe,Calle Santa Fe 7,Sevilla
bar,37.3753904,-6.0036095,La Salá,Calle José Velázquez Sánchez 9,Sevilla
bar,37.38271,-6.0102434,La Fábula,NO STREET 9999,Sevilla
bar,37.3810267,-6.0016852,Mesón Los Alcores,Calle Farmaceutico Murillo Herrara 10,Sevilla
bar,37.3780149,-6.0092328,Bar La Esquina de Eva,NO STREET 9999,Sevilla
bar,37.3797828,-6.0128205,Bar Madera,Plaza de Anita 13,Sevilla
bar,37.392304,-5.995992,El Patio,NO STREET 9999,Sevilla
bar,37.3810315,-6.0046666,Bodega El Quema,NO STREET 9999,Sevilla
bar,37.3812973,-6.0044768,Cervecería Vargas,NO STREET 9999,Sevilla
bar,37.3857873,-5.9862093,Cervecería Puerta de la Carne,Avenida Menéndez Pelayo 5,Sevilla
bar,37.3863206,-5.9872123,La Tapateria,NO STREET 9999,Sevilla
bar,37.3798049,-6.0726431,Cervecería El Molinillo,NO STREET 9999,Sevilla
bar,37.3841705,-6.0042886,Patio de San Eloy Las Columnas,Calle San Jacinto 29,Sevilla
bar,37.3815145,-6.0042839,Bar Numancia,Calle Febo 1,Sevilla
bar,37.3777141,-6.0113225,Local de ancianos Parroquia San Joaquín,NO STREET 9999,Sevilla
bar,37.3871487,-6.0492066,NO NAME,NO STREET 9999,Sevilla
bar,37.3864952,-5.9946318,Hijos de E. Morales,NO STREET 9999,Sevilla
bar,37.3863326,-5.9946564,Nos vemos en el ajolí,NO STREET 9999,Sevilla
bar,37.378709,-5.998261,Bodega Consolacion,NO STREET 9999,Sevilla
bar,37.3784204,-6.0013155,Cata50,NO STREET 9999,Sevilla
bar,37.3709444,-6.0742453,Bar Andres,Avenida Pablo Coso Calero 35,Sevilla
bar,37.3726427,-6.0708277,Pedro,Avenida del Aljarafe 26,Sevilla
bar,37.3728255,-6.0705525,Karlos,Avenida del Aljarafe 32,Sevilla
bar,37.3734796,-6.0702333,Casa Pernia,NO STREET 9999,Sevilla
bar,37.3735282,-6.0701916,La Taberna,NO STREET 9999,Sevilla
bar,37.3734256,-6.0702928,Bar Buenavista,Avenida del Aljarafe 9999,Sevilla
bar,37.3714538,-6.0731664,Bar Monte,NO STREET 9999,Sevilla
bar,37.3884742,-5.993818,Boston,Plaza de San Francisco 8,Sevilla
bar,37.3778861,-6.0117151,De la Cava,Avenida Álvar Núñez 39,Sevilla
bar,37.3828905,-6.0095241,Bar Los Puentes,NO STREET 9999,Sevilla
bar,37.3814373,-6.0092394,Cervecería La Galera,NO STREET 9999,Sevilla
bar,37.3815503,-6.0093354,Casa Carlos,NO STREET 9999,Sevilla
bar,37.3828344,-6.0847711,Café Bar El Ibérico,NO STREET 9999,Sevilla
bar,37.3800847,-6.003649,Amarra Tapas,NO STREET 9999,Sevilla
bar,37.3790284,-6.0429163,La Mar de Gambas,Pasaje de la Almoneda 25,Sevilla
bar,37.3850876,-6.0793696,Cervecería Niagara,Avenida de la Concordia 9,Sevilla
bar,37.375257,-6.0035562,El 25 Bodega,Calle José Velázquez Sánchez 10,Sevilla
bar,37.3768483,-6.0054947,Ulloa Urrea Tapas,Calle Constancia 36,Sevilla
bar,37.3787353,-6.0071287,Papelería Alfil.be,Calle Constancia 11,Sevilla
bar,37.3788843,-6.0132578,Asociación Cultural Los Ángeles,NO STREET 9999,Sevilla
bar,37.4256868,-5.9843795,La Taberna. El Rincón del Vera,Calle Boquerón 9999,Sevilla
bar,37.3651758,-5.9815205,La Morada Tapas,Calle Tabladilla 7,Sevilla
bar,37.3917934,-6.0608201,Gloria Bendita Tapas,NO STREET 9999,Sevilla
bar,37.3898528,-5.9932689,La Antigua Bodeguita,NO STREET 9999,Sevilla
bar,37.3897959,-5.9932889,Freiduría El Salvador,NO STREET 9999,Sevilla
bar,37.3897929,-5.9923957,Cuarenta13,NO STREET 9999,Sevilla
bar,37.3899019,-5.9908265,La Orgánica,NO STREET 9999,Sevilla
bar,37.3904819,-5.9893926,La Cata,NO STREET 9999,Sevilla
bar,37.3961931,-5.9879187,Lo Que Diga La Sole,NO STREET 9999,Sevilla
bar,37.3998401,-5.9941038,Corral de Esquivel,NO STREET 9999,Sevilla
bar,37.3899627,-5.9917818,D'Bellota,NO STREET 9999,Sevilla
bar,37.3899173,-5.9917885,Fabiola,NO STREET 9999,Sevilla
bar,37.3928159,-6.0019414,Premier,NO STREET 9999,Sevilla
bar,37.3965616,-5.9945997,Cafe Jazz Naima,NO STREET 9999,Sevilla
bar,37.3934082,-5.9936189,La Clueca,NO STREET 9999,Sevilla
bar,37.3979441,-5.9917543,La Tostaita Veloz,NO STREET 9999,Sevilla
bar,37.3860325,-6.0742314,Marisquería Chiquita y Fría,Avenida de la Constitución 1,Sevilla
bar,37.387793,-6.0792645,Café Bar San Ginés,NO STREET 9999,Sevilla
bar,37.3859201,-5.995634,Arfe 11,NO STREET 9999,Sevilla
bar,37.3858216,-5.9957279,Magallanes,NO STREET 9999,Sevilla
bar,37.3856959,-5.9956839,El Colmaito,NO STREET 9999,Sevilla
bar,37.3841878,-5.9942961,Le Xix,Calle Tomás de Ybarra 9,Sevilla
bar,37.3908971,-5.9911196,Beodo,Calle Pérez Galdós 22,Sevilla
bar,37.3863123,-5.9877393,Peña bética Puerta de la Carne,Calle Puerta la Carne 12,Sevilla
bar,37.3858518,-5.9861793,El Papelón,NO STREET 9999,Sevilla
bar,37.3835564,-5.975369,Porta Coeli,NO STREET 9999,Sevilla
bar,37.3973554,-5.9256962,La Oficina,NO STREET 9999,Sevilla
bar,37.3862225,-5.9965042,Bar Arenal,NO STREET 9999,Sevilla
bar,37.3861756,-5.9965565,Victorio,NO STREET 9999,Sevilla
bar,37.3906231,-5.9700658,Bar el Cateto,NO STREET 9999,Sevilla
bar,37.4007265,-5.925379,Decibelios,NO STREET 9999,Sevilla
bar,37.3846878,-5.9508258,El Rincon del Barrio,NO STREET 9999,Sevilla
bar,37.3774791,-5.9960888,Kame House Bar,NO STREET 9999,Sevilla
bar,37.3809414,-5.9531272,Trabuco,NO STREET 9999,Sevilla
bar,37.3865145,-5.9950778,Bodegas Díaz-Salazar,NO STREET 9999,Sevilla
bar,37.3742884,-6.0608759,El Desavio,Avenida de la Aurora 7,Sevilla
bar,37.3788752,-6.0659718,Cerro Colarte,NO STREET 9999,Sevilla
bar,37.3880472,-6.0457614,NO NAME,NO STREET 9999,Sevilla
bar,37.3751368,-6.0311462,Cervecería Gambrinus,NO STREET 9999,Sevilla
bar,37.4010262,-6.0344544,La Esquina,Calle José Payán 2,Sevilla
bar,37.3870658,-5.9924247,Pelayo Bar,NO STREET 9999,Sevilla
bar,37.3852427,-6.0580885,El cañaveral,NO STREET 9999,Sevilla
bar,37.3761016,-5.968421,El Rincón de León,Calle Fernández de Ribera 48,Sevilla
bar,37.4056214,-5.9824643,Casa Fidel,Calle Fray Luis de Granada 12,Sevilla
bar,37.3791068,-6.0657444,Cervecería La Gamba,Avenida de Bormujos 9999,Sevilla
bar,37.3334417,-5.9278455,La Codorniz,NO STREET 9999,Sevilla
bar,37.3338074,-5.9287763,Kiosco Parque,NO STREET 9999,Sevilla
bar,37.3385864,-5.9323915,La paleta de sabores,Avenida de los Pinos 12,Sevilla
bar,37.388972,-5.9962391,Plaza Nueva,Plaza Nueva 9999,Sevilla
bar,37.3798988,-5.9858775,Epheta,NO STREET 9999,Sevilla
bar,37.387764,-5.9871802,La Carbonería,Calle Céspedes 21A,Sevilla
bar,37.3896607,-5.9990083,Bodegas El Priorato 1810,NO STREET 9999,Sevilla
bar,37.4054027,-5.9154052,Acacia Liberales,NO STREET 9999,Sevilla
bar,37.3867184,-5.9978513,Baratillo,NO STREET 9999,Sevilla
bar,37.3361301,-5.967911,Restaurante cafeteria Pineda,Calle D 2,Sevilla
bar,37.387568,-5.9957376,Cervecería Internacional,NO STREET 9999,Sevilla
bar,37.3721001,-5.9575868,Fernandito,NO STREET 9999,Sevilla
bar,37.3724677,-5.9582799,Fernandito,NO STREET 9999,Sevilla
bar,37.3864378,-5.9971877,NO NAME,NO STREET 9999,Sevilla
bar,37.382671,-5.9607461,Bar Galindo,NO STREET 9999,Sevilla
bar,37.3863905,-5.9871774,Al Cartuchito,NO STREET 9999,Sevilla
bar,37.3831595,-6.0004203,Bar Santa Ana,Calle Pureza 82,Sevilla
bar,37.3849682,-6.0037403,Altozano de Triana,NO STREET 9999,Sevilla
bar,37.382942,-6.0026542,El sitio del Lebri,Calle Victoria 4,Sevilla
bar,37.3864696,-5.9970363,Bodega San José,NO STREET 9999,Sevilla
bar,37.387544,-5.995928,La Taberna,NO STREET 9999,Sevilla
bar,37.3936701,-5.9905069,Taberna la bañera,NO STREET 9999,Sevilla
bar,37.3928654,-5.9864253,Quitapesares,NO STREET 9999,Sevilla
bar,37.4033753,-6.0352287,Peña Curro Romero,Calle Santa Maria de Gracia 13,Sevilla
bar,37.3852345,-5.9951163,Postiguillo,Calle Dos de Mayo 2,Sevilla
bar,37.3841049,-6.0056032,Las Golondrinas,Calle Pagés del Corro 76,Sevilla
bar,37.3834477,-5.9928763,NO NAME,NO STREET 9999,Sevilla
bar,37.3830698,-5.9998858,La Taberna,Calle Duarte 3A,Sevilla
bar,37.3908992,-5.9908126,Berlín,Calle Boteros 26,Sevilla
bar,37.388413,-5.9914576,Bar Estrella,Calle Estrella 3,Sevilla
bar,37.3906146,-5.9994592,Cafeteria Donald,NO STREET 9999,Sevilla
bar,37.3894556,-5.9947806,Bodega Góngora,Calle Albareda 5,Sevilla
bar,37.3939474,-5.9959443,Bar Rioja,Calle Jesús del Gran Poder 4,Sevilla
bar,37.3907508,-5.9855876,Taberna Casa Castro,Calle Santiago 56,Sevilla
bar,37.3819723,-6.0075202,Casa Paco Rincón de Abadía,Calle San Jacinto 83,Sevilla
bar,37.3863553,-5.9885258,La Casa del Flamenco - Auditorio Alcántara,Calle Ximénez de Enciso 28,Sevilla
bar,37.388663,-6.010592,Casa Ricardo,Ronda de Triana 9999,Sevilla
bar,37.3863849,-5.9962066,Palo cortao,Calle Castelar 2,Sevilla
bar,37.3860963,-5.9905348,Álvaro Peregil,Calle Mateos Gago 20-22,Sevilla
bar,37.3860394,-5.9907674,Bodega Santa Cruz,Calle Rodrigo Caro 1,Sevilla
bar,37.3862311,-5.9905647,Patanchon,NO STREET 9999,Sevilla
bar,37.3593861,-5.9775176,Bar La esquinita,NO STREET 9999,Sevilla
bar,37.360225,-5.9777712,La carola,NO STREET 9999,Sevilla
bar,37.3603125,-5.9780829,Pizzería Treviso,NO STREET 9999,Sevilla
bar,37.3868236,-6.0584237,Casa Joselito,Calle Arcadio Rodríguez Martínez 6,Sevilla
bar,37.3975032,-5.984056,El Pelicano,Plaza del Pelícano 9999,Sevilla
bar,37.3859505,-5.9903032,El Pasaje,NO STREET 9999,Sevilla
bar,37.3877442,-5.9952233,El Atún,NO STREET 9999,Sevilla
bar,37.3878445,-5.9953046,La Barandilla,NO STREET 9999,Sevilla
bar,37.3814702,-6.0074895,El Escudero de Triana,Calle Peñaflor 6,Sevilla
bar,37.3766034,-6.011981,Cerveceria Manolita,Calle Garcilaso de la Vega 6A,Sevilla
bar,37.3781262,-5.9962733,El Desván,NO STREET 9999,Sevilla
bar,37.3526728,-6.0463524,Bodega de San Rafael,NO STREET 9999,Sevilla
bar,37.3993212,-5.9912595,112 cantina,recovas 109,Sevilla
bar,37.3860653,-5.9909245,NO NAME,NO STREET 9999,Sevilla
bar,37.3857794,-6.0041929,La Entrañable,NO STREET 9999,Sevilla
bar,37.4041524,-5.9654742,NO NAME,NO STREET 9999,Sevilla
bar,37.3847167,-6.0016568,La Tertulia,Calle Betis 13,Sevilla
bar,37.4035902,-5.9904724,El Bunker,Calle Torrijano 2,Sevilla
bar,37.400698,-5.9942988,Bar Flenco,Calle Lumbreras 9999,Sevilla
bar,37.4272947,-5.9770053,El Rincón de Ely,Calle Astronomía 9999,Sevilla
bar,37.3846059,-6.0041064,Taberna El Papelon,NO STREET 9999,Sevilla
bar,37.3820232,-6.0710573,Kiosko Bar Las Brisas,NO STREET 9999,Sevilla
bar,37.3721965,-5.9857799,Kiosco Abilio,NO STREET 9999,Sevilla
bar,37.413234,-5.9748544,Bodeguita Palmera,Grupo Los Príncipes 4,Sevilla
bar,37.3908125,-5.9923281,Bar El Comercio,NO STREET 9999,Sevilla
bar,37.4223704,-5.9636784,Bar El cazador,tapiceros local plaza abasto 9999,Sevilla
bar,37.3845772,-6.0508921,Bar el Poligono,NO STREET 9999,Sevilla
bar,37.3679109,-6.0806722,Café Bar Bohemia,NO STREET 9999,Sevilla
bar,37.4006071,-5.9889292,La Barrica De Debla,NO STREET 9999,Sevilla
bar,37.3987986,-5.9880758,Santa Maria,NO STREET 9999,Sevilla
bar,37.4002003,-5.9884794,Casa Julian,NO STREET 9999,Sevilla
bar,37.3908598,-6.0397387,NO NAME,NO STREET 9999,Sevilla
bar,37.3849432,-6.054838,Cervecería Guardiña,NO STREET 9999,Sevilla
bar,37.3767307,-5.9725358,La Flor de La Sierra,Calle Villegas Marmolejo 9999,Sevilla
bar,37.4010254,-5.9963502,Lumbreras,NO STREET 9999,Sevilla
bar,37.3977907,-5.9974115,Alcoy 10,NO STREET 9999,Sevilla
bar,37.3782646,-5.9732232,El Kiosco de Doñana,NO STREET 9999,Sevilla
bar,37.3752864,-5.9705842,Cervecería Urbion,NO STREET 9999,Sevilla
bar,37.3766461,-5.9745605,El Secreto Andaluz,NO STREET 9999,Sevilla
bar,37.3701227,-5.9535383,Casa Julio,NO STREET 9999,Sevilla
bar,37.3977371,-5.9933759,Plan B,NO STREET 9999,Sevilla
bar,37.3793918,-5.9780885,Voulezbar,Calle Balbino Marrón 9999,Sevilla
bar,37.3891248,-5.9944872,Taberna El Papelón,Calle Granada 2,Sevilla
bar,37.3858001,-6.0774923,Tasca El Botellín,Calle José Luis Caro 10,Sevilla
bar,37.3937112,-5.9973359,Los Niños del Flor,NO STREET 9999,Sevilla
bar,37.4028968,-5.9948731,Bar Antojo,Calle Calatrava 44,Sevilla
bar,37.4026881,-5.9947882,Abacería La Niña Bonita,Calle Calatrava 5,Sevilla
bar,37.3875614,-5.9934648,Maestro Marcelino,Calle Hernando Colón 9,Sevilla
bar,37.3878621,-5.993587,La Mamarracha,Calle Hernando Colón 1-3,Sevilla
bar,37.3876214,-5.9935632,Ovejas Negras,Calle Hernando Colón 8,Sevilla
bar,37.3693051,-6.0660096,NO NAME,NO STREET 9999,Sevilla
bar,37.3438523,-5.9761781,Cervecería Santa Lucía,NO STREET 9999,Sevilla
bar,37.3437931,-5.9765614,Mr. Jones,Avenida de Finlandia 9999,Sevilla
bar,37.3437624,-5.9767622,Taberna Don Matteo,Avenida de Finlandia 9999,Sevilla
bar,37.3747327,-6.0521648,Taberna Solera,NO STREET 9999,Sevilla
bar,37.423007,-5.9645026,NO NAME,NO STREET 9999,Sevilla
bar,37.4230561,-5.9596689,NO NAME,NO STREET 9999,Sevilla
bar,37.422857,-5.9591473,NO NAME,NO STREET 9999,Sevilla
bar,37.4229437,-5.9591053,NO NAME,NO STREET 9999,Sevilla
bar,37.4236262,-5.9587743,NO NAME,NO STREET 9999,Sevilla
bar,37.3456977,-5.9765547,La Doma,Calle Polonia 9999,Sevilla
bar,37.4235032,-5.9607642,NO NAME,NO STREET 9999,Sevilla
bar,37.4244058,-5.9609368,NO NAME,NO STREET 9999,Sevilla
bar,37.4217185,-5.9634477,NO NAME,NO STREET 9999,Sevilla
bar,37.3852542,-6.0548453,NO NAME,NO STREET 9999,Sevilla
bar,37.3848787,-6.063263,Bar Parada,NO STREET 9999,Sevilla
bar,37.3807613,-5.9995079,Vega 10,NO STREET 9999,Sevilla
bar,37.3950784,-5.9973504,Taberna El Panduro,Calle Baños 3,Sevilla
bar,37.3841854,-5.9931315,Donaire Azabache,NO STREET 9999,Sevilla
bar,37.4211498,-5.9860042,Bar el Monasterio,NO STREET 9999,Sevilla
bar,37.3601983,-6.0414793,Bien trabajao,NO STREET 9999,Sevilla
bar,37.3800677,-6.0061362,El Rincón de Pepe,Calle Evangelista 61,Sevilla
bar,37.3788614,-6.0017439,Bar Solano,Calle Febo 36,Sevilla
bar,37.390555,-6.0548438,Kiosco La Pintá,NO STREET 9999,Sevilla
bar,37.3787908,-6.0016903,Bar Arriero,Calle Salado 8,Sevilla
bar,37.3835478,-5.9925922,Las Lapas,NO STREET 9999,Sevilla
bar,37.383569,-5.9925111,El Mosquito,NO STREET 9999,Sevilla
bar,37.3965221,-5.9996913,Sevilla dream bar & lounge,Calle Pascual de Gayangos 32,Sevilla
bar,37.3892147,-5.9955567,Premier Sherry Cocktail Bar,NO STREET 9999,Sevilla
bar,37.3865157,-6.0099637,Bar Numancia City,Calle Numancia 2,Sevilla
bar,37.3841634,-5.963321,Cerveceria Antonio Espolaina,Calle Alejandro Collantes 68,Sevilla
bar,37.3763498,-6.0645059,NO NAME,NO STREET 9999,Sevilla
bar,37.3872877,-5.9924055,The second room,NO STREET 9999,Sevilla
bar,37.3848512,-6.0034906,Volapié Gastrotaberna Andaluza,Calle San Jacinto 5,Sevilla
bar,37.3846374,-6.0021873,Abacería La Antigüa,Calle Pureza 12,Sevilla
bar,37.3940556,-5.9665537,Bar Talo,NO STREET 9999,Sevilla
bar,37.3834909,-6.0010729,Las niñas der Pepe,NO STREET 9999,Sevilla
bar,37.3838655,-6.0004292,Bar Lo Nuestro,Calle Betis 31A,Sevilla
bar,37.3838058,-6.0003576,Bar El Rejoneo,Calle Betis 31B,Sevilla
bar,37.3833562,-6.000432,Taberna Pureza 73,Calle Pureza 73,Sevilla
bar,37.3814106,-5.999455,Bar La Viña,Calle Troya 14D,Sevilla
bar,37.3717983,-6.0843091,NO NAME,NO STREET 9999,Sevilla
bar,37.371255,-6.0868596,NO NAME,NO STREET 9999,Sevilla
bar,37.370616,-6.0861749,NO NAME,NO STREET 9999,Sevilla
bar,37.3923655,-5.9885516,Bar Ajoblanco,Calle Alhóndiga 19,Sevilla
bar,37.4042988,-5.9906879,Peña flamenca Torres Macarena,Calle Torrijano 29,Sevilla
bar,37.3746228,-6.0481925,El Rinconcito de Pepe,Calle García Lorca 9999,Sevilla
bar,37.3915937,-5.9787055,Sacristía de Abelardo,NO STREET 9999,Sevilla
bar,37.3914065,-5.9789363,Envidia,NO STREET 9999,Sevilla
bar,37.3920704,-5.9805362,7 villas,NO STREET 9999,Sevilla
bar,37.3924034,-5.9818817,chitón,NO STREET 9999,Sevilla
bar,37.3934653,-5.9815332,La mar de gambas,NO STREET 9999,Sevilla
bar,37.3899113,-5.9837875,Laredo,NO STREET 9999,Sevilla
bar,37.3901156,-5.9827627,Baldomero,NO STREET 9999,Sevilla
bar,37.390076,-5.9824111,NO NAME,NO STREET 9999,Sevilla
bar,37.3906719,-5.9822523,NO NAME,NO STREET 9999,Sevilla
bar,37.3908121,-5.9825214,NO NAME,NO STREET 9999,Sevilla
bar,37.3898643,-5.9840715,NO NAME,NO STREET 9999,Sevilla
bar,37.3913557,-5.981522,NO NAME,NO STREET 9999,Sevilla
bar,37.4086753,-6.0439546,NO NAME,NO STREET 9999,Sevilla
bar,37.3877721,-6.0064855,Bar Triana.,Calle Castilla 73,Sevilla
bar,37.3900954,-5.9914576,Taberna del Almirante,NO STREET 9999,Sevilla
bar,37.3479454,-6.0418885,El Duro Sevillano,NO STREET 9999,Sevilla
bar,37.3992579,-5.992215,Entrelineas,Calle Perís Mencheta 9999,Sevilla
bar,37.4008562,-5.9933435,Artefacto,NO STREET 9999,Sevilla
bar,37.3936508,-5.9958372,Cafeteria Rioja,NO STREET 9999,Sevilla
bar,37.3808443,-6.0833084,Cervecería Niágara,NO STREET 9999,Sevilla
bar,37.3855702,-5.9910485,NO NAME,NO STREET 9999,Sevilla
bar,37.3852571,-5.9909524,Chicole,NO STREET 9999,Sevilla
bar,37.3775353,-5.9692232,NO NAME,NO STREET 9999,Sevilla
bar,37.3779775,-5.9690765,El Pilar,Calle Marqués de Nervion 97,Sevilla
bar,37.3772356,-5.9697668,Taberna Nervión,Calle Marqués de Nervion 9999,Sevilla
bar,37.377389,-5.9695903,La Espumosa,Calle Marqués de Nervion 9999,Sevilla
bar,37.391748,-6.0015921,Bar el Rudy,NO STREET 9999,Sevilla
bar,37.3838506,-6.0106097,Bar Dulcinea,NO STREET 9999,Sevilla
bar,37.383816,-6.0105547,Majaretta,Calle Aracena 1,Sevilla
bar,37.3843336,-6.0108192,La Flor de Mi Viña,NO STREET 9999,Sevilla
bar,37.3623469,-5.9856549,Gamers Zone Sevilla,Periodista Ramon Resa 8,Sevilla
bar,37.3893508,-6.0102057,Casa Martín,NO STREET 9999,Sevilla
bar,37.3891872,-6.0102297,Bar La Torre,NO STREET 9999,Sevilla
bar,37.3887559,-6.0080547,Taberna La Sonanta,NO STREET 9999,Sevilla
bar,37.388413,-6.0071649,Vinería Los Pérez,Calle Castilla 100,Sevilla
bar,37.3866263,-6.0047586,"Bodeguita el ""24""",NO STREET 9999,Sevilla
bar,37.3863904,-6.0047867,Desayunos y Tapas el 24,NO STREET 9999,Sevilla
bar,37.3817186,-6.0071577,Bodega El Picadero,Calle Esperanza de Triana 6,Sevilla
bar,37.3787103,-6.0034371,Bar Los Aranda,Calle Esperanza de Triana 40,Sevilla
bar,37.3795768,-6.003685,Gastronauta,Calle Esperanza de Triana 41,Sevilla
bar,37.3773552,-6.0399797,NO NAME,NO STREET 9999,Sevilla
bar,37.3782888,-6.0434451,NO NAME,NO STREET 9999,Sevilla
bar,37.378195,-6.0433056,NO NAME,NO STREET 9999,Sevilla
bar,37.3804278,-6.043551,NO NAME,NO STREET 9999,Sevilla
bar,37.3726017,-6.0383864,La caponata,NO STREET 9999,Sevilla
bar,37.3779839,-6.0480552,NO NAME,NO STREET 9999,Sevilla
bar,37.3747665,-6.045429,NO NAME,NO STREET 9999,Sevilla
bar,37.3777985,-6.0456695,NO NAME,NO STREET 9999,Sevilla
bar,37.377871,-6.0457443,NO NAME,NO STREET 9999,Sevilla
bar,37.3804176,-6.0434417,NO NAME,NO STREET 9999,Sevilla
bar,37.3761261,-6.051783,NO NAME,NO STREET 9999,Sevilla
bar,37.3726715,-6.0361746,Cafe bar joker,NO STREET 9999,Sevilla
bar,37.3726348,-6.0363749,Dreams,NO STREET 9999,Sevilla
bar,37.3726516,-6.0362649,Quatro45,NO STREET 9999,Sevilla
bar,37.367325,-6.0410057,Majareta,NO STREET 9999,Sevilla
bar,37.3674054,-6.0410789,NO NAME,NO STREET 9999,Sevilla
bar,37.3675069,-6.0411045,NO NAME,NO STREET 9999,Sevilla
bar,37.3856978,-6.0038779,Cervecería Loli,NO STREET 9999,Sevilla
bar,37.3859526,-6.003658,Bar la Muralla,NO STREET 9999,Sevilla
bar,37.3779602,-5.9188502,NO NAME,NO STREET 9999,Sevilla
bar,37.3789308,-5.968057,NO NAME,NO STREET 9999,Sevilla
bar,37.3731105,-6.0355721,NO NAME,NO STREET 9999,Sevilla
bar,37.372967,-6.0360764,Terraza Ambrosía,NO STREET 9999,Sevilla
bar,37.3729502,-6.0362075,Ambrosía,NO STREET 9999,Sevilla
bar,37.374584,-5.9964216,Café Málaga Bar,NO STREET 9999,Sevilla
bar,37.3742092,-5.9991366,Matilde,NO STREET 9999,Sevilla
bar,37.3744833,-6.0002086,Taberna Coloryn,NO STREET 9999,Sevilla
bar,37.3742541,-6.0027532,El Rincón Abacería,NO STREET 9999,Sevilla
bar,37.3749071,-6.0025063,Bar Vía de la Plata,NO STREET 9999,Sevilla
bar,37.3744041,-6.0035027,Bar La Caprichosa,NO STREET 9999,Sevilla
bar,37.3746881,-6.0029543,Bar los Alcalareños,NO STREET 9999,Sevilla
bar,37.3725691,-6.0367957,Miami,NO STREET 9999,Sevilla
bar,37.3765743,-6.0048839,Samoa 2,NO STREET 9999,Sevilla
bar,37.3805125,-5.9981947,Bar José Luís,NO STREET 9999,Sevilla
bar,37.375542,-6.0040692,El Chupito Bar-Música-Copas,NO STREET 9999,Sevilla
bar,37.3774316,-6.0039082,Bar El Esquinazo,Calle Salado 39,Sevilla
bar,37.3791781,-6.0004814,Bar La Cala,Calle Salado 11-Local 5,Sevilla
bar,37.3765254,-5.9981652,El Cañuelo,NO STREET 9999,Sevilla
bar,37.3791928,-6.0008686,Manuela Tapas,NO STREET 9999,Sevilla
bar,37.377838,-6.0005461,Bar Los Remedios,NO STREET 9999,Sevilla
bar,37.3782945,-5.9992825,Bar Archu,NO STREET 9999,Sevilla
bar,37.3776747,-6.0004865,Bodeguita Los Remedios,NO STREET 9999,Sevilla
bar,37.3770535,-6.0017038,Cervecería La Nueva Peseta,NO STREET 9999,Sevilla
bar,37.3771682,-6.0014761,Gastrobar Las Delicias,NO STREET 9999,Sevilla
bar,37.3831804,-6.006176,Taberna La Pará,Calle San Jacinto 66,Sevilla
bar,37.3841291,-6.0046906,Cerbecería-Abacería Alboreá,NO STREET 9999,Sevilla
bar,37.3846441,-6.0040575,Café & Tapas,NO STREET 9999,Sevilla
bar,37.3844427,-6.0042853,Patio San Eloy Triana,NO STREET 9999,Sevilla
bar,37.3765119,-5.9990129,Bar Luis Felipe,NO STREET 9999,Sevilla
bar,37.3753149,-6.0013227,Café Bar Cofiñal,NO STREET 9999,Sevilla
bar,37.3829471,-6.0038802,Bar Pulido,NO STREET 9999,Sevilla
bar,37.3812635,-5.9981161,Bodega-Bar La Primera del Puente,NO STREET 9999,Sevilla
bar,37.384264,-6.0009511,Muelle Triana,NO STREET 9999,Sevilla
bar,37.3849748,-6.0029346,La Cinta Tapas y Copas,Calle Pureza 1,Sevilla
bar,37.3851006,-6.0028386,Cervecería La Boca El León,NO STREET 9999,Sevilla
bar,37.3849315,-6.0020296,Bar la Cucaña de Triana,NO STREET 9999,Sevilla
bar,37.3848701,-6.0018961,Taberna Antigüa Barbería (Los Pajaritos),NO STREET 9999,Sevilla
bar,37.3851505,-6.0023146,El Mirador de Triana,NO STREET 9999,Sevilla
bar,37.38072,-6.0037352,Bar Juan Carlos,Calle Febo 6AI,Sevilla
bar,37.3754133,-5.998965,Bar 16 de Julio,NO STREET 9999,Sevilla
bar,37.3766353,-5.9960347,Bar Toro 1968,NO STREET 9999,Sevilla
bar,37.3780112,-5.9966958,Bar Bolonia,NO STREET 9999,Sevilla
bar,37.3758764,-5.99876,Don Otilio,Calle Arcos 33,Sevilla
bar,37.3808132,-6.0058033,Cervecería Casa Diego,NO STREET 9999,Sevilla
bar,37.3809346,-6.0059316,La Mar de Gambas,NO STREET 9999,Sevilla
bar,37.3808706,-6.0058637,Cervecería España,NO STREET 9999,Sevilla
bar,37.3813477,-6.0057646,Bar Cibeles 2,NO STREET 9999,Sevilla
bar,37.3812171,-6.0059617,El Escoboná,NO STREET 9999,Sevilla
bar,37.3798275,-6.0043788,Cafe Bar El Farolillo,NO STREET 9999,Sevilla
bar,37.3796781,-6.0048369,Siete 7 Tapas & Restaurante,NO STREET 9999,Sevilla
bar,37.3812291,-6.0007783,Bodega El Picadero,Calle Pagés del Corro 160,Sevilla
bar,37.3828871,-6.0027516,Abaceria Caña & Romero,Calle Pagés del Corro 111,Sevilla
bar,37.3824474,-6.0018734,O'Tapas Albahaca,NO STREET 9999,Sevilla
bar,37.3840919,-6.0011877,La Cañera de Pureza,Calle Pureza 49,Sevilla
bar,37.3838993,-6.0041171,La bodega de Vargas,Calle Rodrigo de Triana 8,Sevilla
bar,37.3839747,-6.0042234,Taberna Restaurante DeTriana,Calle Rodrigo de Triana 4,Sevilla
bar,37.3739508,-6.0393387,ipanema,NO STREET 9999,Sevilla
bar,37.3745891,-6.040409,Bar las niñas,NO STREET 9999,Sevilla
bar,37.3846266,-6.0047579,alfarería 21,NO STREET 9999,Sevilla
bar,37.3854032,-6.0038253,Ro&Ma Tapas,Calle San Jorge 6,Sevilla
bar,37.4025264,-5.9812364,La Sin Miedo,Avenida de la Cruz Roja 62,Sevilla
bar,37.3921203,-5.9964426,NO NAME,NO STREET 9999,Sevilla
bar,37.356195,-5.9860982,El Quince,NO STREET 9999,Sevilla
bar,37.3905357,-5.9895207,El Garlochi,Calle Boteros 26,Sevilla
bar,37.3922144,-5.9923187,Mentiroso,NO STREET 9999,Sevilla
bar,37.3894999,-5.9956023,Montecristo,NO STREET 9999,Sevilla
bar,37.3895039,-5.9945244,La Taberna del Góngora,NO STREET 9999,Sevilla
bar,37.3895538,-5.9946492,Casa la Viuda,NO STREET 9999,Sevilla
bar,37.3415929,-6.0603636,Petersons's Cafe-Bar,Avenida del Jardinillo 25,Sevilla
bar,37.3715955,-5.9519612,Bar La Salaita,NO STREET 9999,Sevilla
bar,37.4025127,-5.9890982,Arco,Calle San Luis 138,Sevilla
bar,37.3935859,-5.9929408,Er Tito,Calle José Gestoso 11,Sevilla
bar,37.388377,-6.0088069,Maestranza 41010,Calle Alfarería 124,Sevilla
bar,37.3944994,-5.9914325,La Jerónima,Calle Jerónimo Hernández 14-16,Sevilla
bar,37.4005251,-5.9888188,Bar Gonzalo,Calle Relator 9999,Sevilla
bar,37.3523039,-6.0467885,La mar de Gambas,NO STREET 9999,Sevilla
bar,37.3447212,-6.0455058,La cervecería,NO STREET 9999,Sevilla
bar,37.4025591,-5.9890718,La esperanza,NO STREET 9999,Sevilla
bar,37.3978387,-5.9981248,Casa Rafita,Calle Marqués de la Mina 9999,Sevilla
bar,37.4150732,-5.9644241,Pizzeria Luigi,Urbanización parque flores 2,Sevilla
bar,37.377291,-5.9991386,La Sierra II,Calle Virgen de Begona 7-9,Sevilla
bar,37.3776688,-5.998631,La Sierra III,Calle Virgen de Regla 18,Sevilla
bar,37.3851086,-6.0050996,Taberna Paco España,Calle Alfarería 18,Sevilla
bar,37.384961,-6.005021,Clochard Triana,Calle Antillano Campos 15,Sevilla
bar,37.3775795,-5.9769517,masquespuma,Avenida de Ramón y Cajal 9999,Sevilla
bar,37.3775997,-5.9769977,La Latería,Avenida de Ramón y Cajal 9999,Sevilla
bar,37.3774431,-5.9768367,La Bodeguita,Avenida de Ramón y Cajal 9999,Sevilla
bar,37.4033734,-5.9660561,Atlántico,NO STREET 9999,Sevilla
bar,37.3980383,-5.998704,Bar Rodríguez,NO STREET 9999,Sevilla
bar,37.3826514,-6.0048377,El Zielo de Triana,NO STREET 9999,Sevilla
bar,37.3827632,-6.0121939,Cafe Bar Roma,Calle San Vicente de Paul 50,Sevilla
bar,37.3800753,-5.9993592,Bar Chico,Calle Pagés del Corro 184,Sevilla
bar,37.3802586,-5.9990787,Bar Periqui Chico,Calle Gustavo Bacarisas 2,Sevilla
bar,37.3778498,-6.0128512,Bar Opereta,NO STREET 9999,Sevilla
bar,37.400724,-5.9883102,Centro vecinal Pumarejo,NO STREET 9999,Sevilla
bar,37.4009879,-5.988322,Bodega Mariano Camacho,NO STREET 9999,Sevilla
bar,37.3756131,-5.9977868,Bar Mercedes,Calle Virgen de Loreto 15,Sevilla
bar,37.3505702,-5.9782147,Cervecería Huracán Asador,NO STREET 9999,Sevilla
bar,37.3632971,-5.9808302,Cafetería Bar Scott,Calle Tabladilla 10,Sevilla
bar,37.3633711,-5.9808682,Casa Gonzalez,Calle Tabladilla 10,Sevilla
bar,37.3635661,-5.9809845,Cafetería Emily,Calle Tabladilla 8,Sevilla
bar,37.3646497,-5.9818347,Abacería C. Ilundain,NO STREET 9999,Sevilla
bar,37.3480909,-5.9795144,Cervecería La Mar de Gambas,Avenida Paseo de Europa 3 Local 2,Sevilla
bar,37.3479042,-5.9801421,Tapas Viapol Bermejales,NO STREET 9999,Sevilla
bar,37.3782801,-5.9421969,Michigan,Calle Cartaya 4,Sevilla
bar,37.3872819,-5.9928116,Bar Julius,NO STREET 9999,Sevilla
bar,37.3870462,-5.9931226,Bar Julio,Calle Álvarez Quintero 60,Sevilla
bar,37.3888314,-5.9820255,La Dehesa,NO STREET 9999,Sevilla
pub,37.3928789,-6.0019619,Gloria Bendita,NO STREET 9999,Sevilla
pub,37.3932044,-6.0020184,Bar restaurante la Gallega,NO STREET 9999,Sevilla
pub,37.3932365,-6.0018901,Taberna La Saeta,NO STREET 9999,Sevilla
pub,37.3931592,-6.0008792,Bar El Sendero,NO STREET 9999,Sevilla
pub,37.3928176,-5.9963468,Café Bar Duque,NO STREET 9999,Sevilla
pub,37.3934736,-5.9849462,Bar Casa Eme,NO STREET 9999,Sevilla
pub,37.3880922,-5.996578,Bodega Cerrillo,NO STREET 9999,Sevilla
pub,37.3903131,-6.0012177,Bar Restaurante Sevilla,Calle Marqués de Paradas 9999,Sevilla
pub,37.3980914,-5.9943375,Mahareta,NO STREET 9999,Sevilla
pub,37.4029957,-5.9770179,NO NAME,NO STREET 9999,Sevilla
pub,37.3937436,-5.992671,Bar Zurbarán,NO STREET 9999,Sevilla
pub,37.3947896,-5.9900583,Bar Dueñas,NO STREET 9999,Sevilla
pub,37.3954086,-5.9948985,NO NAME,NO STREET 9999,Sevilla
pub,37.3935061,-5.9948212,Cervecería la Universal,NO STREET 9999,Sevilla
pub,37.3971069,-5.9933612,Utopia,NO STREET 9999,Sevilla
pub,37.4072399,-5.9339436,Pub irlandés O'David's,NO STREET 9999,Sevilla
pub,37.3914775,-5.991071,Sopa de Ganso,NO STREET 9999,Sevilla
pub,37.3974193,-5.9936188,Hércules Mítico,NO STREET 9999,Sevilla
pub,37.3926401,-5.9824452,Taberna El papelón,NO STREET 9999,Sevilla
pub,37.3960329,-5.994197,El hombre y el oso,NO STREET 9999,Sevilla
pub,37.3959897,-5.9947526,Men To Men MTM,Calle Trajano 38,Sevilla
pub,37.3775472,-5.9926118,Terraza Chile,NO STREET 9999,Sevilla
pub,37.3785498,-5.9905386,Casino Terraza,NO STREET 9999,Sevilla
pub,37.3806556,-5.9972656,Puerto de Cuba,NO STREET 9999,Sevilla
pub,37.3692074,-6.0402137,The Keepers,NO STREET 9999,Sevilla
pub,37.3911241,-5.988769,Casa Manué,NO STREET 9999,Sevilla
pub,37.387192,-6.000793,Terraza Flamingo,NO STREET 9999,Sevilla
pub,37.4050289,-6.0010657,Discoteca Antique,NO STREET 9999,Sevilla
pub,37.396076,-5.9911194,Los Juanes,NO STREET 9999,Sevilla
pub,37.3833467,-5.9498927,Bora Bora,NO STREET 9999,Sevilla
pub,37.383728,-5.9940989,Bodeguita Casablanca,Calle Adolfo Rodríguez Jurado 12,Sevilla
pub,37.3837096,-5.9942024,Cervecería Puerto plata,NO STREET 9999,Sevilla
pub,37.3851879,-5.9944957,Taberna El Manjar,NO STREET 9999,Sevilla
pub,37.3383932,-5.938027,NO NAME,NO STREET 9999,Sevilla
pub,37.3376425,-5.9378312,NO NAME,NO STREET 9999,Sevilla
pub,37.3379347,-5.9378473,NO NAME,NO STREET 9999,Sevilla
pub,37.3380669,-5.93785,NO NAME,NO STREET 9999,Sevilla
pub,37.419056,-5.9622006,El Rey de la Cerveza,NO STREET 9999,Sevilla
pub,37.4184424,-5.9633728,Rocío Mi Niña,NO STREET 9999,Sevilla
pub,37.4186247,-5.9630513,La Flia,NO STREET 9999,Sevilla
pub,37.3882243,-5.9968661,Bestiario,NO STREET 9999,Sevilla
pub,37.3889681,-5.9963162,Capitol,NO STREET 9999,Sevilla
pub,37.387219,-6.0107791,Cervecería La Ronda,NO STREET 9999,Sevilla
pub,37.3839005,-6.0485858,Bodega Aljarafe,NO STREET 9999,Sevilla
pub,37.375087,-6.0462923,Casa Grande,Navarro Caro 19,Sevilla
pub,37.3932947,-5.9859075,El ricón del Tito,NO STREET 9999,Sevilla
pub,37.393088,-5.977303,NO NAME,NO STREET 9999,Sevilla
pub,37.3784915,-6.003253,Bar Las Torres,NO STREET 9999,Sevilla
pub,37.390582,-6.0000931,The Merchant,NO STREET 9999,Sevilla
pub,37.3867701,-6.000036,Irish Pub O'Neill's,NO STREET 9999,Sevilla
pub,37.381651,-5.9996612,Teteria Bagdag,Pelay Correa 9999,Sevilla
pub,37.3899885,-6.0829193,NO NAME,NO STREET 9999,Sevilla
pub,37.3831885,-6.0060995,Bravo Café & Copas,Calle San Jacinto 66,Sevilla
pub,37.3830543,-6.006376,El Tejar,NO STREET 9999,Sevilla
pub,37.4027702,-5.919937,NO NAME,NO STREET 9999,Sevilla
pub,37.396891,-5.9787149,El rincón de la Caipirhina,Plaza Antonio Martello 9999,Sevilla
pub,37.394296,-5.9996054,Alfakeke,NO STREET 9999,Sevilla
pub,37.3382249,-5.9378771,Enjoy,Calle Calígula 60,Sevilla
pub,37.3436465,-5.9799666,Estudio 17,Avenida de Finlandia 9999,Sevilla
pub,37.3860103,-6.0795437,La Marisma Café Copas,Calle Fray Ramón de Gines 42,Sevilla
pub,37.3940562,-5.9917762,Gazpacho,NO STREET 9999,Sevilla
pub,37.3805425,-6.005327,Richelieu,Calle Esperanza de Triana 23,Sevilla
pub,37.3804373,-6.0051887,La Baronesa,Calle Esperanza de Triana 25,Sevilla
pub,37.3751506,-6.007722,Harold's Star Cafe-Copas,NO STREET 9999,Sevilla
pub,37.3796782,-6.0722765,Glass Café & Cocktails,NO STREET 9999,Sevilla
pub,37.3845706,-6.0665799,Green House,Avenida de Europa 98,Sevilla
pub,37.3861856,-5.9970001,The Clan Scottish Pub,Adriano 3,Sevilla
pub,37.396074,-5.9944684,Maquila,Calle Delgado 4,Sevilla
pub,37.3848153,-6.0737038,La Cubana,Avenida de la Constitución 26,Sevilla
pub,37.3844199,-5.9789224,Tapas D`Culto,NO STREET 9999,Sevilla
pub,37.3410608,-6.0595967,Castelao,Avenida del Jardinillo 9999,Sevilla
pub,37.3787235,-5.9784349,O'Neill's,NO STREET 9999,Sevilla
pub,37.3873731,-6.0055968,Lola Cazelora,Calle Castilla 36,Sevilla
pub,37.3870958,-6.0004124,Bribón 5,NO STREET 9999,Sevilla
pub,37.3873441,-6.0007098,Pinzón 5,NO STREET 9999,Sevilla
pub,37.3872081,-6.0005608,Colón 5,NO STREET 9999,Sevilla
pub,37.396886,-5.9934953,Bar Los 100 Cocktelitos,Calle Amor de Dios 64,Sevilla
pub,37.3804244,-6.0436541,Pepa Juana,NO STREET 9999,Sevilla
pub,37.390561,-5.9896069,El garlochí,NO STREET 9999,Sevilla
pub,37.3953485,-5.9914845,Guevara & Lynch,Calle Feria 7,Sevilla
pub,37.3978416,-5.9922023,Bier Kraft,NO STREET 9999,Sevilla
pub,37.3647872,-5.9724183,Bar-Bodega El Condado II,NO STREET 9999,Sevilla
pub,37.3875676,-5.9921516,Torero,NO STREET 9999,Sevilla
pub,37.3859381,-5.996242,El Postura,Calle Real de la Carretería 6,Sevilla
pub,37.3805476,-5.9657555,El Cafetal,Avenida de la Ciudad Jardin 9999,Sevilla
pub,37.3680694,-6.0802824,Kiwi,NO STREET 9999,Sevilla
pub,37.3993609,-5.985318,La Puerta de Córdoba,NO STREET 9999,Sevilla
pub,37.3969396,-5.990963,Los Carros,NO STREET 9999,Sevilla
pub,37.3980085,-5.9934552,84,NO STREET 9999,Sevilla
pub,37.3983483,-5.9932856,Dilema,NO STREET 9999,Sevilla
pub,37.3864646,-6.0763378,Avalón Copas,Calle Real 26,Sevilla
pub,37.3454985,-5.9765081,Baracoa,Calle Polonia 9999,Sevilla
pub,37.3455732,-5.9765255,choco&late,Calle Polonia 9999,Sevilla
pub,37.3792173,-6.0008008,Café-Copas Salado Seis,NO STREET 9999,Sevilla
pub,37.3448014,-6.0459861,Bar Porzuna,NO STREET 9999,Sevilla
pub,37.3829448,-5.9994984,Gallery Shisha Pub,Calle Betis 42,Sevilla
pub,37.3830792,-5.9996239,Copas Los Martínez Premiun,NO STREET 9999,Sevilla
pub,37.3819798,-5.998747,Tablao flamenco Pura Esencia,Calle Betis 56,Sevilla
pub,37.3819099,-5.9986837,Long Island Café Bar,Calle Betis 56,Sevilla
pub,37.3821959,-5.9989628,Garage Moto Café,Calle Betis 52,Sevilla
pub,37.3820301,-5.9987872,Ley Seca,Calle Betis 55,Sevilla
pub,37.3832397,-5.9997678,La Zapata,Calle Betis 39,Sevilla
pub,37.3884926,-5.9938261,Club San Francisco,NO STREET 8,Sevilla
pub,37.3805711,-5.9979989,Phoenix Pub,NO STREET 9999,Sevilla
pub,37.3767607,-6.0036557,Premier,NO STREET 9999,Sevilla
pub,37.3791245,-6.0005877,Copas Los Martínez Fussion,Calle Salado 11-Local 6-7,Sevilla
pub,37.3840812,-6.0043614,Java Café,NO STREET 9999,Sevilla
pub,37.3809859,-5.9978864,Riviera Sevilla,Calle Betis 69,Sevilla
pub,37.3821159,-5.9988633,Mentiroso Triana café bar,NO STREET 9999,Sevilla
pub,37.3840558,-6.0006754,El Mantoncillo,NO STREET 9999,Sevilla
pub,37.3843233,-6.0012472,T de Triana Café-Bar,Calle Betis 20,Sevilla
pub,37.3773604,-5.9960767,London Gin Tonic Club,NO STREET 9999,Sevilla
pub,37.3813678,-6.0068522,Proa Café y Copas,NO STREET 9999,Sevilla
pub,37.3802206,-6.0055874,Buena Vida Cafe & Copas,NO STREET 9999,Sevilla
pub,37.3987307,-5.9948545,NO NAME,Calle Jesús del Gran Poder 83,Sevilla
pub,37.3842036,-5.9944553,Lexis,NO STREET 9999,Sevilla
pub,37.3850304,-5.9899918,Casa Román,NO STREET 9999,Sevilla
pub,37.4010073,-5.9407074,Bar Buenamadre,NO STREET 9999,Sevilla
pub,37.4004503,-5.9410321,Bar Miami,NO STREET 9999,Sevilla
pub,37.3946474,-5.9860568,Urbano,NO STREET 9999,Sevilla
pub,37.3942623,-5.9856441,Mataka,NO STREET 9999,Sevilla
pub,37.3695169,-5.9605259,Cervezas Río Azul,6 9999,Sevilla
pub,37.3680499,-5.9606458,Malehable,4 9999,Sevilla
pub,37.3414131,-6.0591182,SHIRU,NO STREET 9999,Sevilla
pub,37.3776793,-5.9987581,El Cafetin de los Remedios,Calle Virgen de Regla 18,Sevilla
pub,37.3794775,-5.9877517,Roku Gin,NO STREET 9999,Sevilla
pub,37.4006227,-5.9887053,Abaceria Urbina,NO STREET 9999,Sevilla
pub,37.4007702,-5.9887196,Bodega Bar Umbrete,NO STREET 9999,Sevilla
pub,37.3510532,-5.9750216,NO NAME,NO STREET 9999,Sevilla
pub,37.3372151,-6.0375908,Bar,NO STREET 9999,Sevilla
pub,37.3868684,-6.0074363,The Boss café & copas,Calle Procurador 27,Sevilla
pub,37.3898725,-5.9977413,Bar El Coso,NO STREET 9999,Sevilla
pub,37.3500037,-5.9780582,NO NAME,NO STREET 9999,Sevilla
pub,37.3519035,-6.0467248,Orpheus Rock,NO STREET 9999,Sevilla
pub,37.4004268,-5.9760859,La Notaría,Calle Carretera de Carmona 30,Sevilla
pub,37.4007549,-5.976142,Carmona 39,Calle Carretera de Carmona 39,Sevilla
cafe,37.3828911,-5.9721654,Cafe de Indias,NO STREET 9999,Sevilla
cafe,37.3882256,-5.972532,Cafe Bar San Pablo,NO STREET 9999,Sevilla
cafe,37.3824759,-5.9929673,Starbucks,NO STREET 9999,Sevilla
cafe,37.3976001,-5.9969473,Café bar La Banqueta,NO STREET 9999,Sevilla
cafe,37.3978463,-5.994375,Casa Paco,NO STREET 9999,Sevilla
cafe,37.3859119,-5.9866772,Cerveceria Mezquita,Calle Santa María la Blanca 19,Sevilla
cafe,37.3857733,-5.995603,Esquinte de Arfe,NO STREET 9999,Sevilla
cafe,37.392956,-5.9990458,Bodegon Alfonso XII,NO STREET 33,Sevilla
cafe,37.3923366,-5.9903344,Cafetería Gaspump Garage,NO STREET 9999,Sevilla
cafe,37.3893782,-5.9845627,NO NAME,NO STREET 9999,Sevilla
cafe,37.3820459,-5.9911137,Cafetería San Fernadno,NO STREET 9999,Sevilla
cafe,37.3824102,-5.9927729,Café & Té,NO STREET 9999,Sevilla
cafe,37.3487144,-5.9772755,Café Bar Olvera,NO STREET 9999,Sevilla
cafe,37.39433,-5.9924564,Café Bar Los Dardos,NO STREET 9999,Sevilla
cafe,37.3943926,-5.9951731,Emperador,NO STREET 9999,Sevilla
cafe,37.392834,-5.9949148,Starbucks,Plaza de la Campana 2,Sevilla
cafe,37.3990885,-5.9919021,Café Hércules,NO STREET 9999,Sevilla
cafe,37.3949025,-5.9913673,La Cacharrería,Regina 9999,Sevilla
cafe,37.3903254,-5.9910813,Bar Gran Tino,NO STREET 9999,Sevilla
cafe,37.3901814,-5.9906556,Horno San Buenaventura,NO STREET 9999,Sevilla
cafe,37.3897323,-5.9916778,La Gitane Loca,NO STREET 9999,Sevilla
cafe,37.3915456,-5.9753947,café espresso,NO STREET 9999,Sevilla
cafe,37.3454993,-6.066083,Javi´s,NO STREET 9999,Sevilla
cafe,37.3816576,-5.9861756,NO NAME,NO STREET 9999,Sevilla
cafe,37.374711,-6.0523146,Café Helados Arábica,NO STREET 9999,Sevilla
cafe,37.3732191,-6.0472461,NO NAME,NO STREET 9999,Sevilla
cafe,37.3758963,-6.0457119,NO NAME,NO STREET 9999,Sevilla
cafe,37.3751217,-6.0451126,NO NAME,NO STREET 9999,Sevilla
cafe,37.3695785,-6.0271089,NO NAME,NO STREET 9999,Sevilla
cafe,37.3795626,-5.9767868,Coffee Corner,NO STREET 9999,Sevilla
cafe,37.3758915,-5.9700539,Hermanos Mesa,NO STREET 9999,Sevilla
cafe,37.377448,-5.9771105,NO NAME,NO STREET 9999,Sevilla
cafe,37.3842894,-5.9720947,NO NAME,NO STREET 9999,Sevilla
cafe,37.3908103,-5.9924424,Bar El Comercio,NO STREET 9999,Sevilla
cafe,37.3859772,-5.989319,Bar Las Teresas,Calle Santa Teresa 2,Sevilla
cafe,37.3965203,-5.987627,Taberna Leon de san Marcos,NO STREET 9999,Sevilla
cafe,37.4389533,-6.0393771,"Café & Copas ""La Palmera""",NO STREET 9999,Sevilla
cafe,37.3773114,-6.0452758,NO NAME,NO STREET 9999,Sevilla
cafe,37.3740648,-6.0440988,NO NAME,NO STREET 9999,Sevilla
cafe,37.3774022,-6.0456252,NO NAME,NO STREET 9999,Sevilla
cafe,37.3706873,-6.0499198,NO NAME,NO STREET 9999,Sevilla
cafe,37.3744336,-6.0470269,NO NAME,NO STREET 9999,Sevilla
cafe,37.4224178,-5.9858363,El Rinconcillo,NO STREET 9999,Sevilla
cafe,37.3895343,-5.9990675,NO NAME,NO STREET 9999,Sevilla
cafe,37.3891696,-5.9993944,Café de Indias,NO STREET 9999,Sevilla
cafe,37.3839604,-5.9939432,Starbucks,NO STREET 9999,Sevilla
cafe,37.3879049,-5.9606106,NO NAME,NO STREET 9999,Sevilla
cafe,37.379956,-5.9734507,NO NAME,NO STREET 9999,Sevilla
cafe,37.3970666,-5.994495,Bámbola,Alameda de Hércules 9999,Sevilla
cafe,37.3865012,-5.9877232,Carmela Bar de Tapas,NO STREET 6,Sevilla
cafe,37.3756866,-5.9461805,NO NAME,NO STREET 9999,Sevilla
cafe,37.3825539,-5.9494797,Parrilla,NO STREET 9999,Sevilla
cafe,37.3756525,-5.9460947,NO NAME,NO STREET 9999,Sevilla
cafe,37.3715375,-5.9888913,NO NAME,NO STREET 9999,Sevilla
cafe,37.3831207,-5.9934122,Dunkin Coffee,NO STREET 9999,Sevilla
cafe,37.4074533,-5.9736823,NO NAME,NO STREET 9999,Sevilla
cafe,37.3832345,-5.9871066,Horno San Bernardo,Avda. Menéndez y Pelayo 9999,Sevilla
cafe,37.3986381,-6.0083953,Café Cartuja,NO STREET 9999,Sevilla
cafe,37.3891641,-5.9942885,Robles Laredo,NO STREET 9999,Sevilla
cafe,37.3872624,-6.0017307,Churrería Los Especiales,Calle Arjona 9999,Sevilla
cafe,37.39239,-5.9986141,Rincón Maracay,Calle Almirante Ulloa 8,Sevilla
cafe,37.373335,-6.0467159,NO NAME,NO STREET 9999,Sevilla
cafe,37.4197623,-5.9852801,Caferroviario,NO STREET 9999,Sevilla
cafe,37.3651169,-5.9787395,Cafetería Ilundáin,NO STREET 9999,Sevilla
cafe,37.3629015,-5.9760347,Cafetería,NO STREET 9999,Sevilla
cafe,37.3836905,-5.9733012,Horno La Tahona,Calle Luis Belmonte 9999,Sevilla
cafe,37.3818875,-5.990696,Boston Burger,NO STREET 9999,Sevilla
cafe,37.4024591,-6.0077092,La Cueva,NO STREET 9999,Sevilla
cafe,37.3992611,-5.9920228,Quilombo,NO STREET 9999,Sevilla
cafe,37.3996834,-5.9916074,NO NAME,NO STREET 9999,Sevilla
cafe,37.3972199,-5.9933302,NO NAME,NO STREET 9999,Sevilla
cafe,37.3998049,-5.9928761,NO NAME,NO STREET 9999,Sevilla
cafe,37.3947533,-5.991555,Dulce Regina,Calle Regina 15,Sevilla
cafe,37.3935645,-5.9927982,Café - Bar Los Puentes,NO STREET 9999,Sevilla
cafe,37.3854014,-6.0565695,Cafetería Santa María,NO STREET 9999,Sevilla
cafe,37.3886505,-5.9982575,Heladeria La Fiorentina,Calle Zaragoza Nº16,Sevilla
cafe,37.3885907,-6.080188,Cafetería Ohana,Avenida Colón 5,Sevilla
cafe,37.4023496,-5.9195159,Los Naranjos,NO STREET 9999,Sevilla
cafe,37.3785247,-5.997233,Café Orleans,NO STREET 9999,Sevilla
cafe,37.3477937,-5.9834155,Café Tartessos,Avenida de Grecia 21,Sevilla
cafe,37.3473629,-5.9833131,Cafetería-Bar EME'S,Avenida de Grecia 25,Sevilla
cafe,37.3461621,-5.9830355,Horno de San Tomás,Avenida de Grecia 33,Sevilla
cafe,37.3791423,-6.0072413,Cervecería-Cafetería de la Encina,NO STREET 9999,Sevilla
cafe,37.385043,-6.0028834,Cafe Bar Altozano,NO STREET 9999,Sevilla
cafe,37.3744153,-6.0018338,Chocolatería Virgen de Lujan,Calle Virgen de Luján 40,Sevilla
cafe,37.3438963,-5.9757351,MAS,Avenida de Finlandia 9999,Sevilla
cafe,37.3780517,-6.0091666,Panadería-Cafetería,NO STREET 9999,Sevilla
cafe,37.3766625,-6.0093368,Cafetería-Panadería-Alimentación Alfonso,NO STREET 9999,Sevilla
cafe,37.3770744,-6.0108368,El Tranvía,NO STREET 9999,Sevilla
cafe,37.3778681,-6.0024118,Café de Indias,NO STREET 9999,Sevilla
cafe,37.3562417,-5.9856704,Bar Jamaica,Avenida del Padre García Tejero 9999,Sevilla
cafe,37.3798064,-6.0102178,La Esquina de San Gonzalo,Avenida Álvar Núñez 10,Sevilla
cafe,37.3775387,-5.9768643,TEA & COFFEE,Avenida de Ramón y Cajal 9999,Sevilla
cafe,37.3833106,-5.9733478,Cafetería Forum,Avenida Luis de Morales 32,Sevilla
cafe,37.4030773,-5.9810905,Heladería Villar,NO STREET 9999,Sevilla
cafe,37.4031497,-5.9807794,Horno San Buenaventura,NO STREET 9999,Sevilla
cafe,37.3859637,-5.9894453,Salt and Sugar,Calle Ximénez de Enciso 12,Sevilla
cafe,37.3442007,-5.9764179,Pastelería Cafetería Los Ángeles,Avenida de Finlandia 9999,Sevilla
cafe,37.3450403,-5.9827342,Mova,Glorieta de Chequia 9999,Sevilla
cafe,37.3850097,-6.0020838,Café la Prensa de Triana,Calle Betis 8,Sevilla
cafe,37.3899132,-5.9896786,Pan y Più,NO STREET 9999,Sevilla
cafe,37.385741,-5.97161,Charlotte,Luis Arena Ladislao 151,Sevilla
cafe,37.4111206,-6.0038587,Cafetería Pabellón de África,Calle Arquímedes 9999,Sevilla
cafe,37.4110691,-5.9253869,Cafetería-Churrería Mercalimón,NO STREET 9999,Sevilla
cafe,37.3512794,-5.9820199,Betis Sport,NO STREET 9999,Sevilla
cafe,37.3492683,-5.9854818,El Capriccio,NO STREET 9999,Sevilla
cafe,37.3487516,-5.9786488,Churrería La Esquinita,NO STREET 9999,Sevilla
cafe,37.3774982,-5.9984518,Café del Valle,Calle Virgen del Valle 8,Sevilla
cafe,37.3884524,-6.0801479,Churrería Nuestra Señora del Rocío,NO STREET 9999,Sevilla
cafe,37.3866117,-5.9857277,El Cortadero,NO STREET 9999,Sevilla
cafe,37.3865384,-5.9793178,El Rincon de la Buhaira,NO STREET 9999,Sevilla
cafe,37.4020602,-5.9889996,Rosa de San Gil,NO STREET 9999,Sevilla
cafe,37.3845162,-6.0045896,Casa Diego,NO STREET 9999,Sevilla
cafe,37.3911382,-5.9888018,La Jama,NO STREET 9999,Sevilla
cafe,37.391292,-5.9886078,Las Cinco Farolas,NO STREET 9999,Sevilla
cafe,37.395109,-5.9970112,El Sanedrine,NO STREET 9999,Sevilla
cafe,37.3898597,-5.991783,La Mina,NO STREET 9999,Sevilla
cafe,37.3948464,-5.997332,Vintage,NO STREET 9999,Sevilla
cafe,37.4383544,-6.040672,El Barranco,NO STREET 9999,Sevilla
cafe,37.3940797,-5.9917808,Virgin Coffee,NO STREET 9999,Sevilla
cafe,37.385285,-5.973101,Café Nervión,NO STREET 9999,Sevilla
cafe,37.3742264,-6.0038657,Café Bar Los Tres Principes,NO STREET 9999,Sevilla
cafe,37.3842038,-5.9640557,La Gallina en el Diván,Calle Alejandro Collantes 38,Sevilla
cafe,37.3921021,-5.9948745,Café - Bar Catunambú,NO STREET 9999,Sevilla
cafe,37.3511932,-6.0484678,Heladería Frías,NO STREET 9999,Sevilla
cafe,37.386248,-5.9946283,Café Bar Perea,NO STREET 9999,Sevilla
cafe,37.3965357,-5.9878429,NO NAME,NO STREET 9999,Sevilla
cafe,37.3849288,-5.960217,Cafetería Nene,Calle Vidal de Noya 46,Sevilla
cafe,37.3870038,-5.9626399,Casa de Castilla y León,NO STREET 9999,Sevilla
cafe,37.3765345,-5.9975194,helados & cafe Mascarpone,NO STREET 9999,Sevilla
cafe,37.3751743,-5.9976329,garnier,NO STREET 9999,Sevilla
cafe,37.378918,-5.997433,La Zaranda,NO STREET 9999,Sevilla
cafe,37.3792676,-5.9976172,Cafetería Asunción 3,NO STREET 9999,Sevilla
cafe,37.3845801,-6.0668209,Heladería Cafetería Francis,NO STREET 9999,Sevilla
cafe,37.3718159,-6.0724376,La Ibense Bornay,NO STREET 9999,Sevilla
cafe,37.3711266,-6.0743813,Katmandu,NO STREET 9999,Sevilla
cafe,37.3726708,-6.0707317,Zaida,NO STREET 9999,Sevilla
cafe,37.3734106,-6.0699804,Cafeteria Azahar,NO STREET 9999,Sevilla
cafe,37.3732737,-6.070084,Café Betis,NO STREET 9999,Sevilla
cafe,37.387124,-6.0479352,Café L'Epoque,Calle Real 7,Sevilla
cafe,37.3796649,-6.0042617,Cafetería Don Diego,NO STREET 9999,Sevilla
cafe,37.379872,-6.0724986,Cafetería La Estrella,NO STREET 9999,Sevilla
cafe,37.4304058,-5.9764468,Bar Rodríguez,NO STREET 9999,Sevilla
cafe,37.3842461,-6.0088967,El Horno de Triana,NO STREET 9999,Sevilla
cafe,37.3842331,-5.9899227,Cafetería El Jardín Esconodido (Real Alcázar),NO STREET 9999,Sevilla
cafe,37.3931288,-5.9847924,Cupcake,NO STREET 9999,Sevilla
cafe,37.3863723,-5.9976319,D'oro,NO STREET 9999,Sevilla
cafe,37.3910963,-5.994363,Ochoa,NO STREET 9999,Sevilla
cafe,37.3902676,-5.9908701,Horno Artesano,NO STREET 9999,Sevilla
cafe,37.3903007,-5.99043,Horno El Abuelo,NO STREET 9999,Sevilla
cafe,37.3995702,-5.9941549,La Sirena Copas,NO STREET 9999,Sevilla
cafe,37.3863631,-6.075859,Cafetería La Dolorosa,NO STREET 9999,Sevilla
cafe,37.3866333,-6.0767127,Café Cervantes,Calle Real 20,Sevilla
cafe,37.3878983,-6.0786385,Kafé Ka,NO STREET 9999,Sevilla
cafe,37.3857533,-5.9958007,Café Boheme,NO STREET 9999,Sevilla
cafe,37.3837798,-5.9766279,crustum,NO STREET 9999,Sevilla
cafe,37.3853232,-5.9940904,Avenida Restauracion,NO STREET 9999,Sevilla
cafe,37.3852559,-5.9940784,La Ibense Bournay,NO STREET 9999,Sevilla
cafe,37.3899917,-5.9905637,Bodega Bonaire,NO STREET 9999,Sevilla
cafe,37.3851457,-6.0793833,La Dolorosa,NO STREET 9999,Sevilla
cafe,37.3908027,-5.9924307,petit dej,NO STREET 9999,Sevilla
cafe,37.3933769,-5.9948849,Cocome,Calle Tarifa 4,Sevilla
cafe,37.3750679,-6.0314095,Café del Cine,NO STREET 9999,Sevilla
cafe,37.4013591,-6.0346425,Cafetería - Churrería El nueve,Plaza de la Constitución 4,Sevilla
cafe,37.3895227,-5.9950815,Café y tapas,NO STREET 9999,Sevilla
cafe,37.3903907,-6.0001201,Santagloria,NO STREET 9999,Sevilla
cafe,37.3782688,-5.9703837,Collage,Calle Villegas y Marmolejo 9999,Sevilla
cafe,37.3887543,-5.9730733,Cafe-Bar Alhambra,NO STREET 9999,Sevilla
cafe,37.389832,-5.9965031,Dulce trazo,NO STREET 9999,Sevilla
cafe,37.3804403,-5.9661129,Urban Café & Copas,NO STREET 9999,Sevilla
cafe,37.382295,-5.9658968,Cafetería El Pilar,NO STREET 9999,Sevilla
cafe,37.3867926,-5.9988991,Taquilla,NO STREET 9999,Sevilla
cafe,37.3858428,-6.0105659,El Picadero,NO STREET 9999,Sevilla
cafe,37.422997,-5.8998667,Horno San Buenaventura,NO STREET 9999,Sevilla
cafe,37.3930159,-5.9887743,Entrevarales,NO STREET 9999,Sevilla
cafe,37.3955448,-5.9956975,Orfeo Cafe Bar,Calle Jesús del Gran Poder 19,Sevilla
cafe,37.396975,-5.9935372,La Sra Pop,Calle Amor de Dios 55,Sevilla
cafe,37.3609465,-5.9794246,Cafeteria Bar Scott,NO STREET 9999,Sevilla
cafe,37.3644527,-5.9793568,Cafetería Scott,NO STREET 9999,Sevilla
cafe,37.3819468,-6.008003,Casablanca dreams,Calle San Jacinto 94,Sevilla
cafe,37.381883,-5.9953407,Torch Coffee Roasters,Paseo de las Delicias 3,Sevilla
cafe,37.3936606,-5.9929365,CAOTICA,NO STREET 9999,Sevilla
cafe,37.3896302,-5.9855789,Almazen Café,Calle San Esteban 15,Sevilla
cafe,37.3928465,-5.988866,la guaseria,NO STREET 9999,Sevilla
cafe,37.3541102,-6.0627319,Cafeteria La Antigua,NO STREET 9999,Sevilla
cafe,37.3862779,-5.999673,Puro & Bio Heladería,NO STREET 9999,Sevilla
cafe,37.3879409,-5.9935319,Milk Away,Calle Hernando Colón 3,Sevilla
cafe,37.3903693,-5.9999117,Santa Gloria,Calle Canalejas 7,Sevilla
cafe,37.3871406,-5.992799,El Colmo,Calle Conteros 12,Sevilla
cafe,37.3752416,-6.0472049,Cafetería Las Nieves,Calle Navarro Caro 30,Sevilla
cafe,37.3768209,-5.9805219,Horno San Tomás,NO STREET 9999,Sevilla
cafe,37.3857041,-6.0472306,NO NAME,NO STREET 9999,Sevilla
cafe,37.4002518,-5.9906937,El Tio Del Saco,NO STREET 9999,Sevilla
cafe,37.396137,-5.9875661,El Rincon Sagrado,NO STREET 9999,Sevilla
cafe,37.3992682,-5.9926991,Metafora,NO STREET 9999,Sevilla
cafe,37.3965736,-5.9953615,Mr. Cake,NO STREET 9999,Sevilla
cafe,37.3980849,-5.9933495,Bulebar,NO STREET 9999,Sevilla
cafe,37.3984821,-5.9932566,El Viajero Sedentario,NO STREET 9999,Sevilla
cafe,37.3975121,-5.9935353,Mano De Santo,NO STREET 9999,Sevilla
cafe,37.3969878,-5.9937675,Mon Jardin,NO STREET 9999,Sevilla
cafe,37.398965,-5.9931605,NO NAME,NO STREET 9999,Sevilla
cafe,37.3981683,-5.9933413,La Casa Azul,NO STREET 9999,Sevilla
cafe,37.3969303,-5.9908022,Otto Café,NO STREET 9999,Sevilla
cafe,37.3440017,-5.9777264,Cafetería El Petisú,NO STREET 9999,Sevilla
cafe,37.3457382,-5.9783858,La Golosa,Avenida de Alemania 9999,Sevilla
cafe,37.3837584,-6.051047,Europa 1,Calle Camilo José Cela 9999,Sevilla
cafe,37.3525047,-6.0629427,Bar Cafetería Los Ferrera,Calle Congreso 66,Sevilla
cafe,37.3852166,-6.0548183,NO NAME,NO STREET 9999,Sevilla
cafe,37.4210036,-5.9860449,Bar El Monasterio,NO STREET 9999,Sevilla
cafe,37.381499,-6.0047505,Confitería Las Palomas,Calle Evangelista 34,Sevilla
cafe,37.3835543,-6.0769841,Cafetería MAS,NO STREET 9999,Sevilla
cafe,37.3858398,-5.9863769,Jester,NO STREET 7AA,Sevilla
cafe,37.3711786,-6.0823393,Koldis,NO STREET 9999,Sevilla
cafe,37.3714978,-6.0811496,Parissine,NO STREET 9999,Sevilla
cafe,37.3720777,-6.0844101,NO NAME,NO STREET 9999,Sevilla
cafe,37.3720242,-6.0843951,NO NAME,NO STREET 9999,Sevilla
cafe,37.3929964,-5.9804825,Navarro,NO STREET 9999,Sevilla
cafe,37.371984,-6.0741037,Taj Mahal,NO STREET 9999,Sevilla
cafe,37.3893278,-6.0804689,El Café de Inma,Avenida Colón 2,Sevilla
cafe,37.4002214,-5.9931529,No piqui,NO STREET 9999,Sevilla
cafe,37.3868538,-5.9931157,Cafè Bar Gonzalo,NO STREET 9999,Sevilla
cafe,37.3807719,-6.0834797,Café de Gines,NO STREET 9999,Sevilla
cafe,37.3873255,-5.9933454,Filo,Hernando Colon 19,Sevilla
cafe,37.4050453,-5.9943131,Heladeria-cafeteria,Avenida Concejal Alberto Jiménez-Becerril 9999,Sevilla
cafe,37.3893724,-5.9969826,La Cacharreria,NO STREET 9999,Sevilla
cafe,37.3759836,-6.0458091,NO NAME,NO STREET 9999,Sevilla
cafe,37.3751073,-6.0447787,NO NAME,NO STREET 9999,Sevilla
cafe,37.3751687,-6.0453443,NO NAME,NO STREET 9999,Sevilla
cafe,37.3748615,-6.045454,NO NAME,NO STREET 9999,Sevilla
cafe,37.3741079,-6.0441556,NO NAME,NO STREET 9999,Sevilla
cafe,37.3753374,-6.0459879,NO NAME,NO STREET 9999,Sevilla
cafe,37.3857501,-6.0038632,Donde Juan Carlos,NO STREET 9999,Sevilla
cafe,37.3812681,-5.9187537,NO NAME,NO STREET 9999,Sevilla
cafe,37.3745769,-5.996666,La Siembra Café Bar,NO STREET 9999,Sevilla
cafe,37.3745419,-5.9980527,Café de Indias Coffee Shop,NO STREET 9999,Sevilla
cafe,37.3780581,-6.0020346,Cafetería Torre de los Remedios,NO STREET 9999,Sevilla
cafe,37.3770433,-6.0039703,Amparo de Luna,NO STREET 9999,Sevilla
cafe,37.3787055,-5.9999021,Lukia Sport Café,NO STREET 9999,Sevilla
cafe,37.3877117,-5.9810422,La Toscana,NO STREET 9999,Sevilla
cafe,37.3768934,-5.9998559,Chocolateria Rocio Campos,Calle Arqueros 2A,Sevilla
cafe,37.3757879,-5.9987609,Paká Payá tapas&copas&café,NO STREET 9999,Sevilla
cafe,37.3829697,-6.0030852,Quoore 2,Calle Pagés del Corro 101,Sevilla
cafe,37.3845638,-6.0019548,Tetería Bagdad,Calle Pureza 22,Sevilla
cafe,37.3847839,-6.0022208,Café la Prensa de Triana,Calle Pureza 19,Sevilla
cafe,37.3927587,-6.0019451,paradas,NO STREET 9999,Sevilla
cafe,37.3892621,-5.9927788,Lucas city,Calle Francos 11  Sevilla,Sevilla
cafe,37.3927694,-5.9819368,Gallito & Galleta,NO STREET 9999,Sevilla
cafe,37.3894691,-5.9947295,El Rincón del Kevin,NO STREET 9999,Sevilla
cafe,37.3891895,-5.9929833,La Cantina Mexica,NO STREET 9999,Sevilla
cafe,37.3687416,-5.9484326,Las Niñas,Calle Ana Valencia Vilches 9999,Sevilla
cafe,37.3715928,-5.9516306,Bar Cristina,NO STREET 9999,Sevilla
cafe,37.3687321,-5.952856,La Abuela Ana,NO STREET 9999,Sevilla
cafe,37.3807874,-5.9906006,Catergest,NO STREET 9999,Sevilla
cafe,37.3996857,-5.9911001,Parcería,Calle Calderón de la Barca 9,Sevilla
cafe,37.4026019,-5.9890643,Macarena,Calle San Luis 140,Sevilla
cafe,37.3402057,-6.0609263,Cafetería Nuevo Rupert,NO STREET 9999,Sevilla
cafe,37.3516146,-6.0470371,Lola,NO STREET 9999,Sevilla
cafe,37.3875531,-6.0119808,Pisano,NO STREET 9999,Sevilla
cafe,37.4062311,-5.9804532,NO NAME,NO STREET 9999,Sevilla
cafe,37.3413671,-6.0599692,Horno San Tomás,NO STREET 9999,Sevilla
cafe,37.3503689,-6.0486648,Descubrimientos 3,NO STREET 9999,Sevilla
cafe,37.3503569,-6.048657,Chocco,NO STREET 9999,Sevilla
cafe,37.3499155,-6.0491778,El Almirez,NO STREET 9999,Sevilla
cafe,37.3332986,-5.9272876,Cafetería Brioche,NO STREET 9999,Sevilla
cafe,37.4163293,-5.9734821,NO NAME,NO STREET 9999,Sevilla
cafe,37.375639,-6.0011023,La Sierra I,Calle Virgen de la Victoria 48,Sevilla
cafe,37.38433,-6.0054998,La Manuela,Calle Pagés del Corro 55,Sevilla
cafe,37.3759761,-5.9703857,El Encuentro,Avenida Ramón y Cajal 21,Sevilla
cafe,37.3928981,-5.9982409,Cafés artesanos a granel,NO STREET 9999,Sevilla
cafe,37.3596056,-5.9860521,COFFEE&GO,Avenida de la Reina Mercedes 9999,Sevilla
cafe,37.3556438,-6.0386552,Los martinez,NO STREET 9999,Sevilla
cafe,37.4005273,-5.9798045,Cafe Tarifa,Avenida de Miraflores 23,Sevilla
cafe,37.3475549,-5.9833584,Cafetería Kaldi,Avenida de Grecia 23,Sevilla
cafe,37.3471611,-5.9803216,Cafetería Las Dos Orillas,Avenida Paseo de Europa 12,Sevilla
cafe,37.3769875,-5.9401285,Dulces Tentaciones,Calle Baena 9999,Sevilla
cafe,37.3768777,-5.9399394,Cafetería Heladería Halcón,Calle Baena 9999,Sevilla
cafe,37.3758701,-5.9414953,Oasis Heladeria Pasteleria Arabe,Calle La Puebla del Rio 8,Sevilla
cafe,37.3782981,-5.9396832,Cafetería Jacaranda,Calle Posadas 35,Sevilla
cafe,37.3515655,-6.0401499,Corimbo,NO STREET 9999,Sevilla
cinema,37.3839734,-5.9725307,Cinesur Nervión Plaza 3D,NO STREET 9999,Sevilla
cinema,37.3923581,-6.0018093,Cines Avenida,Calle Marqués de Paradas 15,Sevilla
cinema,37.3955971,-5.9945452,Cine Cervantes,NO STREET 9999,Sevilla
cinema,37.396932,-5.994798,Alameda,NO STREET 9999,Sevilla
cinema,37.3918975,-6.002412,Cinesa,NO STREET 9999,Sevilla
cinema,37.4052904,-5.9363432,Cine Zona Este,NO STREET 9999,Sevilla
cinema,37.3796192,-6.0726479,Al Andalus Multicines,Avenida República Argentina 9999,Sevilla
cinema,37.3502257,-6.0515577,UCC Metromar,NO STREET 9999,Sevilla
cinema,37.3919814,-6.0296365,Cinesa Camas 3D,Calle Poeta Muñoz San Román 9999,Sevilla
cinema,37.4081448,-6.0018029,NO NAME,NO STREET 9999,Sevilla
cinema,37.3645978,-6.0241252,Cine de verano,NO STREET 9999,Sevilla
cinema,37.3790691,-6.0006979,La Maleta Films,Calle Salado 11-Local 8,Sevilla
cinema,37.3780443,-5.996255,Méliès – Cine Café,NO STREET 9999,Sevilla
theatre,37.3936363,-5.9956702,La Imperdible,NO STREET 9999,Sevilla
theatre,37.393965,-5.9877855,Sala Cero,Calle Sol 5,Sevilla
theatre,37.3828085,-5.9787405,Teatro Jardines De La Buhaira,Eduardo Dato 9999,Sevilla
theatre,37.3810586,-5.9735217,carmen del monte,NO STREET 9999,Sevilla
theatre,37.3881144,-5.9609221,Multicines,NO STREET 9999,Sevilla
theatre,37.4050495,-6.0074317,SGAE,NO STREET 9999,Sevilla
theatre,37.3585187,-6.0337945,NO NAME,NO STREET 9999,Sevilla
theatre,37.3648502,-6.080493,NO NAME,NO STREET 9999,Sevilla
theatre,37.3876143,-6.0782919,Teatro El Tronío,NO STREET 9999,Sevilla
theatre,37.3929419,-5.9928387,Sala Joaquín Turina,NO STREET 9999,Sevilla
theatre,37.392486,-5.9936943,Casa de la Memoria,NO STREET 6,Sevilla
theatre,37.3951831,-5.9816244,NO NAME,NO STREET 9999,Sevilla
theatre,37.3852219,-5.9897926,NO NAME,NO STREET 9999,Sevilla
theatre,37.3851673,-5.9886856,Tablao Flamenco Los Gallos,Plaza de Santa Cruz 11,Sevilla
theatre,37.3890955,-6.0001492,NO NAME,NO STREET 9999,Sevilla
theatre,37.3861007,-5.9896127,NO NAME,NO STREET 9999,Sevilla
theatre,37.3883446,-6.0070532,NO NAME,Calle Castilla 94,Sevilla
theatre,37.3856022,-6.0037948,Casalá Teatro,NO STREET 9999,Sevilla
theatre,37.3833163,-6.0006083,Teatro Flamenco Triana,NO STREET 9999,Sevilla
theatre,37.4011082,-5.9882914,La sala,NO STREET 9999,Sevilla
theatre,37.3678914,-5.9603943,Teatro Salvador Távora,8 9999,Sevilla
theatre,37.3876542,-5.9931973,Tablao Álvarez Quintero,NO STREET 9999,Sevilla
