tipo,lat,lon,name,address,location
restaurant,39.4710138,-0.3806733,Les Roques,NO STREET 9999,Valencia
restaurant,39.4708998,-0.3812193,La Masía del Vino,NO STREET 9999,Valencia
restaurant,39.470892,-0.3830845,Aladino,NO STREET 9999,Valencia
restaurant,39.477108,-0.3632784,Foster's Hollywood,NO STREET 9999,Valencia
restaurant,39.4519266,-0.3739882,Casa Manolo,NO STREET 9999,Valencia
restaurant,39.4508285,-0.3732921,Casa Tere,NO STREET 9999,Valencia
restaurant,39.4505895,-0.3730823,NO NAME,NO STREET 9999,Valencia
restaurant,39.4517073,-0.3723198,Saisua,NO STREET 9999,Valencia
restaurant,39.4513061,-0.372035,Chino Nuevo Siglo,NO STREET 9999,Valencia
restaurant,39.4483496,-0.3678916,Bar San Luís,NO STREET 9999,Valencia
restaurant,39.4503085,-0.3715924,Los Bestias,NO STREET 9999,Valencia
restaurant,39.4849007,-0.3379912,El Famós,Camí de L'esglesia de Vera 14,Valencia
restaurant,39.4955817,-0.4016255,Yashi Wok,NO STREET 9999,Valencia
restaurant,39.4742601,-0.3812275,DJango,NO STREET 9999,Valencia
restaurant,39.4737322,-0.3818644,Bipolar,Plaza de las Escuelas Pías 3,Valencia
restaurant,39.4746657,-0.3835167,Restaurante Aldaba,NO STREET 9999,Valencia
restaurant,39.4758321,-0.3830933,Canela Arroces,Carrer de Quart 57,Valencia
restaurant,39.4742592,-0.3808255,Dhaba,Plaça de Joan de Vila-rasa 6,Valencia
restaurant,39.4777599,-0.375785,Las Cuevas,NO STREET 9999,Valencia
restaurant,39.4775749,-0.3555903,Bar Pekin,NO STREET 9999,Valencia
restaurant,39.470194,-0.3837139,Pegaso,NO STREET 9999,Valencia
restaurant,39.5462512,-0.386134,Restaurante Intos,NO STREET 9999,Valencia
restaurant,39.5453175,-0.3851696,Ca Màxim,NO STREET 9999,Valencia
restaurant,39.5429834,-0.3870116,Campanaris,NO STREET 9999,Valencia
restaurant,39.4852451,-0.3984648,Restaurante Chino Mei Hua II,NO STREET 9999,Valencia
restaurant,39.5308304,-0.4430676,Wok,NO STREET 9999,Valencia
restaurant,39.5004598,-0.4256116,Velódromo,NO STREET 9999,Valencia
restaurant,39.5005153,-0.4250539,Las Palmeras,NO STREET 9999,Valencia
restaurant,39.5019612,-0.4260315,Mesón Ferial,NO STREET 9999,Valencia
restaurant,39.5020352,-0.4263297,Valencia Restaurante,NO STREET 9999,Valencia
restaurant,39.5025265,-0.4266168,Escorial,NO STREET 9999,Valencia
restaurant,39.5023408,-0.4251853,Los Pinos,NO STREET 9999,Valencia
restaurant,39.5028695,-0.4258175,Restaurante Casa Emilia,NO STREET 9999,Valencia
restaurant,39.5037304,-0.4249277,Duke,NO STREET 9999,Valencia
restaurant,39.4635462,-0.3234952,La Marcelina,Passeig de Neptú 8,Valencia
restaurant,39.4748689,-0.3749513,Petit MontMartre,NO STREET 9999,Valencia
restaurant,39.4759235,-0.3772467,Bodeguilla del Gato,Carrer Catalans 10,Valencia
restaurant,39.4729859,-0.3580375,NO NAME,NO STREET 9999,Valencia
restaurant,39.468156,-0.3802543,San Augustin,NO STREET 9999,Valencia
restaurant,39.4714781,-0.3776459,La Terrazza,NO STREET 9999,Valencia
restaurant,39.4733028,-0.3761283,Sagardi,Carrer de Sant Vicent Màrtir 6,Valencia
restaurant,39.5087902,-0.3232178,Che Boludo,Plaça Major 9999,Valencia
restaurant,39.5083964,-0.3217467,NO NAME,NO STREET 9999,Valencia
restaurant,39.5089009,-0.3235106,Plaza,NO STREET 9999,Valencia
restaurant,39.5125554,-0.3211285,NO NAME,NO STREET 9999,Valencia
restaurant,39.5114628,-0.3207101,NO NAME,NO STREET 9999,Valencia
restaurant,39.5124844,-0.337586,Les Tendes,NO STREET 9999,Valencia
restaurant,39.5128237,-0.3382694,La Lluna,NO STREET 9999,Valencia
restaurant,39.5479743,-0.3896247,NO NAME,NO STREET 9999,Valencia
restaurant,39.5461046,-0.3893726,Pizzeria Piccolina,NO STREET 9999,Valencia
restaurant,39.543547,-0.3962283,Ca Paco,NO STREET 9999,Valencia
restaurant,39.5455595,-0.3961157,Calero,NO STREET 9999,Valencia
restaurant,39.5425999,-0.3924785,Cafe i Mes,NO STREET 9999,Valencia
restaurant,39.5433398,-0.3885098,Puntarró,NO STREET 9999,Valencia
restaurant,39.5424794,-0.3902157,Pizzeria Da Pino,NO STREET 9999,Valencia
restaurant,39.5449137,-0.3936234,Musical,NO STREET 9999,Valencia
restaurant,39.4554213,-0.3938171,La Luna,NO STREET 9999,Valencia
restaurant,39.4546812,-0.3944831,Ebro,NO STREET 9999,Valencia
restaurant,39.4636463,-0.3235039,Azahar,Passeig de Neptú 10,Valencia
restaurant,39.4649003,-0.3688996,Casa Roberto,Calle del Maestro Gozalbo 19,Valencia
restaurant,39.4633974,-0.3234726,La Pepica,Passeig de Neptú 6,Valencia
restaurant,39.4637145,-0.32351,El Coso,Passeig de Neptú 12,Valencia
restaurant,39.4642871,-0.323598,Restaurante Miramar,Passeig de Neptú 32,Valencia
restaurant,39.4639856,-0.3235554,Tres Cepas,Passeig de Neptú 22,Valencia
restaurant,39.4638677,-0.3235343,L'Estimat,Passeig de Neptú 16,Valencia
restaurant,39.4663046,-0.3245234,Sorolla,Calle Eugenia Viñes 22,Valencia
restaurant,39.463194,-0.3234363,Tridente,Passeig de Neptú 2,Valencia
restaurant,39.4641847,-0.3235828,Las Carabelas,Passeig de Neptú 28,Valencia
restaurant,39.4823648,-0.4466263,Quart i Mig,NO STREET 9999,Valencia
restaurant,39.4824785,-0.4419399,Nou Ruby,NO STREET 9999,Valencia
restaurant,39.48252,-0.4421314,Bar El Casino,NO STREET 9999,Valencia
restaurant,39.4774825,-0.3780204,La Mandrágora,Calle de la Mare Vella 15,Valencia
restaurant,39.4227706,-0.3404649,La Genuina,NO STREET 9999,Valencia
restaurant,39.4805806,-0.3943088,Bierwinkel,Calle del Valle de la Ballestera 11,Valencia
restaurant,39.4805271,-0.3944235,Comidas Campanar,Calle del Valle de la Ballestera 11,Valencia
restaurant,39.4791988,-0.39189,Chino Feliz,Avenida Pío XII 9999,Valencia
restaurant,39.4806349,-0.3929191,Restaurante Pío XII,Avenida Pío XII 9999,Valencia
restaurant,39.4793027,-0.391964,Taberna Montero,Avenida Pío XII 1,Valencia
restaurant,39.4786603,-0.3940266,Hui No Cuine,NO STREET 9999,Valencia
restaurant,39.4790676,-0.3917966,Tokyo,Avenida Pío XII 1,Valencia
restaurant,39.4804704,-0.3967025,Los Alpes,Calle del Grabador Enguídanos 45,Valencia
restaurant,39.481467,-0.3939098,La Cuina de Boro,Avenida Pío XII 19,Valencia
restaurant,39.4807121,-0.3939515,Restaurante Estancia la Española,Calle del Valle de la Ballestera 7-9,Valencia
restaurant,39.4746785,-0.3758306,Bri De Safrà,Plaza de la Reina 11,Valencia
restaurant,39.4631423,-0.4577753,Restaurante L'Italiano,Plaza de Europa 9999,Valencia
restaurant,39.4778644,-0.3971542,Restaurante D'Antonella,NO STREET 9999,Valencia
restaurant,39.4786511,-0.4016925,Restaurante DiBocca,NO STREET 9999,Valencia
restaurant,39.5295253,-0.440418,Foster's Hollywood,Centro Comercial Heron City 9999,Valencia
restaurant,39.4516478,-0.4597119,Salones Sulya,Avinguda Pablo Iglesias 54,Valencia
restaurant,39.5302989,-0.4414025,100 montaditos,NO STREET 9999,Valencia
restaurant,39.5070422,-0.4066778,La Casa de Lito,NO STREET 9999,Valencia
restaurant,39.5306248,-0.4407109,NO NAME,NO STREET 9999,Valencia
restaurant,39.529593,-0.4413918,Sagardi,NO STREET 9999,Valencia
restaurant,39.529667,-0.4406022,Tommy Mel's,NO STREET 9999,Valencia
restaurant,39.5298035,-0.4407309,Rickel's,Heron City (Centro de Ocio) 9999,Valencia
restaurant,39.4606202,-0.4605181,Bar La Casa Nostra,Joaquin Blume 10,Valencia
restaurant,39.4709006,-0.3431484,Pizza Express,Carrer de l'Explorador Andrés 48,Valencia
restaurant,39.4752392,-0.3817483,"Prêt-à-Porter ""Comidas para llevar""",Carrer Murillo 10 (bajo),Valencia
restaurant,39.4615198,-0.3421098,Meson Rincon de Asturias,NO STREET 9999,Valencia
restaurant,39.4617007,-0.3443278,La Alqueria Arroces,NO STREET 9999,Valencia
restaurant,39.463436,-0.3458647,Cerveceria Restaurante Islas Canarias,NO STREET 9999,Valencia
restaurant,39.4635665,-0.3456669,NO NAME,NO STREET 9999,Valencia
restaurant,39.461475,-0.3472326,Comidas Caseras El Castillo de la Mota,NO STREET 9999,Valencia
restaurant,39.4612617,-0.346959,Spiaggia Ristorante Pizzeria,NO STREET 9999,Valencia
restaurant,39.4625188,-0.343762,Bar 130,NO STREET 9999,Valencia
restaurant,39.4633692,-0.3445474,Donner Kebab,NO STREET 9999,Valencia
restaurant,39.4624713,-0.3432865,Super kebab,NO STREET 9999,Valencia
restaurant,39.4686655,-0.3324479,Bodega bar Flor,NO STREET 9999,Valencia
restaurant,39.4645825,-0.4582481,Bar Avenida,NO STREET 9999,Valencia
restaurant,39.466305,-0.4583732,Bar Bremen,NO STREET 9999,Valencia
restaurant,39.4623706,-0.4591966,Heladería Europa,NO STREET 9999,Valencia
restaurant,39.4651226,-0.4617956,Jijonenca,NO STREET 9999,Valencia
restaurant,39.465291,-0.4617523,La Llesqueria,"San Antoni, 1 1",Valencia
restaurant,39.4887068,-0.3752922,Bar Mojacar,Calle de Sagunto 131,Valencia
restaurant,39.4628922,-0.4261023,Bar L'Alqueria,NO STREET 9999,Valencia
restaurant,39.5437856,-0.3874031,Bar Racó de Vega,NO STREET 9999,Valencia
restaurant,39.455439,-0.3667524,la del trovador,NO STREET 9999,Valencia
restaurant,39.4558978,-0.3656538,Casa Jose - Bodega la Mancha,NO STREET 9999,Valencia
restaurant,39.456241,-0.3647549,NO NAME,NO STREET 9999,Valencia
restaurant,39.4568386,-0.3638161,NO NAME,NO STREET 9999,Valencia
restaurant,39.4571201,-0.3680658,NO NAME,NO STREET 9999,Valencia
restaurant,39.457631,-0.3681332,NO NAME,NO STREET 9999,Valencia
restaurant,39.4588739,-0.3685293,Aleimuna,NO STREET 9999,Valencia
restaurant,39.4603501,-0.368294,Suleman Doner Kebab y Pizza,NO STREET 9999,Valencia
restaurant,39.4605178,-0.3676955,Laifu,NO STREET 9999,Valencia
restaurant,39.4606562,-0.3675172,Colala Noodles & Sushi,NO STREET 9999,Valencia
restaurant,39.4596389,-0.3845408,Cruz Blanca,NO STREET 9999,Valencia
restaurant,39.4682437,-0.3759486,La Rollerie,NO STREET 9999,Valencia
restaurant,39.5185756,-0.4221067,Pizzeria,NO STREET 9999,Valencia
restaurant,39.4710078,-0.3751977,Puerta del Mar,Carrer dels Transits 4,Valencia
restaurant,39.472511,-0.3764676,Orio,NO STREET 9999,Valencia
restaurant,39.4826566,-0.443069,Ca Lola,NO STREET 9999,Valencia
restaurant,39.4614529,-0.3381372,Restaurante La Trucha,NO STREET 9999,Valencia
restaurant,39.4709824,-0.3724329,Garnacha Tinta,Calle Doctor Romagosa 3,Valencia
restaurant,39.4695162,-0.3579451,Samsha,Plaça del Periodista Ros Belda 4,Valencia
restaurant,39.4809653,-0.4446413,Bar Acuarium,NO STREET 9999,Valencia
restaurant,39.4826572,-0.448572,Bar Avenida 52,NO STREET 9999,Valencia
restaurant,39.4805711,-0.4358029,Bar Centro Andaluz,NO STREET 9999,Valencia
restaurant,39.4841857,-0.4417535,Bar Chaparros,NO STREET 9999,Valencia
restaurant,39.4829434,-0.4487005,Bar Ellos y Ellas,NO STREET 9999,Valencia
restaurant,39.4824879,-0.4503305,Bar Happy,NO STREET 9999,Valencia
restaurant,39.4811785,-0.4453257,Bar Juventud,NO STREET 9999,Valencia
restaurant,39.4803553,-0.4449106,Bar La Oficina,NO STREET 9999,Valencia
restaurant,39.4824448,-0.4500188,Bar Mayte,NO STREET 9999,Valencia
restaurant,39.4832152,-0.4426708,Bar Nelly,NO STREET 9999,Valencia
restaurant,39.4827928,-0.4499076,Bar Bonsai,NO STREET 9999,Valencia
restaurant,39.4828313,-0.4383906,Bar Quijote,NO STREET 9999,Valencia
restaurant,39.4826383,-0.4357964,Bar Racó de Pepe,NO STREET 9999,Valencia
restaurant,39.4810712,-0.4379231,Bar Valenzuela,NO STREET 9999,Valencia
restaurant,39.4824675,-0.4502116,Bar Casa Pepe,NO STREET 9999,Valencia
restaurant,39.4827832,-0.4498072,Bar Zamora,NO STREET 9999,Valencia
restaurant,39.4583455,-0.4492067,Las Tres Torres,NO STREET 9999,Valencia
restaurant,39.4574892,-0.4514154,Bocatería Castellanos,NO STREET 9999,Valencia
restaurant,39.4815084,-0.4403144,Casa Pedro,Carrer La Vega 11,Valencia
restaurant,39.4615581,-0.3748653,El Rús,NO STREET 9999,Valencia
restaurant,39.4637121,-0.3771463,El Bouet,Gran Via de les Germanies 34,Valencia
restaurant,39.4618863,-0.3741061,Breeza,NO STREET 9999,Valencia
restaurant,39.4613771,-0.3752774,Cuinarte,NO STREET 9999,Valencia
restaurant,39.4765287,-0.3472549,Restaurante el Viñedo,NO STREET 9999,Valencia
restaurant,39.5249316,-0.324691,Ca’ Pepico,NO STREET 9999,Valencia
restaurant,39.5410458,-0.3054655,L'Horta Nord,NO STREET 9999,Valencia
restaurant,39.4546357,-0.4048955,La última y nos vamos,NO STREET 9999,Valencia
restaurant,39.4285346,-0.467717,Asador Parc Central,NO STREET 9999,Valencia
restaurant,39.4677586,-0.3790578,Cervecería Suprem,NO STREET 9999,Valencia
restaurant,39.4685316,-0.3812678,Charlotte,NO STREET 9999,Valencia
restaurant,39.4674179,-0.3777919,PadThaiWok,NO STREET 9999,Valencia
restaurant,39.4677772,-0.3787044,La tagliatella,NO STREET 9999,Valencia
restaurant,39.4676296,-0.3750095,Helados Amorino,NO STREET 9999,Valencia
restaurant,39.4658231,-0.3741734,VIPS,Carrer de Russafa 21,Valencia
restaurant,39.4685955,-0.3767321,Café Templo,NO STREET 9999,Valencia
restaurant,39.4688687,-0.3755924,Gustore,NO STREET 9999,Valencia
restaurant,39.4716558,-0.3686386,Azúcar y Sal,NO STREET 9999,Valencia
restaurant,39.4724845,-0.3676268,Fuji,NO STREET 9999,Valencia
restaurant,39.4710629,-0.3487834,Bodega El Labrador,NO STREET 9999,Valencia
restaurant,39.4736535,-0.3485182,Döner Kebab Sofra,Av. de Blasco Ibáñez 110,Valencia
restaurant,39.472818,-0.3484557,NO NAME,NO STREET 9999,Valencia
restaurant,39.4718064,-0.3489855,Heladería El Panete,Carrer del Doctor Manuel Candela 65,Valencia
restaurant,39.4702669,-0.3495882,Döner Kebab Amigo,NO STREET 9999,Valencia
restaurant,39.4670966,-0.3746667,CupCake,NO STREET 9999,Valencia
restaurant,39.4684817,-0.3726522,Cafetería Bahía,NO STREET 9999,Valencia
restaurant,39.4737399,-0.348701,NO NAME,NO STREET 9999,Valencia
restaurant,39.4730295,-0.3463461,La lobera de xiqui,NO STREET 9999,Valencia
restaurant,39.4733996,-0.3439569,Bar El Rincón,NO STREET 9999,Valencia
restaurant,39.474437,-0.347137,Sayam 87,NO STREET 9999,Valencia
restaurant,39.4742298,-0.3464962,Bar La Jungla,NO STREET 9999,Valencia
restaurant,39.4719896,-0.3427765,Bar Ven a Casa,NO STREET 9999,Valencia
restaurant,39.4730578,-0.3430314,Bodega La Ibérica,NO STREET 9999,Valencia
restaurant,39.4739133,-0.3442389,Comic Bar,NO STREET 9999,Valencia
restaurant,39.4741158,-0.3441326,Divina Comedia,NO STREET 9999,Valencia
restaurant,39.4735655,-0.3445119,Pizzeria Doner Kebab Kilim,NO STREET 9999,Valencia
restaurant,39.4742145,-0.3464315,Restaurante Libanés,NO STREET 9999,Valencia
restaurant,39.4744631,-0.3472264,100 Montaditos,NO STREET 9999,Valencia
restaurant,39.4401897,-0.4589442,Salibell,NO STREET 9999,Valencia
restaurant,39.4541329,-0.4635982,Restaurante la Sequieta,Avinguda Camí vell de Torrent 28,Valencia
restaurant,39.5167247,-0.4094546,Restaurante Ida y Vuelta,Carrer Ample 5,Valencia
restaurant,39.4615907,-0.3343801,Bodega La Peseta,Carrer del Crist del Grau 16,Valencia
restaurant,39.464243,-0.33169,La Paca,Carrer del Rosari 30,Valencia
restaurant,39.4614781,-0.3343963,Tasca Vegetariana Nehuen,Carrer del Crist del Grau 14,Valencia
restaurant,39.4685563,-0.3829273,The Nature,Plaça de Vannes 7,Valencia
restaurant,39.4669791,-0.3654788,Loving Hut,Calle del Conde de Altea 44,Valencia
restaurant,39.4607625,-0.373582,Copenhagen,Carrer del Literat Azorín 8,Valencia
restaurant,39.4605726,-0.3746047,Malmö,Carrer Sueca 46,Valencia
restaurant,39.4640194,-0.3708966,Bio Restaurant Tarta de Zanahoria,Carrer Pintor Salvador Abril 3,Valencia
restaurant,39.4768487,-0.3854877,Ana Eva,Calle Turia 49,Valencia
restaurant,39.4629662,-0.3745041,La Fusteria.RSF,Calle Cádiz 28,Valencia
restaurant,39.463442,-0.3739747,La Tavernaire,Calle Denia 18,Valencia
restaurant,39.4782837,-0.3819732,La Lluna,Carrer de Sant Ramon 23,Valencia
restaurant,39.4734593,-0.349821,Les Maduixes,Carrer de Daoíz y Velarde 4,Valencia
restaurant,39.4690794,-0.3776139,Kimpira,Carrer del Convent de Sant Francesc 5,Valencia
restaurant,39.4602013,-0.3723166,MalaMia,Carrer de Cadis 67,Valencia
restaurant,39.4850151,-0.3265048,Pizzeria Un Posto Al Sole,NO STREET 9999,Valencia
restaurant,39.4678644,-0.3601807,Che Boludo,Passeig de l'Alameda 31b,Valencia
restaurant,39.4615609,-0.3980575,Los Cuatro Arcos,Carrer de l'Alquería de Benlloch 9999,Valencia
restaurant,39.4800813,-0.377591,Blanqueries,"Calle Blanquerias 12 46003, 46003 Valencia Spanien 9999",Valencia
restaurant,39.4687416,-0.3559286,Mesón de Escobar,Avinguda del Cardenal Benlloch 31,Valencia
restaurant,39.4612291,-0.3874642,La Casa del Tapeo,Carrer de Jesús 95,Valencia
restaurant,39.4627882,-0.3377336,Mesón Las Espigas,Carrer de la Serradora 9999,Valencia
restaurant,39.4669979,-0.3254882,La Pampa,NO STREET 9999,Valencia
restaurant,39.4617987,-0.3637464,Velarte,Avinguda de Peris i Valero 178,Valencia
restaurant,39.4795172,-0.3767992,Restaurante Serranos,Carrer de la Blanqueria 5,Valencia
restaurant,39.4830703,-0.4517193,Mesón San Juan,Avenida de Madrid 1,Valencia
restaurant,39.4649855,-0.384658,Asador Jeromin,Carrer de Jesús 56,Valencia
restaurant,39.4771625,-0.3526901,Mesón El Rebeco,Carrer de l'Historiador Claudio Sánchez Albornoz 7,Valencia
restaurant,39.464984,-0.3930023,La Andaluza,NO STREET 9999,Valencia
restaurant,39.4688456,-0.4019813,El Campeador,NO STREET 9999,Valencia
restaurant,39.4685971,-0.3874797,Villaplana,NO STREET 9999,Valencia
restaurant,39.4740403,-0.3561972,Aragon 58,NO STREET 9999,Valencia
restaurant,39.4925989,-0.38876,L'Aldea,Carrer del Poeta Serrano Clavero 30,Valencia
restaurant,39.4749946,-0.3530011,El Nuevo Virrey,NO STREET 9999,Valencia
restaurant,39.4753949,-0.361852,Mestalla,Carrer de Misser Mascó 25,Valencia
restaurant,39.4658829,-0.4147229,Mesón La Tapa,Carrer Andrés Segovia 9999,Valencia
restaurant,39.4834626,-0.3583756,NO NAME,NO STREET 9999,Valencia
restaurant,39.4872038,-0.3921065,Mesón Canela,Carrer de Conchita Piquer 9,Valencia
restaurant,39.4699129,-0.4138532,Mesón Castilla,Avinguda del Cid 158,Valencia
restaurant,39.4729346,-0.3882735,Casa Nuria,Calle del Literato Gabriel Miró 5,Valencia
restaurant,39.4638212,-0.3884419,Entrepà,Carrer Conca 71,Valencia
restaurant,39.5088542,-0.4548822,Restaurante cafetería Benimar,NO STREET 9999,Valencia
restaurant,39.5097954,-0.4526723,Restaurante Arco Iris,NO STREET 9999,Valencia
restaurant,39.4761229,-0.3517879,City Poké (Blasco Ibáñez),Carrer del Clariano 4,Valencia
restaurant,39.4652196,-0.3446311,Restaurante Casa Vonica,NO STREET 9999,Valencia
restaurant,39.4721382,-0.3751753,La Utielana,Plaça Picador de Dos Aigües 3,Valencia
restaurant,39.492739,-0.4003002,100 Montaditos,NO STREET 9999,Valencia
restaurant,39.4790465,-0.3407191,NO NAME,NO STREET 9999,Valencia
restaurant,39.485724,-0.3255208,Casa Navarro,NO STREET 9999,Valencia
restaurant,39.4853954,-0.3255498,Casa Patacona,NO STREET 9999,Valencia
restaurant,39.4851991,-0.3255738,La Mas Bonita,Paseo Marítimo de la Patacona 11,Valencia
restaurant,39.4843984,-0.3256766,Llevant,NO STREET 9999,Valencia
restaurant,39.4858587,-0.325493,Spaghetti & Blues,NO STREET 9999,Valencia
restaurant,39.474413,-0.3830424,Ligazón,NO STREET 9999,Valencia
restaurant,39.4777024,-0.3809173,Express,NO STREET 9999,Valencia
restaurant,39.4805848,-0.3581425,Casa Clemencia,NO STREET 9999,Valencia
restaurant,39.4715936,-0.3755059,Taberna Las Meninas,NO STREET 9999,Valencia
restaurant,39.4715898,-0.3752627,Geppetto,NO STREET 9999,Valencia
restaurant,39.4715059,-0.3751717,Nederland,NO STREET 9999,Valencia
restaurant,39.4722173,-0.3750512,Ñam,Carrer de Sant Andreu 4,Valencia
restaurant,39.4746051,-0.3770666,El bon menjar,NO STREET 9999,Valencia
restaurant,39.4543782,-0.3596075,Bar Bulevar,NO STREET 9999,Valencia
restaurant,39.4598439,-0.3758111,El Raga,Calle Cuba 9999,Valencia
restaurant,39.4535628,-0.3595371,El rincón de Cai,NO STREET 9999,Valencia
restaurant,39.4603557,-0.3646217,La tasca argentina,NO STREET 9999,Valencia
restaurant,39.4626323,-0.3691608,Tora,NO STREET 9999,Valencia
restaurant,39.4535533,-0.3590626,NO NAME,NO STREET 9999,Valencia
restaurant,39.454591,-0.3597789,NO NAME,NO STREET 9999,Valencia
restaurant,39.4561765,-0.3585333,NO NAME,NO STREET 9999,Valencia
restaurant,39.4580503,-0.3605874,NO NAME,NO STREET 9999,Valencia
restaurant,39.4586209,-0.3655288,NO NAME,NO STREET 9999,Valencia
restaurant,39.4587036,-0.366444,NO NAME,NO STREET 9999,Valencia
restaurant,39.4596821,-0.3665573,NO NAME,NO STREET 9999,Valencia
restaurant,39.4597947,-0.3706642,Yun Nan,NO STREET 9999,Valencia
restaurant,39.4601005,-0.3686717,NO NAME,NO STREET 9999,Valencia
restaurant,39.4602871,-0.3760414,El bocata de pataca II,NO STREET 9999,Valencia
restaurant,39.4606169,-0.3707162,NO NAME,NO STREET 9999,Valencia
restaurant,39.4607557,-0.3718609,La Pizarra,NO STREET 9999,Valencia
restaurant,39.4610347,-0.3709672,NO NAME,NO STREET 9999,Valencia
restaurant,39.4615161,-0.3626504,Fabianos,NO STREET 9999,Valencia
restaurant,39.4618134,-0.3748807,NO NAME,NO STREET 9999,Valencia
restaurant,39.4619052,-0.375555,NO NAME,NO STREET 9999,Valencia
restaurant,39.462104,-0.3732805,NO NAME,NO STREET 9999,Valencia
restaurant,39.4622385,-0.3728928,Beirut King Ruzafa,Calle del Cura Femenía 12,Valencia
restaurant,39.4622536,-0.3737335,NO NAME,NO STREET 9999,Valencia
restaurant,39.4624952,-0.3695386,NO NAME,NO STREET 9999,Valencia
restaurant,39.4625787,-0.3692861,Nozomi Shusi Bar,Carrer de Pere III el Gran 11D,Valencia
restaurant,39.4633038,-0.3670581,Little Thai Ruzafa,NO STREET 9999,Valencia
restaurant,39.4633835,-0.3678489,Ruzanuvol,Carrer de Lluís de Santàngel 3,Valencia
restaurant,39.463678,-0.3699802,Canalla Bistro by Ricard Camarena,Carrer del Mestre Josep Serrano 5,Valencia
restaurant,39.4637398,-0.3697885,NO NAME,NO STREET 9999,Valencia
restaurant,39.4638967,-0.3698386,Pare Pere,NO STREET 9999,Valencia
restaurant,39.4640579,-0.3711814,Ramen Kuma,Carrer del Pintor Salvador Abril 6,Valencia
restaurant,39.4642892,-0.3689684,Goya Gallery Restaurant,NO STREET 9999,Valencia
restaurant,39.4648719,-0.3722834,Gran Rojo,NO STREET 9999,Valencia
restaurant,39.4751591,-0.3777032,Tasca La Purísima,Carrer de la Puríssima 9999,Valencia
restaurant,39.4757865,-0.3772891,Oslo,Carrer Catalans 8,Valencia
restaurant,39.4646179,-0.4586167,La casa del tapeo,Avenida Blasco Ibañez 9999,Valencia
restaurant,39.4746047,-0.3758432,Cerveceria 100 Montaditos,Plaça de la Reina 10,Valencia
restaurant,39.4706843,-0.3760754,Café y Tapas,Plaza del Ayuntamiento 18,Valencia
restaurant,39.4742157,-0.3776199,El Kiosko,NO STREET 9999,Valencia
restaurant,39.4743259,-0.3759237,NO NAME,Plaça de la Reina 9,Valencia
restaurant,39.4732073,-0.3773654,Mediterránea de Hamburguesas,Carrer Sant Ferran 22,Valencia
restaurant,39.4765733,-0.3718106,Secreter,Carrer dels Mestres 5,Valencia
restaurant,39.5015059,-0.4225154,Restaurante Chino Especial,NO STREET 9999,Valencia
restaurant,39.527487,-0.4259529,L'Albergina,Calle Ermita Nueva 9999,Valencia
restaurant,39.4974981,-0.4165881,La Taberneta,NO STREET 9999,Valencia
restaurant,39.5027714,-0.418176,Americano,NO STREET 9999,Valencia
restaurant,39.5004865,-0.4186916,Cervantes,Calle de Felipe Valls 30,Valencia
restaurant,39.4973246,-0.416063,NO NAME,Calle del Parróco Don Miguel Tarin 9999,Valencia
restaurant,39.4936606,-0.3816232,La Coloratta,Carrer de Pedro Cabanes 104,Valencia
restaurant,39.4757993,-0.3800664,Sidreria El Molinon,Carrer de la Bosseria 40,Valencia
restaurant,39.4625611,-0.3718079,Amadeus Lounge,NO STREET 9999,Valencia
restaurant,39.4628337,-0.3718167,Cafecito,NO STREET 9999,Valencia
restaurant,39.475441,-0.3835697,Milonga,NO STREET 9999,Valencia
restaurant,39.474754,-0.3774723,El Rall,NO STREET 9999,Valencia
restaurant,39.4606996,-0.3853283,"23, Giorgeta",Giorgeta 23,Valencia
restaurant,39.4772926,-0.3751093,El Generalife,Carrer de Navellos 11,Valencia
restaurant,39.4336102,-0.4334835,NO NAME,NO STREET 9999,Valencia
restaurant,39.476001,-0.3808952,Casa La Pepa,Carrer de la Conquesta 8,Valencia
restaurant,39.4721861,-0.3855269,Espinosa,Carrer Espinosa 20,Valencia
restaurant,39.4682454,-0.376135,Lizarran,Carrer del Convent de Santa Clara 9,Valencia
restaurant,39.4683523,-0.3765018,Bordo Storie di Farina,Carrer del Convent de Santa Clara 12,Valencia
restaurant,39.4683618,-0.3761095,Tommy Mel's,Carrer del Convent de Santa Clara 8,Valencia
restaurant,39.4540702,-0.4623064,Arrocería las Viandas,NO STREET 9999,Valencia
restaurant,39.421782,-0.334497,Mediterraneo,NO STREET 9999,Valencia
restaurant,39.4667964,-0.3254579,Hostería El Vizio,NO STREET 9999,Valencia
restaurant,39.4700797,-0.3567137,The Book,NO STREET 9999,Valencia
restaurant,39.4763211,-0.3774269,La Salvatore,Carrer de Calatrava 19,Valencia
restaurant,39.4765677,-0.3774241,Caballeros 21,NO STREET 9999,Valencia
restaurant,39.4612237,-0.3762383,A la Fresca,NO STREET 9999,Valencia
restaurant,39.4681489,-0.3812753,NO NAME,NO STREET 9999,Valencia
restaurant,39.4734575,-0.355609,bodega La Encina,Bélgica 12,Valencia
restaurant,39.4771818,-0.3572197,Bakery & Burguer,blasco ibañez 29,Valencia
restaurant,39.4905381,-0.4019424,Marina Alta,NO STREET 9999,Valencia
restaurant,39.4755042,-0.3799065,La Roche,Bolseria 20,Valencia
restaurant,39.4680751,-0.3593514,Cinquecento,Avinguda del Port 3,Valencia
restaurant,39.4640859,-0.3235711,La Perla,Avinguda Neptú 24,Valencia
restaurant,39.4858125,-0.3650709,Gran Hong Kong,NO STREET 9999,Valencia
restaurant,39.4736692,-0.3440712,Café Seven 7,NO STREET 9999,Valencia
restaurant,39.4783889,-0.3799255,El Refugio,Carrer de Dalt 42,Valencia
restaurant,39.4742441,-0.3780803,Las Escaleras de la Lonja,NO STREET 9999,Valencia
restaurant,39.4751289,-0.3470797,Crapa Pelata,NO STREET 9999,Valencia
restaurant,39.4734416,-0.3440973,NO NAME,Avinguda de Blasco Ibáñez 115,Valencia
restaurant,39.4588597,-0.3472912,Restaurante A Punto,Calle Samuel Ros 49,Valencia
restaurant,39.5083204,-0.3224898,"Morena (bar, cerveceria, restorante, pizzeria)",NO STREET 9999,Valencia
restaurant,39.4586098,-0.3499839,Restaurante Pato Laqueado,Carrer de Vicente Beltrán Grimal 26,Valencia
restaurant,39.4594976,-0.3496171,Restaurante La Pequeña Pulperia,Avinguda de França 18,Valencia
restaurant,39.4594337,-0.3492514,Peggy Sue's,Avinguda de França 20,Valencia
restaurant,39.4739468,-0.3275361,Bodega La Pascuala,Carrer del Doctor Lluch 297,Valencia
restaurant,39.4686262,-0.3598533,Los Tres Cerditos Charcutaberna,Avinguda d'Aragó 4,Valencia
restaurant,39.4739174,-0.3783097,Bar Boatella Tapas,Plaça del Mercat 34,Valencia
restaurant,39.5141934,-0.3625542,Paipernil,Carretera de Barcelona 15,Valencia
restaurant,39.4756197,-0.3489798,Shish Mahal,Carrer del Poeta Artola 13,Valencia
restaurant,39.4711403,-0.3331654,FumFerro (Antiguo Raco de la xulla),Carrer de Vicent Ballester 38b,Valencia
restaurant,39.4888686,-0.400987,Madagaspark,Carrer de la Safor 9999,Valencia
restaurant,39.4671232,-0.3665341,Ristorante Roco de Turia,Carrer de Císcar 10,Valencia
restaurant,39.4671734,-0.3310849,Ca La Mar,NO STREET 9999,Valencia
restaurant,39.4605844,-0.3735017,Sueños de Merlín,Carrer del Literat Azorín 7,Valencia
restaurant,39.4682459,-0.3755873,La Taberna de la Reina,NO STREET 9999,Valencia
restaurant,39.4207594,-0.3341487,La Ferrera,Playa de Pinedo 9999,Valencia
restaurant,39.4671822,-0.3315252,La cuina de la iaia,Carrer del Rosari 89,Valencia
restaurant,39.4672438,-0.367516,nomit,NO STREET 9999,Valencia
restaurant,39.4822538,-0.3258216,Casa Carmela,Carrer d'Isabel de Villena 155,Valencia
restaurant,39.5051363,-0.4143129,Ademuz,Mariano Aser 54,Valencia
restaurant,39.4833476,-0.3266207,El chato,Carrer de Cavite 177,Valencia
restaurant,39.4574208,-0.3489205,Al Solito Posto,Passeig de l'Albereda 49,Valencia
restaurant,39.4820984,-0.3715783,Da Saro Ristorante Pizzeria,Calle Hugo de Moncada 19,Valencia
restaurant,39.4831256,-0.3751323,Il Ghiottone Napoletano,Calle Lérida 22,Valencia
restaurant,39.4536176,-0.3689692,Restaurante Mas Blayet,Avenida de la Plata 12,Valencia
restaurant,39.4636691,-0.323133,Portolito,NO STREET 9999,Valencia
restaurant,39.4718095,-0.4028392,Al Punto,Racó d'Ademús 17,Valencia
restaurant,39.5294364,-0.4403445,Ginos,Heron City (Centro de Ocio) 9999,Valencia
restaurant,39.4725838,-0.3712616,La gnocca del pirata,NO STREET 9999,Valencia
restaurant,39.4696253,-0.3733223,neco buffet,NO STREET 9999,Valencia
restaurant,39.4634674,-0.3679048,L'Alquimista,Luis Santángel 1,Valencia
restaurant,39.4964342,-0.4050979,Esencia,Plaza Gestalgar 4,Valencia
restaurant,39.4919883,-0.3997777,Taperia Hispania,NO STREET 9999,Valencia
restaurant,39.4920869,-0.3998559,Saona,Avinguda de les Corts Valencianes 26,Valencia
restaurant,39.4584943,-0.3594646,Bar Los Gallegos,Avinguda de la Plata 115,Valencia
restaurant,39.4655649,-0.3308998,Bodega Montaña,NO STREET 9999,Valencia
restaurant,39.4751873,-0.3548145,pichichi,Bélgica 9999,Valencia
restaurant,39.4725617,-0.3762344,Restaurante La Cata,NO STREET 9999,Valencia
restaurant,39.4548372,-0.3761615,Jardin,NO STREET 9999,Valencia
restaurant,39.4551046,-0.3775325,Diana,NO STREET 9999,Valencia
restaurant,39.4541544,-0.3753858,Despertar,NO STREET 9999,Valencia
restaurant,39.4610918,-0.371718,La Finestra,Calle Vivons 16,Valencia
restaurant,39.4598292,-0.373791,Kaña Makan,Carrer Sueca 61,Valencia
restaurant,39.4762242,-0.3487832,Tanto Monta,Carrer del Poeta Artola 19,Valencia
restaurant,39.4716454,-0.3684428,Porta Mar,NO STREET 9999,Valencia
restaurant,39.4462299,-0.3800582,Bar Sandra,Carretera de Malilla 99,Valencia
restaurant,39.4468857,-0.3802465,Los Fogones,Carretera de Malilla 100,Valencia
restaurant,39.447137,-0.3801818,Bar La Paz II,Carretera de Malilla 98,Valencia
restaurant,39.4483525,-0.3798892,L'alqueria de Malilla,Carretera de Malilla 84,Valencia
restaurant,39.4513648,-0.3793827,Bar Las Torres,Carrer Bernat Morales Sanmartín 13,Valencia
restaurant,39.4779276,-0.3629582,100 Montaditos,NO STREET 9999,Valencia
restaurant,39.4689162,-0.3662923,La Firma,Calle del Grabador Esteve 38,Valencia
restaurant,39.4749868,-0.3696126,Lienzo,Plaça de Tetuan 18,Valencia
restaurant,39.4717615,-0.3559196,Cervecería La Principal,Carrer de Polo y Peyrolón 5,Valencia
restaurant,39.4697397,-0.374393,El Poblet Restaurante,Carrer de Correus 8,Valencia
restaurant,39.4739248,-0.3738488,La Riua,Carrer de la Mar 27,Valencia
restaurant,39.468584,-0.3715276,NO NAME,Carrer d'Hernán Cortés 7,Valencia
restaurant,39.4628174,-0.3180697,NO NAME,NO STREET 9999,Valencia
restaurant,39.4578864,-0.346625,NO NAME,NO STREET 9999,Valencia
restaurant,39.4690749,-0.3467586,NO NAME,NO STREET 9999,Valencia
restaurant,39.4640975,-0.330555,La Regadera,Carrer del Progrés 23,Valencia
restaurant,39.5171331,-0.4553144,Bar-Restaurante Táctico,NO STREET 9999,Valencia
restaurant,39.5220822,-0.4717289,Mesón Castellanos,NO STREET 9999,Valencia
restaurant,39.5113681,-0.4711052,Bar-Restaurante La Cuesta,NO STREET 9999,Valencia
restaurant,39.5124511,-0.469787,Bar-Restaurante Chorros,NO STREET 9999,Valencia
restaurant,39.5138187,-0.4677193,Alfonso Restaurante,NO STREET 9999,Valencia
restaurant,39.4652886,-0.3510512,Bar Cafeteria El encuentro,Avinguda del Port 9999,Valencia
restaurant,39.4665299,-0.3670501,100 Montaditos,NO STREET 9999,Valencia
restaurant,39.468816,-0.3657422,Dela,Calle de Serrano Morales 9999,Valencia
restaurant,39.4748236,-0.3888935,Restaurante Yangtze,NO STREET 9999,Valencia
restaurant,39.4770536,-0.3969246,Kang Da,NO STREET 9999,Valencia
restaurant,39.4751114,-0.3766842,Bar & Kitchen,Plaça d'Ibanyes 9999,Valencia
restaurant,39.4749547,-0.3767026,La Bernarda,Carrer de Guillem del Rei 9999,Valencia
restaurant,39.5108471,-0.4527871,Restaurante chino Casa Sabrosa,NO STREET 9999,Valencia
restaurant,39.5058019,-0.447025,Mesón El Perita,NO STREET 9999,Valencia
restaurant,39.4746572,-0.377527,El Rall,NO STREET 9999,Valencia
restaurant,39.470951,-0.382913,Entretablas y Vinos,NO STREET 9999,Valencia
restaurant,39.4771237,-0.3803692,El Dorita,NO STREET 9999,Valencia
restaurant,39.4691407,-0.377606,Asador Pipol,NO STREET 9999,Valencia
restaurant,39.4765785,-0.3805391,Trapezzio,NO STREET 9999,Valencia
restaurant,39.4759208,-0.3801562,Jamón Jamón,Carrer de la Bosseria 9999,Valencia
restaurant,39.4670121,-0.3793271,Bai Wei Xuan,NO STREET 9999,Valencia
restaurant,39.4768959,-0.3803421,Restaurante San Miguel,NO STREET 9999,Valencia
restaurant,39.4770084,-0.3803554,Tasca El Botijo,NO STREET 9999,Valencia
restaurant,39.4803365,-0.3878535,Bar doner kebab Estación,NO STREET 9999,Valencia
restaurant,39.4753345,-0.3760863,La Pappardella,NO STREET 9999,Valencia
restaurant,39.492214,-0.3825899,Kebab Sona,NO STREET 9999,Valencia
restaurant,39.4614954,-0.3383201,Gustodelia,NO STREET 9999,Valencia
restaurant,39.4746797,-0.3770514,Pony Pisador,NO STREET 9999,Valencia
restaurant,39.4788451,-0.3787249,Palau de Pineda,Plaza Carmen 4,Valencia
restaurant,39.4779136,-0.3806333,Osteria del Carme,NO STREET 9999,Valencia
restaurant,39.4768212,-0.3785597,Los Sabores,NO STREET 9999,Valencia
restaurant,39.478582,-0.3786604,Taberna El Olivo,NO STREET 9999,Valencia
restaurant,39.4793794,-0.3782585,La Pitusa,NO STREET 9999,Valencia
restaurant,39.4763355,-0.3806746,El Celler Del Tossal,Carrer de Quart 2,Valencia
restaurant,39.4786153,-0.3785957,La Comisaria,NO STREET 9999,Valencia
restaurant,39.4777801,-0.3813085,La Taverna d'Enric,NO STREET 9999,Valencia
restaurant,39.4771336,-0.3721617,Boix Quatre,NO STREET 9999,Valencia
restaurant,39.4766146,-0.3744499,La Laboratorio,NO STREET 9999,Valencia
restaurant,39.4779657,-0.3800115,Thistinto,NO STREET 9999,Valencia
restaurant,39.4750327,-0.3796002,Muez,NO STREET 9999,Valencia
restaurant,39.4800435,-0.3798193,La Tasta Olletes,Carrer de Salvador Giner 6,Valencia
restaurant,39.4717687,-0.3769772,Foster's Hollywood,NO STREET 9999,Valencia
restaurant,39.4767409,-0.3825253,La botifarra,Carrer de Pinzón 12,Valencia
restaurant,39.4769834,-0.3797196,Baja Marea,NO STREET 9999,Valencia
restaurant,39.4753371,-0.3734341,Bar Restaurante Palau 11,Carrer del Palau 11,Valencia
restaurant,39.4781785,-0.3764244,La Gigrona,NO STREET 9999,Valencia
restaurant,39.4780252,-0.380861,El Forn del Carmen,Carrer de Sant Ramon 2,Valencia
restaurant,39.4740602,-0.3769267,Tasquita La Estrecha,Plaça de Lope de Vega 12,Valencia
restaurant,39.4693146,-0.3780354,Navarro,Carrer de l'Arquebisbe Mayoral 5,Valencia
restaurant,39.476992,-0.3754707,Delicat,Carrer del Comte d'Almodòvar 4,Valencia
restaurant,39.4708983,-0.3776949,Cocoa,NO STREET 9999,Valencia
restaurant,39.4716495,-0.3773421,Pepe Bucato,NO STREET 9999,Valencia
restaurant,39.4690276,-0.3911265,Comidas Garrido,NO STREET 9999,Valencia
restaurant,39.4691408,-0.3905879,Ponte Vecchio,NO STREET 9999,Valencia
restaurant,39.4689802,-0.3925107,Ali Oli,NO STREET 9999,Valencia
restaurant,39.4657577,-0.387255,Egunon,NO STREET 9999,Valencia
restaurant,39.4660863,-0.3857181,Montes,NO STREET 9999,Valencia
restaurant,39.465808,-0.38256,Ali Oli,NO STREET 9999,Valencia
restaurant,39.4140222,-0.3973086,DevisBar,NO STREET 9999,Valencia
restaurant,39.473661,-0.3756651,Vicentino,Carrer de Sant Vicent Màrtir 3,Valencia
restaurant,39.4674268,-0.380583,Kento Shop,Carrer de Sant Vicent Màrtir 100,Valencia
restaurant,39.4755045,-0.3759686,La Lola,Carrer Pujada del Toledà 8,Valencia
restaurant,39.4790412,-0.3774792,Almalibre Açaí Bar,Carrer de Roteros 16,Valencia
restaurant,39.477091,-0.3740703,Kuzina,Carrer del Salvador 5,Valencia
restaurant,39.4932171,-0.360099,Restaurante Pizzeria IL Vulcano,Calle Alfanhuir 47,Valencia
restaurant,39.4681159,-0.3557941,Restaurante Flor de Valencia 22,Avinguda del Cardenal Benlloch 22,Valencia
restaurant,39.4749052,-0.3776954,Tasca Ángel,NO STREET 9999,Valencia
restaurant,39.4779791,-0.3799244,iO,NO STREET 9999,Valencia
restaurant,39.4614057,-0.3758061,Restaurante Zakaria,NO STREET 9999,Valencia
restaurant,39.4648362,-0.3720965,Taberna Vasca Che,NO STREET 9999,Valencia
restaurant,39.4775557,-0.3826592,Lamburguesa,NO STREET 9999,Valencia
restaurant,39.473423,-0.3771265,Babalú,Calle Cerrajeros 17,Valencia
restaurant,39.4611505,-0.3747146,El Almacén,Carrer de Sueca 41,Valencia
restaurant,39.4671727,-0.3307387,L'Ancora canyamelar,NO STREET 9999,Valencia
restaurant,39.4569964,-0.3485996,Beirut King,Passeig de l'Alameda 50,Valencia
restaurant,39.4700092,-0.3794204,Paprika Natural Bistro,NO STREET 9999,Valencia
restaurant,39.4788587,-0.3763962,El Tap,NO STREET 9999,Valencia
restaurant,39.4786024,-0.3773699,Yuso,NO STREET 9999,Valencia
restaurant,39.4609256,-0.3745492,El Rodamon de Russafa,Carrer de Sueca 47,Valencia
restaurant,39.4539912,-0.3579383,Restaurante Valentin,Carrer Escultor Antonio Sacramento 11,Valencia
restaurant,39.4457022,-0.3585033,Restaurante El Pastoret,Carretera de la Font d'en Corts 88,Valencia
restaurant,39.492542,-0.401715,la tasca de juan,Avenida de las Cortes Valencianas 9999,Valencia
restaurant,39.4933377,-0.4006664,La parrilla,Avenida de las Cortes Valencianas 9999,Valencia
restaurant,39.4935222,-0.400897,TGB,NO STREET 9999,Valencia
restaurant,39.4678864,-0.3587929,NO NAME,NO STREET 9999,Valencia
restaurant,39.4630984,-0.3425297,Bar restaurante puerto,NO STREET 9999,Valencia
restaurant,39.4620165,-0.3388159,Bar Restaurante La Cascada,NO STREET 9999,Valencia
restaurant,39.4740152,-0.3257704,La lonja del pescado,Carrer d'Eugènia Viñes 243,Valencia
restaurant,39.4610914,-0.3369414,Fuji,NO STREET 9999,Valencia
restaurant,39.4635728,-0.3452224,REYS bar restaurant,NO STREET 9999,Valencia
restaurant,39.4661023,-0.353803,Asados Boro,NO STREET 9999,Valencia
restaurant,39.4683098,-0.3593539,Restaurante La Francesa del Carmen,Carrer de Felip Maria Garín 2,Valencia
restaurant,39.4687152,-0.3591523,Beirut King,Carrer de Felip Maria Garín 4,Valencia
restaurant,39.4654021,-0.3697647,La Gallineta,NO STREET 9999,Valencia
restaurant,39.468217,-0.3744904,Alenar Bodega,Carrer de Martínez Cubells 6,Valencia
restaurant,39.4694437,-0.3737462,Foodoo,NO STREET 9999,Valencia
restaurant,39.4682325,-0.3765725,Q Tomas?,Carrer del Convent de Santa Clara 13,Valencia
restaurant,39.4690777,-0.4130763,Lu Chang,NO STREET 9999,Valencia
restaurant,39.4683436,-0.3765593,Volapié,NO STREET 9999,Valencia
restaurant,39.4683538,-0.3751913,Pans,Paseo Ruzafa 5,Valencia
restaurant,39.4682111,-0.3743683,La Parrilla,NO STREET 9999,Valencia
restaurant,39.4688902,-0.3753108,Café & Té,NO STREET 9999,Valencia
restaurant,39.4682406,-0.3762846,Sofra,NO STREET 9999,Valencia
restaurant,39.4683529,-0.3764376,Krung Tep,NO STREET 9999,Valencia
restaurant,39.4658239,-0.3812877,The Good Burguer,NO STREET 9999,Valencia
restaurant,39.4682298,-0.3764978,MiJapo,NO STREET 9999,Valencia
restaurant,39.468222,-0.3746014,Goiko Grill,NO STREET 9999,Valencia
restaurant,39.4699004,-0.3736027,Sushi Point,NO STREET 9999,Valencia
restaurant,39.4682429,-0.376221,100 Montaditos,NO STREET 9999,Valencia
restaurant,39.4751763,-0.3762375,La Moma,NO STREET 9999,Valencia
restaurant,39.4720952,-0.3770159,López Puerto,NO STREET 9999,Valencia
restaurant,39.474284,-0.3775845,Delicias del Líbano,NO STREET 9999,Valencia
restaurant,39.4744871,-0.3777631,Blanquita,NO STREET 9999,Valencia
restaurant,39.4752896,-0.3760012,Crêperie bretonne annaick,NO STREET 9999,Valencia
restaurant,39.4743245,-0.3758717,La Alacena de la Reina,NO STREET 9999,Valencia
restaurant,39.4737528,-0.3759747,Konen,NO STREET 9999,Valencia
restaurant,39.4725229,-0.3766843,es.paella,NO STREET 9999,Valencia
restaurant,39.4714374,-0.3776746,El Encuentro,NO STREET 9999,Valencia
restaurant,39.4740553,-0.3759086,Vento,NO STREET 9999,Valencia
restaurant,39.4668973,-0.335688,Restaurante la Cantinella,Carrer del Pintor Ferrer Calatayud 10,Valencia
restaurant,39.475067,-0.3628768,El Rinconet,Plaza de Polo de Bernabé 4,Valencia
restaurant,39.4675607,-0.3646179,Restaurante Gordon 10,Calle del Conde de Altea 49,Valencia
restaurant,39.4631563,-0.3723841,Kawori,Carrer de Carles Cervera 8,Valencia
restaurant,39.4753422,-0.3771358,San Tommaso,Carrer de la Corretgeria 39,Valencia
restaurant,39.4852238,-0.3851157,Ricard Camarena Restaurant,NO STREET 9999,Valencia
restaurant,39.5304961,-0.441662,The Black Turtle,NO STREET 9999,Valencia
restaurant,39.4710479,-0.3759153,Atico Ateneo,NO STREET 9999,Valencia
restaurant,39.4784448,-0.3861074,DUKALA,Calle del Doctor Sanchís Bergón 27,Valencia
restaurant,39.4693658,-0.3775779,Mamá Delicias,Carrer del Periodista Azatti 5,Valencia
restaurant,39.4767913,-0.3750164,Saona,Plaça de la Mare de Déu 8,Valencia
restaurant,39.4790759,-0.3780745,María Mandiles,Plaça del Carme 1,Valencia
restaurant,39.4792165,-0.3788899,Yuso,NO STREET 9999,Valencia
restaurant,39.4765318,-0.378632,Entretorres,Carrer Cavallers 35,Valencia
restaurant,39.4766767,-0.3774129,NO NAME,NO STREET 9999,Valencia
restaurant,39.4676103,-0.375825,Ginos,NO STREET 9999,Valencia
restaurant,39.4677169,-0.3758048,Los Toneles,NO STREET 9999,Valencia
restaurant,39.4748589,-0.381214,L'Angolo Der Grillo,Carrer de Santa Teresa 23,Valencia
restaurant,39.4759138,-0.3765676,la valenciana,NO STREET 9999,Valencia
restaurant,39.4770706,-0.3775911,la valenciana,NO STREET 9999,Valencia
restaurant,39.4751332,-0.3776042,El patio de pepa,calle purisima 6,Valencia
restaurant,39.4600028,-0.3721805,El Rebujito,Carrer de Cadis 71,Valencia
restaurant,39.4762318,-0.3814506,La Strada,Carrer de Quart 17,Valencia
restaurant,39.4554175,-0.3581378,Elbar,NO STREET 9999,Valencia
restaurant,39.4654133,-0.3237425,La Paz,NO STREET 9999,Valencia
restaurant,39.4751001,-0.376378,El balcó del Micalet,NO STREET 9999,Valencia
restaurant,39.4202092,-0.33996,Casa Borras,NO STREET 9999,Valencia
restaurant,39.4214999,-0.3403094,Marin,NO STREET 9999,Valencia
restaurant,39.4216044,-0.340593,Canyes,NO STREET 9999,Valencia
restaurant,39.4849212,-0.3784848,La Taplà,Avinguda de la Constitució 26,Valencia
restaurant,39.4579971,-0.3472677,Taberna,NO STREET 9999,Valencia
restaurant,39.4917823,-0.4011974,Racó de l'Arnau,NO STREET 9999,Valencia
restaurant,39.4918977,-0.4012752,Las Cortes 39,NO STREET 9999,Valencia
restaurant,39.4921481,-0.401459,Miss Sushi,NO STREET 9999,Valencia
restaurant,39.4859739,-0.3597895,Brasa&Samba,NO STREET 9999,Valencia
restaurant,39.4744653,-0.3750358,Taberna Vintara,NO STREET 9999,Valencia
restaurant,39.4694973,-0.3899874,Indian Garden,NO STREET 9999,Valencia
restaurant,39.4615951,-0.3754248,Burger Beer,NO STREET 9999,Valencia
restaurant,39.4643706,-0.3719585,Gustonuovo,NO STREET 9999,Valencia
restaurant,39.4667225,-0.3666022,La Lambrusqueria,Calle del Conde de Altea 31,Valencia
restaurant,39.4858181,-0.3929816,Pizzería Kevab La cueva,Calle del Monasterio de Poblet 12,Valencia
restaurant,39.4899152,-0.3628702,Kyoto Restaurant,NO STREET 9999,Valencia
restaurant,39.4668685,-0.3648617,Ryukishin,Carrer de Salamanca 12,Valencia
restaurant,39.4863845,-0.3908642,Bar Restaurante Sobrecases,NO STREET 9999,Valencia
restaurant,39.4864007,-0.3909132,RiseSama,NO STREET 9999,Valencia
restaurant,39.486474,-0.3903498,Pirineos,NO STREET 9999,Valencia
restaurant,39.4873359,-0.3899548,ABC,NO STREET 9999,Valencia
restaurant,39.4856196,-0.3934137,Mesón Adrián,NO STREET 9999,Valencia
restaurant,39.4759672,-0.3801425,El Molinor,Carrer de la Bosseria 40,Valencia
restaurant,39.4746372,-0.3463288,El Garatge,Carrer de l'Escultor Alfons Gabino 19,Valencia
restaurant,39.5042885,-0.4423043,Lamburguesa,Calle de las Eras 24,Valencia
restaurant,39.5145287,-0.3620861,Mesón Els Besets,NO STREET 9999,Valencia
restaurant,39.5150397,-0.3622182,Kebab Palma,Avenida de Santa María del Puig 9999,Valencia
restaurant,39.5131802,-0.3576375,Pizzería/Kebab Almàssera,NO STREET 9999,Valencia
restaurant,39.5116977,-0.3562574,Restaurante Bocatería La Plaza,NO STREET 9999,Valencia
restaurant,39.4671382,-0.41777,Mesón El Alemán,NO STREET 9999,Valencia
restaurant,39.4615449,-0.33439,La FABrica,Carrer del Crist del Grau 14,Valencia
restaurant,39.4699073,-0.3744224,NO NAME,Carrer de Correus 8,Valencia
restaurant,39.5297318,-0.4418935,Foodoo,NO STREET 9999,Valencia
restaurant,39.4610368,-0.3883312,Restaurante El Cierzo,Carrer Mossén Fenollar 2,Valencia
restaurant,39.4649212,-0.415516,Rstaurante Pata Negra,Calle de Juan Peset 9999,Valencia
restaurant,39.4925695,-0.3581782,La gazzana,Carrer de Masquefa 66,Valencia
restaurant,39.4604566,-0.3705314,Bar d'Almudin,NO STREET 9999,Valencia
restaurant,39.4683616,-0.4155802,NO NAME,NO STREET 9999,Valencia
restaurant,39.4623857,-0.3964779,Bar El Pipa,NO STREET 9999,Valencia
restaurant,39.4612383,-0.3942892,Bar Los Pitirris,NO STREET 9999,Valencia
restaurant,39.463189,-0.3977613,El Rincón de Jose III,NO STREET 9999,Valencia
restaurant,39.4748063,-0.4171102,Menjant,NO STREET 9999,Valencia
restaurant,39.4699508,-0.3813169,NO NAME,NO STREET 9999,Valencia
restaurant,39.4750567,-0.3818309,Leipzig,NO STREET 9999,Valencia
restaurant,39.4759247,-0.3826008,Khambú,Carrer de Quart 41,Valencia
restaurant,39.461152,-0.3364751,Casa Soler,NO STREET 9999,Valencia
restaurant,39.4617272,-0.3343422,El clavo,NO STREET 9999,Valencia
restaurant,39.4849778,-0.3745264,Bar del Este,Carrer de Sagunt 86,Valencia
restaurant,39.4479564,-0.4754859,Restaurante Trujillo,NO STREET 9999,Valencia
restaurant,39.4692741,-0.3381766,Michelangelo,NO STREET 9999,Valencia
restaurant,39.4662121,-0.3297101,Sueños,NO STREET 9999,Valencia
restaurant,39.482147,-0.3279431,Gaston,NO STREET 9999,Valencia
restaurant,39.4813085,-0.3272449,El raco del mar,NO STREET 9999,Valencia
restaurant,39.4707563,-0.3578394,Simple Bar,Avinguda d'Aragó 22,Valencia
restaurant,39.4718578,-0.4171933,Pizzeria Verdi Bianco,Carrer del Pare Santonja 23,Valencia
restaurant,39.4768058,-0.3769649,Estrella Galicia,NO STREET 9999,Valencia
restaurant,39.4616202,-0.3718961,Hikari Yakitori Bar,Carrer dels Tomassos 18,Valencia
restaurant,39.4726807,-0.3806169,marisqueria l’odisea,Carrer de l'Editor Manuel Aguilar 3,Valencia
restaurant,39.4721047,-0.3557782,Midpoint Cafe,NO STREET 9999,Valencia
restaurant,39.4730725,-0.3552999,Bodega La Ibérica,NO STREET 9999,Valencia
restaurant,39.4777919,-0.3802819,La Rentaora,Plaça de Mossén Sorell 11,Valencia
restaurant,39.468501,-0.3592423,Restaurante Askua,Carrer de Felip Maria Garín 4,Valencia
restaurant,39.5309073,-0.4429767,Pasta Garden,NO STREET 9999,Valencia
restaurant,39.466464,-0.3657844,Las Adelitas,NO STREET 9999,Valencia
restaurant,39.4912764,-0.4568996,Café Sant Joan,NO STREET 9999,Valencia
restaurant,39.4647552,-0.364576,Jalasan,NO STREET 9999,Valencia
restaurant,39.4654845,-0.3234621,La Rosa,Passeig de Neptú 9999,Valencia
restaurant,39.4739777,-0.3710081,restaurante pizzeria spaghetti stefan,Carrer del Comte de Montornés 21 b izg,Valencia
restaurant,39.428332,-0.365924,El retor,NO STREET 9999,Valencia
restaurant,39.4630846,-0.3926883,Bar Patraix,plaza de Patraix 9999,Valencia
restaurant,39.4895477,-0.3566357,Kaf Cafe,Plaça d'Emili Beüt i Belenguer 7,Valencia
restaurant,39.4549303,-0.3583564,Restaurante Cafeteria Turia,Plaça Mestre Vicent Ballester Fandos 2,Valencia
restaurant,39.4763096,-0.3808608,El Papagayo del Carmen,Carrer de Quart 10,Valencia
restaurant,39.4833451,-0.3587316,Al-Paladar - Taverna i Take Away,Carrer de Jaume Esteve Cubells 5,Valencia
restaurant,39.4846433,-0.3592322,El Carabasser,Carrer del Reverend Rafael Tramoyeres 35,Valencia
restaurant,39.4846362,-0.3551606,Olegari,Carrer del Músic Hipòlit Martínez 8,Valencia
restaurant,39.4871261,-0.3601398,Tallafocs Gastrobar,Carrer de Baró de San Petrillo 46,Valencia
restaurant,39.4531126,-0.3541388,Vips,NO STREET 9999,Valencia
restaurant,39.4529759,-0.3544982,Foster's Hollywood,NO STREET 9999,Valencia
restaurant,39.4530672,-0.354303,100 Montaditos,NO STREET 9999,Valencia
restaurant,39.4743318,-0.3597974,Bar Ciudad Real,NO STREET 9999,Valencia
restaurant,39.4743726,-0.3599214,Bar Manolo el del Bombo,NO STREET 9999,Valencia
restaurant,39.4792414,-0.3279551,Rincón de Adriana,Avinguda de la Malva-rosa 52,Valencia
restaurant,39.4625698,-0.3685955,Jardín Urbano,NO STREET 9999,Valencia
restaurant,39.4958434,-0.3378309,Sequer lo Blanch,Camino Hondo 23,Valencia
restaurant,39.4846424,-0.3608371,Pata Negra Restorán,Carrer del Baró de San Petrillo 3,Valencia
restaurant,39.5038727,-0.4105392,Cleo's,NO STREET 9999,Valencia
restaurant,39.5305521,-0.4405962,Bierwinkel,NO STREET 9999,Valencia
restaurant,39.529662,-0.4417341,La Tagliatella,NO STREET 9999,Valencia
restaurant,39.5294246,-0.4414312,Miss Sushi,NO STREET 9999,Valencia
restaurant,39.4672467,-0.3693731,Vela,NO STREET 9999,Valencia
restaurant,39.4757458,-0.3836845,Canela Ibericos,Carrer de Quart 49,Valencia
restaurant,39.4926094,-0.4002685,Voltereta,NO STREET 9999,Valencia
restaurant,39.49239,-0.4001003,Moa (Wine bar),NO STREET 9999,Valencia
restaurant,39.4916965,-0.3995964,Vela,NO STREET 9999,Valencia
restaurant,39.4851417,-0.3610164,Uma Crepes,Carrer del Reverend Rafael Tramoyeres 11,Valencia
restaurant,39.4769661,-0.3252478,Bar Restaurante Terraza Malvarrosa,NO STREET 9999,Valencia
restaurant,39.4847076,-0.3605443,Memòria Restaurant,NO STREET 9999,Valencia
restaurant,39.4563957,-0.3634179,pizzas,NO STREET 9999,Valencia
restaurant,39.4760046,-0.3766022,arroceria la Valenciana juristas,NO STREET 9999,Valencia
restaurant,39.4824652,-0.3567904,La Búfala,Carrer de la Reial Acadèmia de Cultura Valenciana 4,Valencia
restaurant,39.4818273,-0.3574772,El LLumí,NO STREET 9999,Valencia
restaurant,39.4817338,-0.3565829,Il Roso,NO STREET 9999,Valencia
restaurant,39.4810727,-0.3571357,Dacapo,NO STREET 9999,Valencia
restaurant,39.4802115,-0.3573498,Tony's Beer Garden,NO STREET 9999,Valencia
restaurant,39.479261,-0.3563822,Mesón Asador D Donosti,NO STREET 9999,Valencia
restaurant,39.4790006,-0.3560223,Osaka,NO STREET 9999,Valencia
restaurant,39.4754052,-0.3773646,Bon Gusto,NO STREET 9999,Valencia
restaurant,39.4613588,-0.3367689,Catay,Avenida del Puerto 249,Valencia
restaurant,39.4580344,-0.3465924,NO NAME,Calle Trafalgar 52,Valencia
restaurant,39.4657646,-0.3541176,Cerveceria Casa Juan,Carrer de les Illes Canàries 54,Valencia
restaurant,39.4640777,-0.3718134,Di Fredo,Calle San Valero 5,Valencia
restaurant,39.4478667,-0.3601399,Alqueria De La Font D'En Corts,Carretera de la Font d'en Corts 54,Valencia
restaurant,39.5196485,-0.4137531,Restaurante Castillo,Calle Mayor 90,Valencia
restaurant,39.462351,-0.3653901,Pizzeria Acqua e Farina,Carrer Matías Perelló 52,Valencia
restaurant,39.4672462,-0.3925443,Restaurante Milan,Calle del Archiduque Carlos 1,Valencia
restaurant,39.4622395,-0.3530837,Villa Ru Restaurant,NO STREET 9999,Valencia
restaurant,39.4621691,-0.3530153,Rey Jaime,NO STREET 9999,Valencia
restaurant,39.4599727,-0.3525541,Casa Di Roma,NO STREET 9999,Valencia
restaurant,39.4631849,-0.4232645,Fabiola,Carrer d'Antonio Sánchez Moscardó 9999,Valencia
restaurant,39.464498,-0.4243829,Ladha Kebab,Carrer València 9999,Valencia
restaurant,39.4682103,-0.3744426,La fuente,carrer de martínez cubells 8,Valencia
restaurant,39.4769389,-0.3515643,Hechizos De Morgana,Carrer del Clariano 12,Valencia
restaurant,39.4853398,-0.3633514,Del Poble Pasta & Pizza,NO STREET 9999,Valencia
restaurant,39.4802544,-0.3564518,Jia Yi,Carrer del Doctor Garcia Brustenga 3,Valencia
restaurant,39.4667709,-0.3664889,Restaurante Nagato,Carrer del Comte d'Altea 33,Valencia
restaurant,39.462846,-0.4269698,Mesón Torres,Avinguda de la Constitució 9999,Valencia
restaurant,39.4754114,-0.3486607,Bastard coffee kitchen,carrer leandro de saralegui 1,Valencia
restaurant,39.4706155,-0.3769942,Blue Frog (American grill & meat),NO STREET 9999,Valencia
restaurant,39.4778806,-0.3478396,Reataurante Balansiya,NO STREET 9999,Valencia
restaurant,39.4751212,-0.3499319,Doraya,NO STREET 9999,Valencia
restaurant,39.4751683,-0.3500987,San Rocco,NO STREET 9999,Valencia
restaurant,39.4750117,-0.3495475,La Sureña,NO STREET 9999,Valencia
restaurant,39.4750923,-0.3498451,La Tasqueta,NO STREET 9999,Valencia
restaurant,39.4280796,-0.4140187,Arroceria Albufera,Calle del Maestro Palau 4,Valencia
restaurant,39.4724296,-0.3736474,Lateral,Plaza del Colegio del Patriarca 9999,Valencia
restaurant,39.4872408,-0.3603195,L'Amagatall,Carrer del Baró de San Petrillo 53,Valencia
restaurant,39.4225166,-0.3918318,Bar-Bocatería La Toscana,Calle de Mariano Benlliure 21,Valencia
restaurant,39.4820614,-0.3560267,La Pentola,Carrer de Vicent Barrera Cambra 9999,Valencia
restaurant,39.4730529,-0.3773792,Birra & Blues,Avenida Maria Cristina 12,Valencia
restaurant,39.4832202,-0.3617046,Restaurante de la India,Avinguda del Primat Reig 143,Valencia
restaurant,39.4624849,-0.3437217,Ladybug,Carrer de les Illes Canàries 9999,Valencia
restaurant,39.487158,-0.3610272,Asador Criollo,NO STREET 9999,Valencia
restaurant,39.4918269,-0.359006,Bar La Rioja 3,NO STREET 9999,Valencia
restaurant,39.5293951,-0.4413317,Lemongrass,NO STREET 9999,Valencia
restaurant,39.4898026,-0.3624764,La Taska Sidrería,NO STREET 9999,Valencia
restaurant,39.4684303,-0.3671808,Ameyal,NO STREET 9999,Valencia
restaurant,39.4726708,-0.3760829,Mon,NO STREET 9999,Valencia
restaurant,39.4727378,-0.3762873,Haus,NO STREET 9999,Valencia
restaurant,39.4607033,-0.3737136,Taberna el rojo,Carrer del Literat Azorín 10,Valencia
restaurant,39.4605077,-0.3725287,La Más Bonita Ruzafa,Carrer Cadis 61,Valencia
restaurant,39.4603667,-0.3724411,Entrepans,Carrer Cadis 65,Valencia
restaurant,39.4633719,-0.3742637,Slaughterhouse Food & Books,Carrer de Dénia 22,Valencia
restaurant,39.4687227,-0.3898657,Pizzeria Spacca Napoli,Calle del Héroe Romeu 12,Valencia
restaurant,39.466153,-0.3288897,Pizzeria Viva Napoli,Carrer de la Reina 60,Valencia
restaurant,39.4628871,-0.3713921,100 Montaditos,Carrer del Consolat de Mar 1,Valencia
restaurant,39.4529719,-0.3869847,Taberna Amparín,Carrer de Joaquín Navarro 26,Valencia
restaurant,39.4627953,-0.368993,Pizzeria Pomodoro e Basilico,Carrer de Pere III el Gran 15,Valencia
restaurant,39.4604257,-0.3727121,Sabors,NO STREET 9999,Valencia
restaurant,39.4604743,-0.37275,Red Cup,NO STREET 9999,Valencia
restaurant,39.460715,-0.3729335,Dionisos Greek,NO STREET 9999,Valencia
restaurant,39.4681677,-0.365175,Restaurante Cánovas,NO STREET 9999,Valencia
restaurant,39.4681079,-0.3651693,Miss Sushi,NO STREET 9999,Valencia
restaurant,39.4671993,-0.3654818,Samurai,Carrer del Comte d'Altea 43,Valencia
restaurant,39.467138,-0.3656303,Don Salvatore,Carrer del Comte d'Altea 41,Valencia
restaurant,39.4604652,-0.3717988,Anjana,NO STREET 9999,Valencia
restaurant,39.4645697,-0.3677729,Taberna Casa Juan,Carrer de l'Almirall Cadarso 24,Valencia
restaurant,39.4634887,-0.3654208,Route 66 Valencia,Avinguda del Regne de València 59,Valencia
restaurant,39.4694464,-0.3562556,Al Kasser,Carrer de Vicent Sancho Tello 22,Valencia
restaurant,39.4721616,-0.3435413,La Blasca,NO STREET 9999,Valencia
restaurant,39.4368193,-0.4635978,La Plaza,Plaça Major 8,Valencia
restaurant,39.4376516,-0.4635619,Açó no és el que pareix,Plaça Major 34,Valencia
restaurant,39.4363052,-0.4638818,Vermutería Don Julio,Plaça Major 15,Valencia
restaurant,39.4379054,-0.4646362,Casa Agustín,Carrer del Doctor Gómez Ferrer 17,Valencia
restaurant,39.4353369,-0.4660537,Farigola & Menta,Carrer del Pare Méndez 34,Valencia
restaurant,39.4397237,-0.4596978,La Rioja IV,Carrer de Músico José Ortí Soriano 1,Valencia
restaurant,39.4420153,-0.4620483,Casa El Chesus,Carrer del Doctor Gómez Ferrer 104,Valencia
restaurant,39.4728516,-0.3784624,El Racó de Carabasses,NO STREET 9999,Valencia
restaurant,39.4790452,-0.3770901,Restaurant El Forcat,Carrer de Roteros 12,Valencia
restaurant,39.5088748,-0.3232979,Café Italiano Sole Mio,NO STREET 9999,Valencia
restaurant,39.4837763,-0.3578355,Bar Toni,Carrer dels Germans Villalonga 1,Valencia
restaurant,39.4612414,-0.3725262,Restaurante Spacca Napoli 2.0,Carrer de la Reina Na Maria 3,Valencia
restaurant,39.4784291,-0.377268,Anómalo,Carrer de la Creu 4,Valencia
restaurant,39.4625467,-0.3839297,El Pederniz,Passatge de Ventura Feliu 20,Valencia
restaurant,39.4773792,-0.3812291,Namua Gastronomic,Plaça de Vicent Iborra 9,Valencia
restaurant,39.4718899,-0.4086528,Bar Max,NO STREET 9999,Valencia
restaurant,39.4716979,-0.371726,pasión mediterranea,Carrer de Barcelona 17,Valencia
restaurant,39.4778928,-0.3802714,La vaca verde,NO STREET 9999,Valencia
restaurant,39.4747225,-0.3750005,Piazza la Reina,NO STREET 9999,Valencia
restaurant,39.4657127,-0.3640277,ahuevo Restaurante,Carrer de Salamanca 28,Valencia
restaurant,39.5115852,-0.4160133,Amigo Kebab,NO STREET 9999,Valencia
restaurant,39.4740321,-0.345789,Kebab Friend's,NO STREET 9999,Valencia
restaurant,39.5309036,-0.4733559,El Colonial,NO STREET 9999,Valencia
restaurant,39.5308356,-0.4736815,Senia,NO STREET 9999,Valencia
restaurant,39.5004045,-0.3507548,Nostre Bar,NO STREET 9999,Valencia
restaurant,39.5006339,-0.3504951,Cafe Paris,NO STREET 9999,Valencia
restaurant,39.4711659,-0.3777318,Kento,NO STREET 9999,Valencia
restaurant,39.4715782,-0.3774236,Kopp,NO STREET 9999,Valencia
restaurant,39.4595772,-0.3499797,Cervecería Andaluza,Av. de Françia 18b,Valencia
restaurant,39.4737484,-0.3595339,Casa candy,NO STREET 9999,Valencia
restaurant,39.4723796,-0.3581157,La Piazza,NO STREET 9999,Valencia
restaurant,39.4850392,-0.3588204,MK Doner Kebab,NO STREET 9999,Valencia
restaurant,39.4858413,-0.3614317,La Cassola,NO STREET 9999,Valencia
restaurant,39.485851,-0.3587484,La Mosqueta,Carrer d'Utiel 9,Valencia
restaurant,39.4862025,-0.3580121,Bar Beni Doner Kebab,NO STREET 9999,Valencia
restaurant,39.4859956,-0.3579515,Trencadís - Comidas Para Llevar,NO STREET 9999,Valencia
restaurant,39.4670999,-0.3504027,Taj Mahal,NO STREET 9999,Valencia
restaurant,39.4626825,-0.3690244,Buendia Comida para Llevar,NO STREET 9999,Valencia
restaurant,39.4672871,-0.3784839,Trinquet de Pelayo,Carrer de Pelai 6,Valencia
restaurant,39.468764,-0.3741952,Civera,NO STREET 9999,Valencia
restaurant,39.4688696,-0.374458,Palacio de la Bellota,NO STREET 9999,Valencia
restaurant,39.4688862,-0.3743588,Alkazar,NO STREET 9999,Valencia
restaurant,39.4660739,-0.4669837,Restaurante Chino Kangle,Miguel Hernández 9999,Valencia
restaurant,39.4650975,-0.3493609,Maspaella,NO STREET 9999,Valencia
restaurant,39.5068444,-0.3228932,El Salero,NO STREET 9999,Valencia
restaurant,39.4701194,-0.3655434,Al Tun Tun,NO STREET 9999,Valencia
restaurant,39.4606267,-0.3746473,Dando Leña,NO STREET 9999,Valencia
restaurant,39.4658015,-0.3667664,Mercatbar,NO STREET 9999,Valencia
restaurant,39.4677595,-0.3760281,Muerde la Pasta,NO STREET 9999,Valencia
restaurant,39.4679055,-0.3759749,El Colmado de la Rivera,NO STREET 9999,Valencia
restaurant,39.4678524,-0.3757861,Pipol Restaurante,NO STREET 9999,Valencia
restaurant,39.46814,-0.3759534,Pizzeria Ris8tto,NO STREET 9999,Valencia
restaurant,39.4809871,-0.3709266,Cafetaria Restaurante Arias,Carrer d'Alboraia 12,Valencia
restaurant,39.4733687,-0.3769584,Jaime I,Carrer dels Manyans 20,Valencia
restaurant,39.4648019,-0.3231696,100 Montaditos,NO STREET 46,Valencia
restaurant,39.4771032,-0.3749903,Haus,Carrer de Navellos 10,Valencia
restaurant,39.4889345,-0.3563955,El Gran Boquerón,NO STREET 9999,Valencia
restaurant,39.4848565,-0.3586999,Planeta Azul,NO STREET 9999,Valencia
restaurant,39.4843755,-0.3583321,Fet a Foc,NO STREET 9999,Valencia
restaurant,39.4859601,-0.3587395,Caminito,NO STREET 9999,Valencia
restaurant,39.4809628,-0.3554176,NO NAME,NO STREET 9999,Valencia
restaurant,39.4813864,-0.3589268,Restaurante Chino Mey Chen,NO STREET 9999,Valencia
restaurant,39.483059,-0.3582009,Pantanal,NO STREET 9999,Valencia
restaurant,39.486729,-0.3612015,La Olla,NO STREET 9999,Valencia
restaurant,39.4830116,-0.3608401,Jacky Chen,NO STREET 9999,Valencia
restaurant,39.484855,-0.3638818,Mr. Maki,NO STREET 9999,Valencia
restaurant,39.4848712,-0.3635123,Arepita Bar,NO STREET 9999,Valencia
restaurant,39.467811,-0.3676188,Voltereta,NO STREET 9999,Valencia
restaurant,39.4618911,-0.3606294,Raffaello,NO STREET 9999,Valencia
restaurant,39.4923553,-0.360216,Celler de Carmen,NO STREET 9999,Valencia
restaurant,39.4872418,-0.367071,Pizzería Carlos,NO STREET 9999,Valencia
restaurant,39.4701733,-0.3990177,Turís 2,NO STREET 9999,Valencia
restaurant,39.4701333,-0.3994438,100 Montaditos,Carrer de Burgos 11,Valencia
restaurant,39.4883536,-0.3620734,Don Carlo,Carrer de Dolores Marqués 27,Valencia
restaurant,39.4651223,-0.4606366,Pardala,NO STREET 9999,Valencia
restaurant,39.4843598,-0.3820039,Seitán House,Carrer del Periodista Llorente 4,Valencia
restaurant,39.465022,-0.4576795,Bar Manises,NO STREET 9999,Valencia
restaurant,39.4651026,-0.4609405,Café Bar Plaza,NO STREET 9999,Valencia
restaurant,39.4648342,-0.4609482,As de pollos,NO STREET 9999,Valencia
restaurant,39.463157,-0.4624995,Abe's,NO STREET 9999,Valencia
restaurant,39.4649218,-0.4569815,Bar Tragos,NO STREET 9999,Valencia
restaurant,39.4644385,-0.4567438,Casa Blasco,NO STREET 9999,Valencia
restaurant,39.4630655,-0.3874851,El pollastre valencià,NO STREET 9999,Valencia
restaurant,39.4488696,-0.3915954,Pizzería El Jefe,NO STREET 9999,Valencia
restaurant,39.4746451,-0.375004,Mercat de la Reina,NO STREET 9999,Valencia
restaurant,39.4713928,-0.3991949,Bar Risueño,NO STREET 9999,Valencia
restaurant,39.4718058,-0.3972902,Bar Marfil,NO STREET 9999,Valencia
restaurant,39.4744578,-0.3973314,Cervecería Finisterra,NO STREET 9999,Valencia
restaurant,39.436832,-0.463612,Bar La Plaça,Plaça Major 8,Valencia
restaurant,39.430027,-0.472704,Bar La Sarten Por El Mango,Carrer del Pare Méndez 123,Valencia
restaurant,39.435162,-0.473728,Bar La Falla,Carrer de la Benemèrita Guàrdia Civil 8,Valencia
restaurant,39.43644,-0.472929,Bar La Gamba,Carrer de El Salvador 71,Valencia
restaurant,39.440174,-0.465194,Bar Juanes,Carrer de Sant Caietà 34,Valencia
restaurant,39.435532,-0.46103,Bar La Estacion,Carrer de Sant Nicolau 1,Valencia
restaurant,39.435986,-0.468796,Bar Hermanos Lopez,Carrer de Valentin Planells 18,Valencia
restaurant,39.436569,-0.469454,Bar Jo-bi,Carrer de Sant Jeroni 2,Valencia
restaurant,39.437683,-0.467668,Bar Go Diamond,Carrer de Ramón y Cajal 24,Valencia
restaurant,39.434238,-0.475596,Bar Goriet,Carrer de Pintor Genovés 23,Valencia
restaurant,39.432899,-0.473163,Bar Germanies,Carrer de Germanies 51,Valencia
restaurant,39.4333668,-0.4687281,Bar España,Carrer del Pare Méndez 86,Valencia
restaurant,39.4327045,-0.4693124,Bar El Dorado,Carrer del Pare Méndez 89,Valencia
restaurant,39.4391704,-0.4615847,Bar El Pilar,Carrer d'Almeria 11,Valencia
restaurant,39.440571,-0.463482,Bar Cachala,Carrer de Xirivella 10,Valencia
restaurant,39.433807,-0.471133,Bar Cantabrico,Avinguda Al Vedat 83,Valencia
restaurant,39.4313503,-0.4741065,Bar Bocateria Familia,Avinguda Al Vedat 102,Valencia
restaurant,39.433094,-0.469324,Bar Bocatería Tirant Lo Blanc 19,Carrer de Tirant lo Blanc 19,Valencia
restaurant,39.432114,-0.474386,Bar Arenas,Carrer de Germanies 65,Valencia
restaurant,39.435612,-0.473571,Bar Aurelio,Carrer de Federico Maicas 10,Valencia
restaurant,39.4344513,-0.4667879,Bar Bocateria Chivito,Carrer del Pare Méndez 47,Valencia
restaurant,39.4299617,-0.473821,Salero Gastrobar,Plaça de la Llibertat 7,Valencia
restaurant,39.4333226,-0.4684454,Blanc I Negre,Carrer del Pare Méndez 75,Valencia
restaurant,39.437008,-0.463893,Cafetería One Coffee,Plaça Major 33,Valencia
restaurant,39.425007,-0.466208,Divino Pecado Lounge Bar,Avinguda de Barcelona 92 114,Valencia
restaurant,39.42548,-0.4693,Bar Bocateria La Cucharita,Carrer de Seul 88 1,Valencia
restaurant,39.434826,-0.462227,Cafeteria El Matiner,Carrer dels Sants Patrons 35,Valencia
restaurant,39.428844,-0.474881,Bar Entre Amics,Carrer del Pare Méndez 144,Valencia
restaurant,39.434299,-0.473793,Bar La Birra Y Mas,Carrer de la Constitució 6,Valencia
restaurant,39.4370839,-0.4659945,Cafe Restaurant Ficus,Carrer de Ramón y Cajal 6,Valencia
restaurant,39.4371772,-0.4638199,Bocatería Hamburguesería Madok La Torre,Plaça Major 35,Valencia
restaurant,39.437466,-0.46491,Malik Kebab Pizza,Carrer del Doctor Gómez Ferrer 9,Valencia
restaurant,39.441307,-0.459952,Bar Cerveceria Valencia,Carrer de Picanya 14,Valencia
restaurant,39.4343895,-0.4668745,Charles Lounge Bar,Carrer del Pare Méndez 49,Valencia
restaurant,39.43203,-0.474604,Bar La Cabaña De Jaen,Carrer de Germanies 72,Valencia
restaurant,39.42894,-0.47065,Somni Cuina De Mercat,Avinguda de Barcelona 92 3,Valencia
restaurant,39.431324,-0.472706,Tgb The Good Buguer Torrent,Plaça de la Unió Musical de Torrent 5,Valencia
restaurant,39.429455,-0.475144,Pizza & Caña,Carrer de la Mare de Déu del Puig 5,Valencia
restaurant,39.42762,-0.470519,Cafeteria Restaurante Central Park,Carrer de Sidney 2000 8,Valencia
restaurant,39.4339717,-0.4675148,Malavesat Restaurant,Carrer del Pare Méndez 57,Valencia
restaurant,39.4352828,-0.4617984,Bar Virgen Del Olivar,Carrer de la Mare de Déu de l'Olivar 40,Valencia
restaurant,39.435093,-0.466016,Aigua Marina Salon,Carrer del Pare Méndez 29,Valencia
restaurant,39.4318285,-0.4735027,Bar Restaurante Asiático Hui Ii,Carrer de 25 d'abril 1,Valencia
restaurant,39.4311717,-0.4725608,Bar Sabor,Plaça de la Unió Musical de Torrent 2,Valencia
restaurant,39.434193,-0.467993,Restaurante Cafeteria Dejavu,Carrer del Montgó 10,Valencia
restaurant,39.4299335,-0.4732948,Tapas Y Pintxos con Encanto,Carrer del Pare Méndez 126,Valencia
restaurant,39.429882,-0.474173,Bar Bocateria El Rincón De León,Plaça de la Llibertat 10,Valencia
restaurant,39.43309,-0.474875,El Último Que Cierre,Carrer de 25 d'abril 17,Valencia
restaurant,39.4337286,-0.4731156,Bar Restaurante Franc - Marc,Carrer de l'Horta 9,Valencia
restaurant,39.4364853,-0.46301,Cafeteria Yuste,Plaça de Colom 13,Valencia
restaurant,39.4341219,-0.4691894,Bar Cafeteria El Raco De Mimo,Avinguda Al Vedat 67,Valencia
restaurant,39.433086,-0.468758,La Zumería,Carrer del Pare Méndez 79,Valencia
restaurant,39.4314554,-0.4718764,Coffee Cream,Plaça de la Unió Musical de Torrent 9,Valencia
restaurant,39.43874,-0.459864,Cafetería Tragabolas,Carrer de Nicolás Andreu 24,Valencia
restaurant,39.4310876,-0.4728443,Bar Restaurante Casa Juan,Carrer Caixa d'Estalvis 7,Valencia
restaurant,39.437553,-0.470935,Bar Toledo,Carrer Músic Mariano Puig Yago 24,Valencia
restaurant,39.4287604,-0.4750061,Bar Quesada,Carrer del Pare Méndez 146,Valencia
restaurant,39.43986,-0.459567,Bar Quevedo,Carrer del Frare Antonio Panes 5,Valencia
restaurant,39.431416,-0.465,Bar Cuatro Hermanos,Carrer de la Mare de Déu de la Soledat 20,Valencia
restaurant,39.439965,-0.4594802,Taberna El Noray,Carrer del Frare Antonio Panes 7,Valencia
restaurant,39.4345868,-0.4675479,Restaurante La Casa Vella,Carrer del Jutge Àngel Querol 8,Valencia
restaurant,39.441269,-0.463151,Burguer Drago,Carrer de València 12,Valencia
restaurant,39.4350792,-0.4677112,Cafeteria Liceo 39,Avinguda Al Vedat 39,Valencia
restaurant,39.436825,-0.460854,Toni Pizzeria,Carrer Axiprest Navarro Nogueroles 13,Valencia
restaurant,39.4362477,-0.4649312,Sentideta - Restaurant,Carrer de Sant Cristòfol 6,Valencia
restaurant,39.4333938,-0.4686888,Bar La Taberna De Moe,Carrer del Pare Méndez 86,Valencia
restaurant,39.43042,-0.474245,Restaurante La Plaza,Plaça de la Llibertat 16,Valencia
restaurant,39.43433,-0.47062,Restaurante La Bolera,Carrer de El Salvador 8,Valencia
restaurant,39.4341223,-0.4737411,Restaurante La Bodega,Carrer de la Constitució 11,Valencia
restaurant,39.4267296,-0.4741453,Restaurante Danubio Azul,Carrer de Carlet 17,Valencia
restaurant,39.4350045,-0.4684131,Restaurante Delicias De China,Avinguda Al Vedat 34,Valencia
restaurant,39.434772,-0.472741,Restaurante Cibeles,Carrer de Sedaví 39,Valencia
restaurant,39.442028,-0.462031,Bar Restaurante Casa El Chesús,Carrer del Doctor Gómez Ferrer 104,Valencia
restaurant,39.4312353,-0.47052,Restaurante Casa Marcelo,Carrer de la Plana 3,Valencia
restaurant,39.437904,-0.464652,Casa Agustin,Carrer del Doctor Gómez Ferrer 17,Valencia
restaurant,39.424942,-0.466299,Restaurante Cafeteria New Ximo Iii,Avinguda de Barcelona 92 112,Valencia
restaurant,39.429493,-0.47392,Pizzeria Sapori D'italia,Carrer del Pare Méndez 134,Valencia
restaurant,39.43409,-0.470548,Bar Pacos,Carrer de El Salvador 5,Valencia
restaurant,39.4345591,-0.4708449,Pantera Rosa,Carrer de Germanies 38,Valencia
restaurant,39.432805,-0.4718026,Mini Bar,Avinguda Al Vedat 78,Valencia
restaurant,39.430614,-0.468445,Licoreria Central,Carrer de la Plana 7,Valencia
restaurant,39.429832,-0.4745245,Los Toneles,Carrer de la Mare de Déu del Puig 1,Valencia
restaurant,39.4403675,-0.4610822,La Tasquita de Jose,Carrer de la Mare de Déu de la Purificació 19,Valencia
restaurant,39.430229,-0.469486,Exit Lounge Bar,Carrer de la Costera 6,Valencia
restaurant,39.4335919,-0.4700139,Coffee One,Avinguda Al Vedat 81,Valencia
restaurant,39.434842,-0.4678029,Cerveceria Rio Mundo,Carrer del Jutge Àngel Querol 2,Valencia
restaurant,39.436928,-0.464876,Cerveceria Rafi,Carrer de Sagra 9,Valencia
restaurant,39.4362423,-0.4630158,Cervecería Purin,Plaça de Colom 14,Valencia
restaurant,39.437668,-0.467692,Cerveceria Anar Y Tornar,Carrer de Ramón y Cajal 32,Valencia
restaurant,39.431301,-0.470751,Cerveceria Biergarten,Carrer de la Plana 1,Valencia
restaurant,39.4381365,-0.4630413,Dishii Bar,Plaça Mestre Giner 14,Valencia
restaurant,39.438992,-0.459519,Cafetería Cervecería El Molí,Carrer de Gabriela Mistral 8,Valencia
restaurant,39.433464,-0.468169,Bar La Bugui,Carrer del Pare Méndez 69,Valencia
restaurant,39.433823,-0.464282,Bar Cafeteria El Teu Lloc,Carrer del Frare Lluís Amigó 48,Valencia
restaurant,39.4343386,-0.47097,Barriobar La Cerveseta,Carrer de Germanies 23,Valencia
restaurant,39.430977,-0.466568,Bar Zalvez,Carrer de Toledo 43,Valencia
restaurant,39.4356503,-0.4665882,Bar Union Musical,Avinguda Al Vedat 21,Valencia
restaurant,39.432343,-0.470197,Bar Victoria,Carrer del Pare Méndez 116,Valencia
restaurant,39.4315555,-0.474642,Bar Restaurante Rueda,Carrer de Sant Valerià 4,Valencia
restaurant,39.4327041,-0.4738682,Bar Siena,Carrer de Germanies 74,Valencia
restaurant,39.434822,-0.469623,Bar Rosello 7,Carrer del Doctor Francesc Roselló 7,Valencia
restaurant,39.43461,-0.4700821,Bar Restaurante Franc,Carrer de Hernández Malillos 10,Valencia
restaurant,39.4389159,-0.4615402,Bar-cafeteria Iturbi,Carrer de José Iturbi 12,Valencia
restaurant,39.43309,-0.473274,Bar Perez,Carrer de Germanies 70,Valencia
restaurant,39.43679,-0.460759,Bar El Pilar,Carrer Axiprest Navarro Nogueroles 15,Valencia
restaurant,39.438313,-0.459968,Bar Pauli,Carrer de Nicolás Andreu 16,Valencia
restaurant,39.4293033,-0.4756234,Bar Pedro,Carrer de la Mare de Déu del Puig 16,Valencia
restaurant,39.425308,-0.468297,Bar Olimpica 2008,Avinguda Olímpica 48,Valencia
restaurant,39.440693,-0.468213,Bar Joselito,Carrer Xenillet 14,Valencia
restaurant,39.440891,-0.464913,Bar Mestanza,Carrer de València 32,Valencia
restaurant,39.4338777,-0.4741243,Bar Maravillas,Carrer de la Constitució 15,Valencia
restaurant,39.440029,-0.461467,Bar Marbi,Carrer del Músic Andreu Navarro 14,Valencia
restaurant,39.433571,-0.468077,Bar La Tasca,Carrer del Pare Méndez 67,Valencia
restaurant,39.432949,-0.469334,Bar Les Tapetes,Carrer del Pare Méndez 98,Valencia
restaurant,39.433702,-0.4743878,Bar La Sevillana,Carrer de la Constitució 17,Valencia
restaurant,39.4637015,-0.4623888,Juven's,NO STREET 9999,Valencia
restaurant,39.4630964,-0.4625061,Donna,NO STREET 9999,Valencia
restaurant,39.46196,-0.4628363,Nou Xocolate,NO STREET 9999,Valencia
restaurant,39.4654478,-0.4604655,Loco Joe,NO STREET 9999,Valencia
restaurant,39.4590516,-0.373845,La Conservera,NO STREET 9999,Valencia
restaurant,39.4638199,-0.3307573,Casa Guillermo,Carrer del Progrés 15,Valencia
restaurant,39.4301266,-0.4744668,La Trinchera,Plaça de la Llibertat 13,Valencia
restaurant,39.4622247,-0.3695696,La Maja,NO STREET 9999,Valencia
restaurant,39.4765503,-0.3778317,Lambrusqueria,Carrer dels Cavallers 27,Valencia
restaurant,39.4688056,-0.3737544,Piur,Carrer de Pascual i Genis 19,Valencia
restaurant,39.4662096,-0.3743515,Mioya,NO STREET 9999,Valencia
restaurant,39.4661437,-0.3746166,Lizarran,NO STREET 9999,Valencia
restaurant,39.4656476,-0.3707523,N.O.U. Gourmet,Carrer del Taquígraf Martí 3,Valencia
restaurant,39.4671048,-0.3730994,La Majada,Carrer de Félix Pizcueta 15,Valencia
restaurant,39.4741137,-0.3772114,Ca Morera,Carrer del Repés 9999,Valencia
restaurant,39.4769299,-0.3755768,NO NAME,Carrer del Comte d'Almodòvar 1,Valencia
restaurant,39.4687669,-0.3742868,Los Gomez Taberna,Carrer de Correus 10,Valencia
restaurant,39.4697482,-0.3743142,Los Gomez Taberna,Carrer de Correus 10,Valencia
restaurant,39.4749751,-0.3759918,Crudo Bar Valencia,Carrer de la Corretgeria 7,Valencia
restaurant,39.4744096,-0.3470408,The Good Burger (TGB),Avinguda de Blasco Ibáñez 91,Valencia
restaurant,39.4599626,-0.333128,Nueva Casa Calabuig,NO STREET 9999,Valencia
restaurant,39.449906,-0.3411022,Martinot,Carretera del Riu 11,Valencia
restaurant,39.4319706,-0.3432934,Tres Camins,NO STREET 9999,Valencia
restaurant,39.5112482,-0.4135674,La Botiga dels Menjars,Carrer de Mendizábal 34,Valencia
restaurant,39.5231214,-0.4221273,Godesport Restaurant Bar,NO STREET 9999,Valencia
restaurant,39.4710912,-0.3438012,Infernum Pizza,Carrer de l'Explorador Andrés 44,Valencia
restaurant,39.4662029,-0.3541155,Restaurante chino Tian an men,NO STREET 9999,Valencia
restaurant,39.466414,-0.3548311,Pasión turca,NO STREET 9999,Valencia
restaurant,39.4602769,-0.4402591,Restaurante Asador Artesano,NO STREET 9999,Valencia
restaurant,39.4840068,-0.3669503,Restaurante La Hípica,NO STREET 9999,Valencia
restaurant,39.465627,-0.323532,Chilling Fresh,Passeig de Neptú 72,Valencia
restaurant,39.5293711,-0.4409465,Tony Roma's,Heron City (Centro de Ocio) 9999,Valencia
restaurant,39.5036117,-0.4153667,Restaurante Quitín,Calle de Espartero 63,Valencia
restaurant,39.4585702,-0.3656665,Papa Gino,Carrer del Bisbe Jaume Pérez 19,Valencia
restaurant,39.4821203,-0.3602341,Restaurante El Aprendiz,NO STREET 9999,Valencia
restaurant,39.4669211,-0.3656221,Kamon,Carrer del Comte d'Altea 42,Valencia
restaurant,39.4567328,-0.3459666,UDON Aqua,Carrer de Menorca 19,Valencia
restaurant,39.4722813,-0.3725291,Helen Berger Hotel & Bar,Carrer de les Comèdies 24,Valencia
restaurant,39.4725614,-0.3710716,Restaurante Marrakech,Carrer del Verger 1,Valencia
restaurant,39.4602404,-0.3725616,La Casa Viva Russafa,Carrer de Cadis 76,Valencia
restaurant,39.5021011,-0.4385721,Asador el Palacio,NO STREET 9999,Valencia
restaurant,39.5083773,-0.4499769,Menjars Monpi II,NO STREET 9999,Valencia
restaurant,39.5067104,-0.4425628,L'Alquería de Parra,NO STREET 9999,Valencia
restaurant,39.4735606,-0.3736344,Goiko,"Carrer de la Pau, 9, 46003 València, Valencia, Spain 9999",Valencia
restaurant,39.4716427,-0.3416608,Cheers Valencia,Avinguda de Blasco Ibáñez 162,Valencia
restaurant,39.4747564,-0.3488052,Pomodoro Valencia Univ,Avinguda de Blasco Ibáñez 73,Valencia
restaurant,39.4731461,-0.3495329,Yecla 33,Carrer de Yecla 33,Valencia
restaurant,39.4165179,-0.3779206,Restaurante l'Alqueria,NO STREET 9999,Valencia
restaurant,39.417573,-0.3796553,Neco,NO STREET 9999,Valencia
restaurant,39.4166494,-0.378845,La Coloratta,Plaza Alquería de la Culla 8,Valencia
restaurant,39.4671886,-0.3676855,Lizarran Marqués del Turia,Gran Via del Marqués del Túria 56,Valencia
restaurant,39.5399096,-0.3727314,Bar Restaurant La Devesa,NO STREET 9999,Valencia
restaurant,39.4790447,-0.3778746,Wena Poh!,NO STREET 9999,Valencia
restaurant,39.4789333,-0.3775199,Mattilda,NO STREET 9999,Valencia
restaurant,39.4736253,-0.3556571,The Fitzgerald Burger Company,Carrer de Bèlgica 14,Valencia
restaurant,39.4778711,-0.3813034,Thai Mongkut,Carrer de la Corona 8,Valencia
restaurant,39.5270124,-0.3232715,Napicol,NO STREET 9999,Valencia
restaurant,39.5276819,-0.3227852,Ca Xoret,NO STREET 9999,Valencia
restaurant,39.5322867,-0.3460355,Barraca de Toni Montoliu,NO STREET 9999,Valencia
restaurant,39.4790187,-0.3769915,Volare,Carrer de Roteros 12,Valencia
restaurant,39.4793208,-0.3779665,La Pitusa,NO STREET 9999,Valencia
restaurant,39.4790387,-0.3776256,Gallina Negra,NO STREET 9999,Valencia
restaurant,39.5391844,-0.3699405,Bar-Restaurant Centre Cívic,NO STREET 9999,Valencia
restaurant,39.5361308,-0.3710108,Bar Frontó - Mellado,NO STREET 9999,Valencia
restaurant,39.5351131,-0.368951,Casa Walter,NO STREET 9999,Valencia
restaurant,39.5401344,-0.3718937,Moon,NO STREET 9999,Valencia
restaurant,39.4783497,-0.3799324,Il Toppino,NO STREET 9999,Valencia
restaurant,39.47725,-0.3798682,La Comadre,NO STREET 9999,Valencia
restaurant,39.4764023,-0.3802337,La Tía Juana,NO STREET 9999,Valencia
restaurant,39.4669094,-0.3697064,Lemongrass,NO STREET 9999,Valencia
restaurant,39.4730737,-0.3484485,Trattoria Napoletana Da Carlo,Dr. Manuel Candela 79,Valencia
restaurant,39.4705944,-0.3573535,Pulpo,NO STREET 9999,Valencia
restaurant,39.4591997,-0.3516527,Saona,NO STREET 9999,Valencia
restaurant,39.5427437,-0.4195873,Saona Santa Bárbara,Avinguda de les Corts Valencianes 16,Valencia
restaurant,39.4732331,-0.3780417,Mercaders,Carrer dels Ramillets 9999,Valencia
restaurant,39.4786103,-0.3260317,Casa Cesar,NO STREET 9999,Valencia
restaurant,39.5426479,-0.4202573,Il Cortile Santa Bárbara,Avinguda de les Corts Valencianes 15,Valencia
restaurant,39.4722628,-0.3403868,Cafetería Ibáñez 149,NO STREET 9999,Valencia
restaurant,39.4712426,-0.3346682,La Rioja VI,NO STREET 9999,Valencia
restaurant,39.4719712,-0.3380494,El Huevo Roto,NO STREET 9999,Valencia
restaurant,39.4720413,-0.3380072,El Toro y la Luna,NO STREET 9999,Valencia
restaurant,39.4721254,-0.3379706,El Holandés Errante,NO STREET 9999,Valencia
restaurant,39.4722614,-0.3379007,El Racó de la Tapa,NO STREET 9999,Valencia
restaurant,39.4719471,-0.3391066,Shahi,NO STREET 9999,Valencia
restaurant,39.4728826,-0.3346263,Bar Bocatería El Cantonet,Camí del Cabanyal 52,Valencia
restaurant,39.4715596,-0.334542,Bar Casa Juan,NO STREET 9999,Valencia
restaurant,39.4724735,-0.336232,Tasca Villamar,NO STREET 9999,Valencia
restaurant,39.4711376,-0.3365505,Algo Sencillito,NO STREET 9999,Valencia
restaurant,39.4748122,-0.3541861,Bocatería El Ninot,NO STREET 9999,Valencia
restaurant,39.4669132,-0.3769989,Amazing Toko,NO STREET 9999,Valencia
restaurant,39.467295,-0.3778596,Chang fu,Calle Bailen 4,Valencia
restaurant,39.4666699,-0.3781183,Tu Cocina,Calle Bailen 10,Valencia
restaurant,39.4915998,-0.3252756,Tres 14,Avenida Mare Nostrum 30,Valencia
restaurant,39.4785846,-0.3768416,Kukla,NO STREET 9999,Valencia
restaurant,39.4575363,-0.4654731,Bar Penalti,NO STREET 9999,Valencia
restaurant,39.4570765,-0.4677015,Bar Perolers,NO STREET 9999,Valencia
restaurant,39.4629499,-0.4599146,Bon Menjar,NO STREET 9999,Valencia
restaurant,39.4633152,-0.4593485,La Bona Cuina,NO STREET 9999,Valencia
restaurant,39.4628942,-0.4594318,Los Mil Sabores,NO STREET 9999,Valencia
restaurant,39.4658731,-0.4569429,Entrepà d'Inma,NO STREET 9999,Valencia
restaurant,39.4660254,-0.4579612,Bar Café Five,NO STREET 9999,Valencia
restaurant,39.4632941,-0.4579869,El Cumple,NO STREET 9999,Valencia
restaurant,39.4638263,-0.457142,Bar a on vas tan apresa,NO STREET 9999,Valencia
restaurant,39.4625652,-0.4573888,La Llar d'Edelweiss,NO STREET 9999,Valencia
restaurant,39.462327,-0.4586628,Ca Luís,NO STREET 9999,Valencia
restaurant,39.4620206,-0.4584509,Clan,NO STREET 9999,Valencia
restaurant,39.4605346,-0.4628592,Bar Utielana,NO STREET 9999,Valencia
restaurant,39.4600386,-0.4632853,Bar BumBum,NO STREET 9999,Valencia
restaurant,39.4589996,-0.4636015,Delicias de Oriente,NO STREET 9999,Valencia
restaurant,39.4601197,-0.4632558,Bar 2 de Maig,NO STREET 9999,Valencia
restaurant,39.483392,-0.3773043,Joaquín Schmidt,Carrer de la Visitació 7,Valencia
restaurant,39.459623,-0.4631133,Pollos Asados Bon Profit,NO STREET 9999,Valencia
restaurant,39.4579226,-0.3469134,Ryukishin,Carrer de Luis Bolinches Compañ 8,Valencia
bar,39.4748253,-0.3822345,Gilda,NO STREET 9999,Valencia
bar,39.4853697,-0.39947,Bar Molino II,NO STREET 9999,Valencia
bar,39.485786,-0.3997385,Bar Les Tendetes,NO STREET 9999,Valencia
bar,39.4812335,-0.3955433,NO NAME,NO STREET 9999,Valencia
bar,39.4810836,-0.3960111,NO NAME,NO STREET 9999,Valencia
bar,39.4851744,-0.3998755,Bar Restaurante Iván,NO STREET 9999,Valencia
bar,39.4848382,-0.3999168,Montaditos Karina,NO STREET 9999,Valencia
bar,39.458865,-0.4626716,Bar Ideal,NO STREET 9999,Valencia
bar,39.469265,-0.3571791,Zazu Lounge Shisha Bar,"Plaça del Periodista Ros Belda, 6, 46021 València, Valencia, Spain 9999",Valencia
bar,39.5478502,-0.3898232,NO NAME,NO STREET 9999,Valencia
bar,39.5435261,-0.3958456,NO NAME,NO STREET 9999,Valencia
bar,39.4596202,-0.400312,El Rincón de Jose IV,NO STREET 9999,Valencia
bar,39.4541649,-0.3914605,Alejandro Chen,NO STREET 9999,Valencia
bar,39.45933,-0.4006398,Ñam Ñam,NO STREET 9999,Valencia
bar,39.4541771,-0.393373,Champi,NO STREET 9999,Valencia
bar,39.4783,-0.394157,Bocadito's Bar,Avenida de Campanar 57,Valencia
bar,39.478686,-0.3951137,Joypa,Calle del Marqués de San Juan 7,Valencia
bar,39.4799012,-0.3943911,Cervecería Ciro,Plaça Papa Joan Pau II 4,Valencia
bar,39.4800168,-0.3956174,La Botillería,Calle del Valle de la Ballestera 23,Valencia
bar,39.479113,-0.3961112,Taberna de Vane,Calle de Castielfabib 18,Valencia
bar,39.4800833,-0.3933055,Bar Siolas,Avenida de Campanar 31,Valencia
bar,39.4786754,-0.3923018,La Bodeguilla del Rio,Avenida Tirso de Molina 3,Valencia
bar,39.4809996,-0.3956315,Bar Oporto,Calle de Valdelinares 19,Valencia
bar,39.4917033,-0.3962658,Millennium,NO STREET 9999,Valencia
bar,39.4918258,-0.3964566,Xicotet,NO STREET 9999,Valencia
bar,39.4910198,-0.395645,loratpenat,NO STREET 9999,Valencia
bar,39.480688,-0.4030389,Mar Negro,NO STREET 9999,Valencia
bar,39.4649836,-0.385011,Fata Morgana,NO STREET 9999,Valencia
bar,39.4552173,-0.3537768,L'Umbracle terraza,NO STREET 9999,Valencia
bar,39.4616219,-0.34154,Cafe Bar Arias,NO STREET 9999,Valencia
bar,39.4617559,-0.3420025,Cerveceria Cafeteria Noguera,NO STREET 9999,Valencia
bar,39.4627754,-0.3449393,Cerveceruia Argudo,NO STREET 9999,Valencia
bar,39.4616676,-0.3434534,Bar El Carro,NO STREET 9999,Valencia
bar,39.4613427,-0.3430381,Bar Lica,NO STREET 9999,Valencia
bar,39.4620444,-0.3447247,Bar Trafalgar,NO STREET 9999,Valencia
bar,39.4615577,-0.3438341,Cerveceria Bar Moncayo,NO STREET 9999,Valencia
bar,39.4639247,-0.3467578,Cafeteria Sendra,NO STREET 9999,Valencia
bar,39.4623488,-0.3460417,Bar Mis Tapas,NO STREET 9999,Valencia
bar,39.4620092,-0.34701,Mesón Iranzo,NO STREET 9999,Valencia
bar,39.4612636,-0.3463369,NO NAME,NO STREET 9999,Valencia
bar,39.4618146,-0.3460712,Bar - Las Gaviota,NO STREET 9999,Valencia
bar,39.4620051,-0.3461733,Nuevo Rocio,NO STREET 9999,Valencia
bar,39.4352363,-0.3917137,Tasca La Fundición,Alvarez de Sotomayor 9999,Valencia
bar,39.4355438,-0.39059,Café La Lola,Avenida Real de Madrid 9999,Valencia
bar,39.4351171,-0.3917433,Xe que bo,NO STREET 9999,Valencia
bar,39.4616369,-0.4004227,Cervecería - Bar Fito,NO STREET 9999,Valencia
bar,39.5457685,-0.3848148,Bar Silvestret,NO STREET 9999,Valencia
bar,39.5434809,-0.381741,Bar Poliesportiu,NO STREET 9999,Valencia
bar,39.4725192,-0.3784539,NO NAME,NO STREET 9999,Valencia
bar,39.5435386,-0.3959528,NO NAME,NO STREET 9999,Valencia
bar,39.5433649,-0.3967092,Anem de festa,NO STREET 9999,Valencia
bar,39.5454311,-0.3913607,Menut,NO STREET 9999,Valencia
bar,39.5448768,-0.3918785,Kebab,NO STREET 9999,Valencia
bar,39.5425313,-0.390033,Aromas,NO STREET 9999,Valencia
bar,39.5445025,-0.3961888,NO NAME,NO STREET 9999,Valencia
bar,39.5448272,-0.3972107,Casa Carmen,NO STREET 9999,Valencia
bar,39.4587446,-0.4503005,Clos del Gos,Carrer de Xirivella 9999,Valencia
bar,39.4588022,-0.451102,Cafeteria 9 d'octubre,Carrer Picanya 9999,Valencia
bar,39.4578807,-0.449463,NO NAME,NO STREET 9999,Valencia
bar,39.458887,-0.4494339,Alameda,NO STREET 9999,Valencia
bar,39.4582995,-0.4509899,"El Comilón, cafetería y bocatería",Carrer Xirivella 9999,Valencia
bar,39.4574603,-0.4484251,NO NAME,NO STREET 9999,Valencia
bar,39.4567147,-0.4511423,casa sori,NO STREET 9999,Valencia
bar,39.5111537,-0.4304087,NO NAME,NO STREET 9999,Valencia
bar,39.4740047,-0.3750782,Taberna de la Reina,Plaza de la Reina 1,Valencia
bar,39.5433411,-0.3473565,87 Gin's,NO STREET 9999,Valencia
bar,39.4568008,-0.3744155,Motor West Bar,Avenida del Doctor Waksman 9,Valencia
bar,39.4724235,-0.3445253,Rumbo 144,NO STREET 9999,Valencia
bar,39.4812511,-0.4025314,A la piedra,NO STREET 9999,Valencia
bar,39.5117024,-0.3607673,Rock City,NO STREET 9999,Valencia
bar,39.4759768,-0.3802894,Café Bolsería,NO STREET 9999,Valencia
bar,39.5447838,-0.3933075,Bar Carrer Major,NO STREET 9999,Valencia
bar,39.5420934,-0.3932609,Bar Ravalet,NO STREET 9999,Valencia
bar,39.4705296,-0.3544347,Bar Cafeteria La Esquina,NO STREET 9999,Valencia
bar,39.4620779,-0.3753602,Café Mercedes Jazz,Calle Sueca 27,Valencia
bar,39.4931111,-0.4000711,La tassa,NO STREET 9999,Valencia
bar,39.4704045,-0.3724851,Casa Mundo,Carrer de Don Juan de Áustria 11,Valencia
bar,39.4704894,-0.3750463,Cervecería Barcas 7,Carrer de les Barques 7,Valencia
bar,39.4738632,-0.3741746,Zumeria Naturalla,Carrer de la Mar 12,Valencia
bar,39.4856625,-0.3776781,The Muse,NO STREET 9999,Valencia
bar,39.4352146,-0.4659255,Oyememilola,NO STREET 9999,Valencia
bar,39.4991557,-0.417901,Susi,Calle de Don Rafael Tenes Escrig 7,Valencia
bar,39.4932605,-0.392296,Los Gemelos,NO STREET 9999,Valencia
bar,39.5026251,-0.4203923,Naharros,NO STREET 9999,Valencia
bar,39.4991318,-0.417541,Valencia,Calle de Don Rafael Tenes Escrig 9999,Valencia
bar,39.5022698,-0.4169757,Alnoaemi,Arquitecto Gilabert 1,Valencia
bar,39.5027953,-0.4174369,Los Llanos,Maestro Alberto Luz 30,Valencia
bar,39.470372,-0.3571222,Broma Cocteleria,Calle Chile 6,Valencia
bar,39.4712334,-0.3764187,Nibble,NO STREET 9999,Valencia
bar,39.4759319,-0.3805049,La Pilareta,Carrer del Moro Zeid 13,Valencia
bar,39.475432,-0.3851523,Piko's bar,NO STREET 9999,Valencia
bar,39.47615,-0.3774854,La Cava Del Negret,Plaça del Negret 15,Valencia
bar,39.475992,-0.377424,Cafe Negrito,NO STREET 9999,Valencia
bar,39.4763995,-0.3774069,Bocatin,Carrer de Calatrava 9999,Valencia
bar,39.4874536,-0.3859858,Macias,Calle de la Alquería de Giner 6,Valencia
bar,39.4695549,-0.3661929,bar trovados,NO STREET 9999,Valencia
bar,39.4722549,-0.3505446,Meltdown Valencia,NO STREET 9999,Valencia
bar,39.4742346,-0.3437325,Ben's Inn,NO STREET 9999,Valencia
bar,39.4265547,-0.4694938,Arte Vid,Carrer d'Escultor Vicente Pallardó 103,Valencia
bar,39.4761981,-0.3772793,Café - Pub Ghecko,Plaça del Negret 2,Valencia
bar,39.4715343,-0.3886821,Cerveceria Alhambra,Carrer de Calixt III 8,Valencia
bar,39.4664922,-0.380268,Cafe Mercado de Jerusalem,Calle de la Estrella 4,Valencia
bar,39.454739,-0.3579327,Solo del Mar - Pescaderia y tapas,Carrer Poeta Josep Cervera i Grifol 12,Valencia
bar,39.472471,-0.3330347,La Taberna Casera,Carrer d'Antoni Joan 8,Valencia
bar,39.4725424,-0.3709,Jib's,Plaça d'Alfons el Magnànim 15,Valencia
bar,39.4765413,-0.3772332,Pepita Pulgarcita,Carrer Cavallers 19,Valencia
bar,39.4830413,-0.3266528,Els Carinyets,Carrer de Cavite 168,Valencia
bar,39.4554654,-0.3740129,Barraca castillo,Calle de Ruben Vela 9999,Valencia
bar,39.4588875,-0.3626883,Casa Toni,Carrer Finestrat 9999,Valencia
bar,39.4626747,-0.3732761,Nixe,Calle del Doctor Serrano 12,Valencia
bar,39.4276422,-0.4705673,Café el Gourmet,NO STREET 9999,Valencia
bar,39.4664258,-0.379806,Bar Alpa,Carrer del Matemàtic Marzal 14,Valencia
bar,39.4651635,-0.3506338,Bar Piqueras,Avinguda del Port 9999,Valencia
bar,39.4650856,-0.3503789,Bar Cerveceria Acuario,Avinguda del Port 9999,Valencia
bar,39.4646696,-0.34899,Bar Gran Jardin,Avinguda del Port 9999,Valencia
bar,39.4646509,-0.3489285,Bar Restaurante,Avinguda del Port 9999,Valencia
bar,39.4676008,-0.3788736,Turis,NO STREET 9999,Valencia
bar,39.4860655,-0.3731976,Jaizkibel,NO STREET 9999,Valencia
bar,39.4737482,-0.3767609,Pinto i Trago,NO STREET 9999,Valencia
bar,39.4710315,-0.3778441,Taberna Antonio Manuel,NO STREET 9999,Valencia
bar,39.4828519,-0.3747864,Casa Ramón,NO STREET 9999,Valencia
bar,39.4695881,-0.3894247,La Taula de Paula,NO STREET 9999,Valencia
bar,39.4669321,-0.3809728,New York,NO STREET 9999,Valencia
bar,39.4714851,-0.379587,Bar El Tostadero,Avinguda del Baró de Càrcer 31,Valencia
bar,39.476065,-0.3771916,Plaza del Negrito,NO STREET 9999,Valencia
bar,39.4765257,-0.3787393,Fox Congo,NO STREET 9999,Valencia
bar,39.4760854,-0.38004,Café Infanta,NO STREET 9999,Valencia
bar,39.4764475,-0.3793937,Johnny Maracas,NO STREET 9999,Valencia
bar,39.4636329,-0.3574753,Panederia,Paseo de la Alameda 38,Valencia
bar,39.4602308,-0.3340143,Clementina Bar,NO STREET 9999,Valencia
bar,39.461933,-0.3397112,racó,NO STREET 9999,Valencia
bar,39.4627621,-0.3423025,Bar Galan,NO STREET 9999,Valencia
bar,39.4662805,-0.3544158,cerveceria tames,NO STREET 9999,Valencia
bar,39.4743528,-0.3237619,Beach Bol,NO STREET 9999,Valencia
bar,39.4682362,-0.3600664,Rifer,Avinguda d'Aragó 2,Valencia
bar,39.4686799,-0.377144,Hard Rock Cafe,Avinguda del Marqués de Sotelo 6,Valencia
bar,39.470946,-0.3770611,San Patricio,NO STREET 9999,Valencia
bar,39.4728267,-0.3775279,Santa María,NO STREET 9999,Valencia
bar,39.476035,-0.375679,La Catedral,NO STREET 9999,Valencia
bar,39.4762697,-0.3756026,El Micalet,NO STREET 9999,Valencia
bar,39.4763066,-0.3756792,La Crêpe,NO STREET 9999,Valencia
bar,39.4752287,-0.3757974,El Colmado,NO STREET 9999,Valencia
bar,39.4764247,-0.3801005,Unic Daily Goodness,NO STREET 9999,Valencia
bar,39.4746839,-0.3813589,Radio City,Carrer de Santa Teresa 19,Valencia
bar,39.4581912,-0.4512428,Bingo Alaquas,Carrer Xirivella 9999,Valencia
bar,39.4887501,-0.3943502,Los Segovia,NO STREET 9999,Valencia
bar,39.4513519,-0.3713907,Cafe Bar La Cantera,NO STREET 9999,Valencia
bar,39.4515518,-0.3715745,Casa Mateo,NO STREET 9999,Valencia
bar,39.4205488,-0.3824672,Bocatería Rafa y Raquel,NO STREET 9999,Valencia
bar,39.4238649,-0.3784754,Bar El molino,NO STREET 9999,Valencia
bar,39.4867375,-0.3902238,Dos palmeras,NO STREET 9999,Valencia
bar,39.487665,-0.389778,4 lirios,NO STREET 9999,Valencia
bar,39.4874715,-0.390256,Bar de Ruize,Avenida de Campanar 8,Valencia
bar,39.4871183,-0.3904196,Tropilatina,Avenida de Campanar 14,Valencia
bar,39.4874514,-0.3917902,Sal i Sucre,NO STREET 9999,Valencia
bar,39.4866745,-0.3912775,Cafe bar Restaruante,NO STREET 9999,Valencia
bar,39.4853777,-0.3939448,NO NAME,NO STREET 9999,Valencia
bar,39.4878316,-0.394643,NO NAME,NO STREET 9999,Valencia
bar,39.4870223,-0.3953618,NO NAME,NO STREET 9999,Valencia
bar,39.4877509,-0.3948227,"Bar, cerveceria Paco.",Calle Padre Fernando Casanova Benlloch 7,Valencia
bar,39.5137687,-0.3628064,Horchatería Subies,NO STREET 9999,Valencia
bar,39.4771275,-0.3807066,Immortal,NO STREET 9999,Valencia
bar,39.4597941,-0.3807584,NO NAME,NO STREET 9999,Valencia
bar,39.4670503,-0.3845264,A 3 bandas,Carrer de l'Historiador Diago 15,Valencia
bar,39.4722821,-0.4182142,Bar Come&Calla,Plaça de Joan XXIII 9999,Valencia
bar,39.467101,-0.3821525,El Mosset,NO STREET 9999,Valencia
bar,39.4686683,-0.4146182,Bar Churreria,Barri de la Llum 9999,Valencia
bar,39.4864803,-0.3592049,El Glop,NO STREET 9999,Valencia
bar,39.479044,-0.3771126,La flama,NO STREET 9999,Valencia
bar,39.4758804,-0.3775327,Oliví,Carrer de Calatrava 4,Valencia
bar,39.4688466,-0.3585571,La Birra de Brian,Carrer de Santa Rosa 3,Valencia
bar,39.4690876,-0.3794235,Luan,NO STREET 9999,Valencia
bar,39.465206,-0.3231895,Calypso,NO STREET 9999,Valencia
bar,39.4697766,-0.3794819,Toastone,NO STREET 9999,Valencia
bar,39.4761808,-0.38059,La Pitanza,NO STREET 9999,Valencia
bar,39.4742573,-0.359707,Bar Cervecería la Deportiva,NO STREET 9999,Valencia
bar,39.4910952,-0.4622564,Bar Felix,NO STREET 9999,Valencia
bar,39.4846949,-0.359412,Tulsa Café,Carrer de Juan Giner 11,Valencia
bar,39.4599221,-0.3354977,Bar Restaurante Porta,Carrer del Pare Porta 7,Valencia
bar,39.4643284,-0.4217931,Bar Trotania,Carrer del Palleter 6,Valencia
bar,39.4652315,-0.4214973,Bar Prisma,Avinguda del Turia 9999,Valencia
bar,39.4643087,-0.423181,Bar Lala II,Carrer de Joan XXIII 9999,Valencia
bar,39.5017976,-0.3456169,L'Infern,NO STREET 9999,Valencia
bar,39.4630564,-0.4262444,Bar Las Cadenas,Carrer Juan Antonio Bayot 9999,Valencia
bar,39.4856335,-0.3645686,Pub Colonial,NO STREET 9999,Valencia
bar,39.4855721,-0.3643607,Pub Excalibur,NO STREET 9999,Valencia
bar,39.4850456,-0.3606514,La Gramola,Carrer del Baró de San Petrillo 9,Valencia
bar,39.4851868,-0.3597983,London,Carrer d'Enric Navarro 8,Valencia
bar,39.4753509,-0.3824468,Beat Brew Bar,NO STREET 9999,Valencia
bar,39.4690786,-0.3889366,Hawaika,Carrer de l'Heroi Romeu 6,Valencia
bar,39.5024103,-0.3481543,Casa Cala,NO STREET 9999,Valencia
bar,39.4708751,-0.3281936,No Hay Nada Mejor Que 27 Amigos,Carrer de la Reina 186,Valencia
bar,39.4687904,-0.3496835,Bar Colón,NO STREET 9999,Valencia
bar,39.4707101,-0.3465437,Matisse club,NO STREET 9999,Valencia
bar,39.4603732,-0.3330135,NO NAME,NO STREET 9999,Valencia
bar,39.4614047,-0.3733927,La Bella de Cadiz,Carrer de Cadis 54,Valencia
bar,39.4856601,-0.3613506,Pulso,NO STREET 9999,Valencia
bar,39.4751829,-0.3758292,Lalola,NO STREET 9999,Valencia
bar,39.4687065,-0.3331308,Work in Progress,Carrer de Martí Grajales 13,Valencia
bar,39.4856685,-0.3657897,Bar Girasol,NO STREET 9999,Valencia
bar,39.4620641,-0.3627298,Bar la Taperia,NO STREET 9999,Valencia
bar,39.4578134,-0.384082,La Tahona de Celia,Carretera d'Escrivà 3,Valencia
bar,39.4615579,-0.3734942,C50,NO STREET 9999,Valencia
bar,39.4710776,-0.3534778,Var Mariví,NO STREET 9999,Valencia
bar,39.4798389,-0.3797735,Monterey,NO STREET 9999,Valencia
bar,39.4610276,-0.3829659,Bar de Toni,NO STREET 9999,Valencia
bar,39.4563636,-0.3835913,Bar Minguet,Carrer de San Vicente mártir 215,Valencia
bar,39.4661577,-0.3777484,La cervecería,NO STREET 9999,Valencia
pub,39.474516,-0.3824244,NEPO,NO STREET 9999,Valencia
pub,39.4753579,-0.3832023,Cubanito Lounge,NO STREET 9999,Valencia
pub,39.4758544,-0.3829965,Social Club,NO STREET 9999,Valencia
pub,39.4458878,-0.3893134,Barrilito,NO STREET 9999,Valencia
pub,39.4460559,-0.3881601,NO NAME,NO STREET 9999,Valencia
pub,39.4431391,-0.3883678,NO NAME,NO STREET 9999,Valencia
pub,39.443857,-0.3904429,NO NAME,NO STREET 9999,Valencia
pub,39.4786989,-0.3761952,La Maruja,NO STREET 9999,Valencia
pub,39.5089853,-0.323361,NO NAME,NO STREET 9999,Valencia
pub,39.5435243,-0.3957562,Clac,NO STREET 9999,Valencia
pub,39.5443288,-0.3950213,El mur,NO STREET 9999,Valencia
pub,39.4543644,-0.3937612,Sanjurjo,NO STREET 9999,Valencia
pub,39.4595861,-0.3999157,Plaza,NO STREET 9999,Valencia
pub,39.454526,-0.3941814,El Cantó,NO STREET 9999,Valencia
pub,39.4827211,-0.4491008,El Temple Rock Bar,Avenida de San Onofre 60,Valencia
pub,39.4809139,-0.4034217,Toni Montana Pub,NO STREET 9999,Valencia
pub,39.4580752,-0.3919696,Entre Rubias,Carrer Fontanars dels Alforins 24,Valencia
pub,39.4123444,-0.3996215,NO NAME,NO STREET 9999,Valencia
pub,39.4764536,-0.3527679,Bulebú,Carrer de Gorgos 9999,Valencia
pub,39.4616256,-0.3476218,Bar cerveceria Pan & Moja,NO STREET 9999,Valencia
pub,39.4613797,-0.3472567,Cervecería El Castillo de la Mota,NO STREET 9999,Valencia
pub,39.477604,-0.3504576,Max Max,Calle del Vinalopó 11,Valencia
pub,39.5426099,-0.3895959,House,NO STREET 9999,Valencia
pub,39.4808294,-0.4440601,Cervecería Praga Valencia,NO STREET 9999,Valencia
pub,39.4616816,-0.3753913,La Malvaloca,NO STREET 9999,Valencia
pub,39.4617859,-0.3751712,Comic Café,NO STREET 9999,Valencia
pub,39.4610168,-0.3767214,Los Pitufos,NO STREET 9999,Valencia
pub,39.4612569,-0.3764114,La Flaca,NO STREET 9999,Valencia
pub,39.4619667,-0.3739282,Café Tocado,NO STREET 9999,Valencia
pub,39.4736035,-0.3446387,Murray Club,NO STREET 9999,Valencia
pub,39.4747112,-0.3798074,London,Calle Botellas 20,Valencia
pub,39.4629192,-0.4315707,El semáforo cervecería,Calle Carmen Estellés 1B,Valencia
pub,39.4703793,-0.3892442,Pasos,Calle de Juan Llorens 56,Valencia
pub,39.470513,-0.3893509,Majura Limon,Calle de Juan Llorens 54,Valencia
pub,39.4704534,-0.3893007,Semilla Negra,Calle de Juan Llorens 54,Valencia
pub,39.4749985,-0.3787014,The Market craft beer,Carrer de les Dances 5,Valencia
pub,39.4749163,-0.3790514,La Fábrica de Cerveza,Carrer de la Taula de Canvis 5,Valencia
pub,39.473047,-0.3759757,Saint Martin's Urban Irish,Carrer de Sant Vicent Màrtir 2,Valencia
pub,39.4683613,-0.3763046,La Sureña,Carrer del Convent de Santa Clara 10,Valencia
pub,39.4545067,-0.4630448,Cervecería Lola,NO STREET 9999,Valencia
pub,39.4541789,-0.4628985,La taberna de Tino,NO STREET 9999,Valencia
pub,39.4129612,-0.3995554,Escuela de calor,NO STREET 9999,Valencia
pub,39.4835705,-0.3596099,Izakaya Koreo,Carrer de la Pobla Llarga 3,Valencia
pub,39.4664141,-0.3639572,La Piula,Calle Burriana 45,Valencia
pub,39.4731247,-0.3790624,Central Bar (Mercado Central puestos 105-131),Plaça de la Ciutat de Bruges 9999,Valencia
pub,39.484122,-0.3620618,PintxoTaberna,Carrer Soledad Doménech 14,Valencia
pub,39.4773246,-0.417463,APTC Bocatería - Cerveceria,Plaza Principe de Asturias 13,Valencia
pub,39.4766936,-0.3836194,El Convento,NO STREET 9999,Valencia
pub,39.4837441,-0.32789,"Bar Rafa ""El Toto""",Avinguda de la Malva-rosa 121,Valencia
pub,39.4836866,-0.3279987,Brasas y leña,Carrer de Mendizábal 31,Valencia
pub,39.466177,-0.3840301,NO NAME,Carrer d'Alzira 9999,Valencia
pub,39.4770593,-0.3769756,Oharas,NO STREET 9999,Valencia
pub,39.4918786,-0.3997068,NO NAME,NO STREET 9999,Valencia
pub,39.4694278,-0.3887337,Entre Tiempos,NO STREET 9999,Valencia
pub,39.4688774,-0.3929863,NO NAME,NO STREET 9999,Valencia
pub,39.4654743,-0.3870077,Nuevo Cuenca,NO STREET 9999,Valencia
pub,39.4663837,-0.3857814,Chemaní,NO STREET 9999,Valencia
pub,39.4619975,-0.3694936,Tagueria La Llorona,Carrer Pintor Salvador Abril 29,Valencia
pub,39.4703844,-0.3771667,Homenaje,NO STREET 9999,Valencia
pub,39.4710398,-0.3757933,La Manera Coffee & Food & Cocktail,Carrer de Moratín 13,Valencia
pub,39.4744026,-0.3750482,Finnegans of Dublin,NO STREET 9999,Valencia
pub,39.4887235,-0.3717518,La Roda,NO STREET 9999,Valencia
pub,39.480863,-0.3279605,El Tio Nelo,NO STREET 9999,Valencia
pub,39.4670081,-0.3324281,Naval,NO STREET 9999,Valencia
pub,39.4857725,-0.3552629,Toni & Xin,NO STREET 9999,Valencia
pub,39.4681478,-0.3518449,Cerveceria Cepeda,NO STREET 9999,Valencia
pub,39.4653585,-0.3284954,Savana,NO STREET 9999,Valencia
pub,39.4860296,-0.3577543,La Murta vins i tapes,Carrer de la Murta 14,Valencia
pub,39.4850989,-0.3606025,Terra Centre Social Bar,Carrer de San Petrillo 9,Valencia
pub,39.4870889,-0.3592723,La Bodega de Benimaclet,Carrer d'Alegret 2,Valencia
pub,39.4599394,-0.3559521,Bar Terraza El Mirador,NO STREET 9999,Valencia
pub,39.4697484,-0.4164792,Taberna Los Farrastas,Camí Vell de Xirivella 60,Valencia
pub,39.4682988,-0.3664518,St. Patrick's Valencia,Gran Via Marqués del Turia 69,Valencia
pub,39.4873358,-0.3601319,Clandestí,Carrer del Poeta Asins 9,Valencia
pub,39.486841,-0.3610385,L'Alquímia,Carrer de Manuel Castellanos 12,Valencia
pub,39.4638581,-0.3699023,Bar Casa Morrut,Carrer del Mestre Josep Serrano 4,Valencia
pub,39.4746602,-0.3451804,Magik Bar,NO STREET 9999,Valencia
pub,39.4659593,-0.4095039,NO NAME,NO STREET 9999,Valencia
pub,39.4661034,-0.4101653,NO NAME,NO STREET 9999,Valencia
pub,39.4677144,-0.3511827,Bar Soñar,NO STREET 9999,Valencia
pub,39.4685052,-0.3897221,NO NAME,NO STREET 9999,Valencia
pub,39.4862447,-0.3583464,La Plaza Cervecería,NO STREET 9999,Valencia
pub,39.4631535,-0.3674235,Bar Toledano,NO STREET 9999,Valencia
pub,39.4727833,-0.3609066,NO NAME,NO STREET 9999,Valencia
pub,39.4597244,-0.3831787,NO NAME,NO STREET 9999,Valencia
pub,39.48521,-0.3590519,Bar Els Xiquets,NO STREET 9999,Valencia
pub,39.48453,-0.3576513,Bar Alejandro,NO STREET 9999,Valencia
pub,39.4868936,-0.356978,Bar Cervecería Mestre,NO STREET 9999,Valencia
pub,39.4838406,-0.3584814,Cervecería El Tranvía,NO STREET 9999,Valencia
pub,39.4857715,-0.3593535,Bar Isaac,NO STREET 9999,Valencia
pub,39.4852976,-0.3595986,NO NAME,NO STREET 9999,Valencia
pub,39.4833701,-0.3579521,Panoramix,NO STREET 9999,Valencia
pub,39.4845483,-0.3608864,Bogar,NO STREET 9999,Valencia
pub,39.4877436,-0.3607042,Bar Los Amigos,NO STREET 9999,Valencia
pub,39.4888555,-0.3599562,Bar de los Montaditos Gratis,NO STREET 9999,Valencia
pub,39.490158,-0.3595085,Jaiskibel,NO STREET 9999,Valencia
pub,39.4806655,-0.3617298,Bar Venezuela,NO STREET 9999,Valencia
pub,39.4880367,-0.3574968,Bar Alfàbrega,NO STREET 9999,Valencia
pub,39.4845896,-0.3622286,NO NAME,NO STREET 9999,Valencia
pub,39.4862824,-0.3628284,Bar Paco,NO STREET 9999,Valencia
pub,39.4850683,-0.3637818,Focus,NO STREET 9999,Valencia
pub,39.4899529,-0.3610192,NO NAME,NO STREET 9999,Valencia
pub,39.4898766,-0.3600275,Bar Fernando,NO STREET 9999,Valencia
pub,39.489929,-0.3599906,Tasca Los Olmos,NO STREET 9999,Valencia
pub,39.4838463,-0.3596338,Ratpenat,NO STREET 9999,Valencia
pub,39.4623448,-0.3879278,Nova Utopia,NO STREET 9999,Valencia
pub,39.4486945,-0.3871748,Tres cañas,NO STREET 9999,Valencia
pub,39.4484752,-0.3864559,Cervecería 2000,NO STREET 9999,Valencia
pub,39.4480359,-0.3897821,Bar Alhambra,NO STREET 9999,Valencia
pub,39.4508532,-0.3916241,Bar Cuenca,NO STREET 9999,Valencia
pub,39.4504545,-0.3924521,Cervecería Forata,NO STREET 9999,Valencia
pub,39.4541526,-0.3920789,La Terraza de Gaspar,NO STREET 9999,Valencia
pub,39.485538,-0.3642766,Moonwalk,NO STREET 9999,Valencia
pub,39.4634657,-0.3674216,Bar Canada,NO STREET 9999,Valencia
pub,39.4644794,-0.3702243,Perla Negra,NO STREET 9999,Valencia
pub,39.5124615,-0.3557206,La terraza del fraile,Vicente lladró 12,Valencia
pub,39.5424068,-0.4201289,La Taberna De Chipri,Avinguda Corts Valencianes 9999,Valencia
pub,39.4442929,-0.3440295,Bar Cristobal,NO STREET 9999,Valencia
pub,39.4593419,-0.4396878,Bar Teruel,NO STREET 9999,Valencia
pub,39.483897,-0.3769617,Bar Volver a empezar,NO STREET 9999,Valencia
pub,39.540836,-0.3704723,Bar Isaias,NO STREET 9999,Valencia
pub,39.5411731,-0.37068,Bar Pepet,NO STREET 9999,Valencia
pub,39.5367825,-0.3722593,Bar Carraixet,NO STREET 9999,Valencia
pub,39.5464017,-0.3869062,El Parquet,NO STREET 9999,Valencia
pub,39.4721087,-0.3393955,NO NAME,NO STREET 9999,Valencia
pub,39.4749318,-0.3543673,La Giocconda,NO STREET 9999,Valencia
cafe,39.4726864,-0.3804083,Bar Valencia,NO STREET 9999,Valencia
cafe,39.4725895,-0.3803718,Cafés Valiente,NO STREET 9999,Valencia
cafe,39.471011,-0.3818602,Ni pa ti ni pa mi,NO STREET 9999,Valencia
cafe,39.4710084,-0.3816271,Rivendel,NO STREET 9999,Valencia
cafe,39.4709045,-0.381409,Poquito a poco,NO STREET 9999,Valencia
cafe,39.4711826,-0.3803981,Cervecería Velluters,NO STREET 9999,Valencia
cafe,39.4709675,-0.3808791,Café Santos,NO STREET 9999,Valencia
cafe,39.4723522,-0.381146,Bar Victoria,NO STREET 9999,Valencia
cafe,39.4727638,-0.3836713,Café Bar Almansa,NO STREET 9999,Valencia
cafe,39.4737971,-0.3836228,Café Clasic,NO STREET 9999,Valencia
cafe,39.4751587,-0.3823877,Bar Azahar,NO STREET 9999,Valencia
cafe,39.4747931,-0.3810849,Ca Revolta,NO STREET 9999,Valencia
cafe,39.4743828,-0.381215,Bar Jesús,NO STREET 9999,Valencia
cafe,39.4735681,-0.3799675,Brujas,NO STREET 9999,Valencia
cafe,39.4733774,-0.3799665,Magarín,NO STREET 9999,Valencia
cafe,39.4733399,-0.3811324,Café Coral,NO STREET 9999,Valencia
cafe,39.4730281,-0.3812564,Bar els Cremats,NO STREET 9999,Valencia
cafe,39.4726806,-0.3804636,Cafetería Leali,NO STREET 9999,Valencia
cafe,39.4718839,-0.3792638,Adressadors,NO STREET 9999,Valencia
cafe,39.4704487,-0.3847244,Ti amo café,NO STREET 9999,Valencia
cafe,39.4702672,-0.3841466,Bar Jesus,Calle Ángel Guimerà 9999,Valencia
cafe,39.4635442,-0.4596953,Cafetería del Mercat,NO STREET 9999,Valencia
cafe,39.5461631,-0.3880163,Bar Tapate,NO STREET 9999,Valencia
cafe,39.5477791,-0.3886699,Cafetería Chigal,NO STREET 9999,Valencia
cafe,39.5452824,-0.3849201,Bar Alfara,NO STREET 9999,Valencia
cafe,39.470736,-0.3780857,Starbucks,Carrer de Sant Vicent Màrtir 44,Valencia
cafe,39.4739367,-0.3759761,Horchatería El Siglo,NO STREET 9999,Valencia
cafe,39.473839,-0.3762378,Horchateria de Santa Catalina,NO STREET 9999,Valencia
cafe,39.4959486,-0.3710119,Solaz,NO STREET 9999,Valencia
cafe,39.5086205,-0.3231805,NO NAME,NO STREET 9999,Valencia
cafe,39.508139,-0.3218076,Toni,NO STREET 9999,Valencia
cafe,39.4819069,-0.3433539,Cafetería Pizzeria,NO STREET 9999,Valencia
cafe,39.5125885,-0.3213704,NO NAME,NO STREET 9999,Valencia
cafe,39.5445419,-0.3964965,NO NAME,NO STREET 9999,Valencia
cafe,39.5451573,-0.3933348,Soriano,NO STREET 9999,Valencia
cafe,39.4532166,-0.390637,Con Fundamento,NO STREET 9999,Valencia
cafe,39.45433,-0.3936721,Juan de Garay,NO STREET 9999,Valencia
cafe,39.4523228,-0.3890102,Garden,NO STREET 9999,Valencia
cafe,39.4536608,-0.3924015,Avenida,NO STREET 9999,Valencia
cafe,39.4528787,-0.3904292,Salon de Té Moreno Ponce 2,NO STREET 9999,Valencia
cafe,39.455031,-0.3935621,Les Pilars,NO STREET 9999,Valencia
cafe,39.4536209,-0.3903263,Quiros,NO STREET 9999,Valencia
cafe,39.4529094,-0.3899888,Toni's,NO STREET 9999,Valencia
cafe,39.4812399,-0.3721349,Bar Casa Paco,NO STREET 9999,Valencia
cafe,39.4769983,-0.3629218,Cafetería Daniel's,NO STREET 9999,Valencia
cafe,39.4806099,-0.3935114,Cafetería Caty,Avenida de Campanar 92,Valencia
cafe,39.4791182,-0.3938375,Campanar 43,Avenida de Campanar 43,Valencia
cafe,39.478643,-0.3940655,Cerveceria Espe,NO STREET 9999,Valencia
cafe,39.4792643,-0.3934976,Jarajuel,Avenida de Campanar 41,Valencia
cafe,39.4783577,-0.3955715,Cafenet,Calle de Castielfabib 12,Valencia
cafe,39.4786996,-0.3958178,Ciber Cafe,Calle de Castielfabib 14,Valencia
cafe,39.480333,-0.3959627,Capricho de las Américas,Calle del Doctor Calatayud Baya 4,Valencia
cafe,39.4906172,-0.3951526,Valiente,NO STREET 9999,Valencia
cafe,39.472988,-0.375503,Cafe Madrid,NO STREET 9999,Valencia
cafe,39.4807552,-0.4021919,Sabores de durban,NO STREET 9999,Valencia
cafe,39.5306227,-0.4408972,El rincón de Gofito,NO STREET 9999,Valencia
cafe,39.5050167,-0.3636844,NO NAME,NO STREET 9999,Valencia
cafe,39.4607236,-0.3454019,Panaderia Pastisseria Temptacions,NO STREET 9999,Valencia
cafe,39.4314039,-0.4728181,Panissim,NO STREET 9999,Valencia
cafe,39.4593312,-0.3690248,NO NAME,NO STREET 9999,Valencia
cafe,39.460596,-0.3694887,La Estrella,NO STREET 9999,Valencia
cafe,39.520947,-0.4259693,Casas Verdes,NO STREET 9999,Valencia
cafe,39.5186545,-0.4222196,De paso,NO STREET 9999,Valencia
cafe,39.4822199,-0.3489146,Cafetería La Vella,NO STREET 9999,Valencia
cafe,39.4872154,-0.3804847,NO NAME,NO STREET 9999,Valencia
cafe,39.492677,-0.3572466,Horchatería Els Sarriers,NO STREET 9999,Valencia
cafe,39.4738985,-0.3734311,Marbar,NO STREET 9999,Valencia
cafe,39.4529416,-0.4642751,Flor de Canela,Carrer Dolores Ibárruri 9999,Valencia
cafe,39.4671241,-0.3746265,Cafetería Bertal,NO STREET 9999,Valencia
cafe,39.4795503,-0.3793001,Café Museo,NO STREET 9999,Valencia
cafe,39.4763717,-0.3798807,Café Sant Jaume,Carrer Cavallers 9999,Valencia
cafe,39.4761925,-0.3756215,Café & Té,NO STREET 9999,Valencia
cafe,39.4738041,-0.4125043,Café-Bar Mayor,Carrer Major 52,Valencia
cafe,39.4784752,-0.34266,Cafeteria Facultad de Derecho,NO STREET 9999,Valencia
cafe,39.47133,-0.3798923,Panaria,NO STREET 9999,Valencia
cafe,39.5096385,-0.45323,Cafetería les Ones,NO STREET 9999,Valencia
cafe,39.4636489,-0.3874308,Liaopastel,NO STREET 9999,Valencia
cafe,39.4600334,-0.4732301,NO NAME,NO STREET 9999,Valencia
cafe,39.4641914,-0.3673765,melocomo,Carrer de l'Almirall Cadarso 30,Valencia
cafe,39.4744055,-0.3775961,Café Lisboa,Plaça del Doctor Collado 9,Valencia
cafe,39.4836848,-0.3466345,La Vella,NO STREET 9999,Valencia
cafe,39.4750188,-0.3821422,Viriato,Plaça de Viriat 9999,Valencia
cafe,39.4747984,-0.377039,Magarota,Carrer dels Assaonadors 7,Valencia
cafe,39.5033261,-0.4429644,Santa Inés,NO STREET 9999,Valencia
cafe,39.4599578,-0.37577,NO NAME,NO STREET 9999,Valencia
cafe,39.472787,-0.3764991,Starbucks,NO STREET 9999,Valencia
cafe,39.4728205,-0.3710739,Starbucks,NO STREET 9999,Valencia
cafe,39.4763263,-0.3499385,Carajillo,NO STREET 9999,Valencia
cafe,39.5025375,-0.4170043,El Pozo,Arquitecto Gilabert 5,Valencia
cafe,39.5029376,-0.417066,NO NAME,Maestro Alberto Luz 37,Valencia
cafe,39.4814198,-0.364187,Panaria Jaime Roig,Carrer de Jaume Roig 15,Valencia
cafe,39.4711877,-0.3764093,Cafetería Mibble,NO STREET 9999,Valencia
cafe,39.4717307,-0.376537,Aromas de Dakar,NO STREET 9999,Valencia
cafe,39.4718995,-0.3710506,Cafe De Les Mones,NO STREET 9999,Valencia
cafe,39.4714124,-0.372068,Cafetería Bombay,NO STREET 9999,Valencia
cafe,39.4705022,-0.3747216,lotelito,NO STREET 9999,Valencia
cafe,39.4672736,-0.3751571,Wowble,NO STREET 9999,Valencia
cafe,39.4631364,-0.3720372,Panaria,NO STREET 9999,Valencia
cafe,39.462895,-0.3717626,Bocatería Centro,NO STREET 9999,Valencia
cafe,39.4613374,-0.3410777,Orxateria Gelateria Blanc i Verd,NO STREET 9999,Valencia
cafe,39.4671876,-0.3690125,NO NAME,NO STREET 9999,Valencia
cafe,39.4768153,-0.4080331,Quest Laser Cafe,NO STREET 9999,Valencia
cafe,39.5131147,-0.4237432,NO NAME,NO STREET 9999,Valencia
cafe,39.4547143,-0.4620227,Tasca Ajoarriero,NO STREET 9999,Valencia
cafe,39.4763983,-0.3801721,petitbistró,NO STREET 9999,Valencia
cafe,39.4538709,-0.4632515,Bar El Rincón,NO STREET 9999,Valencia
cafe,39.4543643,-0.462179,Bar El Imperial,NO STREET 9999,Valencia
cafe,39.4532662,-0.4632526,Bar El Moreno - El Original,NO STREET 9999,Valencia
cafe,39.4810564,-0.4014258,Coffe house,NO STREET 9999,Valencia
cafe,39.4745613,-0.3526416,vera,NO STREET 9999,Valencia
cafe,39.4644681,-0.4570778,Cafetería La Font de la Pipa,Avenida Blasco Ibáñez 9999,Valencia
cafe,39.4735717,-0.3547248,distrito 21,polo y peyrolon 21,Valencia
cafe,39.4572606,-0.3916696,Los Arcos,Carrer Ciutat de Melilla 1,Valencia
cafe,39.4962463,-0.3535141,Titi's Coffee,Avenida de la Horchata 31,Valencia
cafe,39.4319967,-0.4730665,Rustic,Avinguda Al Vedat 90,Valencia
cafe,39.4565314,-0.3464383,Neco,Carrer de Menorca 19,Valencia
cafe,39.4698749,-0.3738035,Neco,Carrer de Pascual i Genís 9,Valencia
cafe,39.4783071,-0.3853671,Cafe del Duende,Calle del Túria 62,Valencia
cafe,39.4828869,-0.442035,El Fanalet,Plaça del País Valencià 2,Valencia
cafe,39.4600041,-0.381852,La Pausa - Lavazza,NO STREET 9999,Valencia
cafe,39.4739519,-0.3248834,playa,NO STREET 9999,Valencia
cafe,39.4731439,-0.3725283,Cafetería La Nau,NO STREET 9999,Valencia
cafe,39.4759823,-0.375516,Cafetería la Virgen,NO STREET 9999,Valencia
cafe,39.4704357,-0.3473478,La clave,Carrer de Zarra 7,Valencia
cafe,39.4722336,-0.3755055,Cafe Federal,NO STREET 9999,Valencia
cafe,39.4738214,-0.375166,Cappuccino Valencia,NO STREET 9999,Valencia
cafe,39.50647,-0.3470932,Horchateria Vida,Partida de Saboia 6,Valencia
cafe,39.4489669,-0.379376,Pan de Café,Carretera de Malilla 67,Valencia
cafe,39.4630217,-0.3423059,Churrería Chocolatería,NO STREET 9999,Valencia
cafe,39.479281,-0.3713128,El menjar amb viracre,Carrer de Sant Pius V 9,Valencia
cafe,39.4652164,-0.3508217,Bar Cafeteria La Reja,Avinguda del Port 9999,Valencia
cafe,39.4651124,-0.350464,Cafeteria Omar,Avinguda del Port 9999,Valencia
cafe,39.4642054,-0.3474008,Cafe Dels Sommis,Avinguda del Port 9999,Valencia
cafe,39.4639561,-0.3465699,NOU Amstel,Avinguda del Port 9999,Valencia
cafe,39.4644825,-0.3642253,Panaria,Calle de la Reina Doña Germana 9999,Valencia
cafe,39.4767062,-0.3988274,NO NAME,NO STREET 9999,Valencia
cafe,39.4767649,-0.3983847,Cafetería Plaza Picasso,Plaza Pablo Picasso 9999,Valencia
cafe,39.4781548,-0.393502,Sajonia,Avenida Tirso de Molina 6,Valencia
cafe,39.4776653,-0.3974222,Café Cucharita,NO STREET 9999,Valencia
cafe,39.4729517,-0.3763681,Llao Llao,NO STREET 9999,Valencia
cafe,39.4706169,-0.3778051,Aremar,NO STREET 9999,Valencia
cafe,39.4689699,-0.3794192,Paco Sucre i Blat,NO STREET 9999,Valencia
cafe,39.4687556,-0.3785809,Cafetería Heladería Sant Pau,Carrer de Sant Pau 9999,Valencia
cafe,39.4748723,-0.3757718,Café Bertzal,NO STREET 9999,Valencia
cafe,39.4788216,-0.3759535,Cafe Lavin,NO STREET 9999,Valencia
cafe,39.457773,-0.3463033,La Mie Dorée,NO STREET 9999,Valencia
cafe,39.4713869,-0.3769547,Cafetería Ascot,NO STREET 9999,Valencia
cafe,39.4662896,-0.3811284,NO NAME,NO STREET 9999,Valencia
cafe,39.467759,-0.379951,Cafetería Bertal,NO STREET 9999,Valencia
cafe,39.4692446,-0.3873731,Espai Llimera,Calle de Timoneda 9999,Valencia
cafe,39.4675096,-0.3573552,NO NAME,NO STREET 9999,Valencia
cafe,39.4663322,-0.3534213,Capuccino,NO STREET 9999,Valencia
cafe,39.463607,-0.3443878,NO NAME,NO STREET 9999,Valencia
cafe,39.4613217,-0.3366235,Cafeteria El puerto,NO STREET 9999,Valencia
cafe,39.4603529,-0.334417,NO NAME,NO STREET 9999,Valencia
cafe,39.4604537,-0.3347761,Barcafeteria Alhambra,NO STREET 9999,Valencia
cafe,39.4620418,-0.3400779,Valikiria,NO STREET 9999,Valencia
cafe,39.473721,-0.3748573,Italian Break,NO STREET 9999,Valencia
cafe,39.4736416,-0.3771408,El Café de Camilo,Carrer del Trench 4,Valencia
cafe,39.469199,-0.3751465,Lauria 3,NO STREET 9999,Valencia
cafe,39.4681013,-0.3768061,BlueMoon,NO STREET 9999,Valencia
cafe,39.4688468,-0.3739633,La Bolsa,NO STREET 9999,Valencia
cafe,39.4683636,-0.3757559,Véneto,NO STREET 9999,Valencia
cafe,39.4678735,-0.3790311,Valiente,NO STREET 9999,Valencia
cafe,39.4741196,-0.3777625,Horchatería El Collado,NO STREET 9999,Valencia
cafe,39.4690861,-0.3770899,Viena,NO STREET 9999,Valencia
cafe,39.4723798,-0.3771426,Yogurtería Danone,NO STREET 9999,Valencia
cafe,39.472373,-0.365872,NO NAME,NO STREET 9999,Valencia
cafe,39.469029,-0.3778301,Pastelería NUEZCAFÉ,NO STREET 9999,Valencia
cafe,39.4713686,-0.3763119,Cafeteria Suizo,NO STREET 9999,Valencia
cafe,39.4774589,-0.3751189,Navellos,NO STREET 9999,Valencia
cafe,39.472578,-0.3703726,Cafes Reke Su Cafe Kiosco La Paz,NO STREET 9999,Valencia
cafe,39.4674339,-0.3667353,Alvaro,NO STREET 9999,Valencia
cafe,39.4717113,-0.3753599,NO NAME,NO STREET 9999,Valencia
cafe,39.4728888,-0.3788644,Cafeteria Lim,NO STREET 9999,Valencia
cafe,39.4769686,-0.3798457,Café Tertulia,NO STREET 9999,Valencia
cafe,39.4858754,-0.3928297,Cafetería la creme,Carrer del Monestir de Poblet 12,Valencia
cafe,39.4863908,-0.3903762,Bar Cafeteria Avenida,NO STREET 9999,Valencia
cafe,39.5128742,-0.3574357,La Font,NO STREET 9999,Valencia
cafe,39.512109,-0.3563644,Orchatería/Cafetería LA MARE,NO STREET 9999,Valencia
cafe,39.4598314,-0.3817356,Café Café,NO STREET 9999,Valencia
cafe,39.4724387,-0.4179408,Churreria Santos,Carrer Ortega i Gasset 9999,Valencia
cafe,39.4762722,-0.3782989,NO NAME,NO STREET 9999,Valencia
cafe,39.4471737,-0.3929664,NO NAME,NO STREET 9999,Valencia
cafe,39.4618825,-0.396118,Cafetal Club,NO STREET 9999,Valencia
cafe,39.4645032,-0.3885496,Cafecito,NO STREET 9999,Valencia
cafe,39.4860528,-0.3579506,El Colmado,NO STREET 9999,Valencia
cafe,39.4698033,-0.3850036,Liaopastel,NO STREET 9999,Valencia
cafe,39.4768948,-0.3273211,Cafetal Club,NO STREET 9999,Valencia
cafe,39.4765925,-0.3273252,La Biancs,NO STREET 9999,Valencia
cafe,39.4649524,-0.3488712,Portobello,Avinguda del Port 109,Valencia
cafe,39.4749297,-0.3705812,Brunch Corner - Sant Bult,Plaça del Sant Bult 3,Valencia
cafe,39.4604315,-0.3738813,NO NAME,Calle del Literato Azorín 9999,Valencia
cafe,39.4793644,-0.3906632,Cafeteria Fika,NO STREET 9999,Valencia
cafe,39.4740857,-0.3744682,Valor,NO STREET 9999,Valencia
cafe,39.4738331,-0.3784686,L'Orxateria,NO STREET 9999,Valencia
cafe,39.4765022,-0.3800354,El Cafetín,Plaça de Sant Jaume 8,Valencia
cafe,39.4875792,-0.3596322,Letras y Vinos,Carrer del Músic Belando 15,Valencia
cafe,39.4813614,-0.3568821,Café de las Luces,Carrer de la Guàrdia Civil 20,Valencia
cafe,39.4997608,-0.4092672,Coffee Blue,NO STREET 9999,Valencia
cafe,39.4791452,-0.3562049,Foc,NO STREET 9999,Valencia
cafe,39.4739398,-0.3770676,El Cafe Del Mar,Plaça de Lope de Vega 5,Valencia
cafe,39.4708509,-0.3772749,Bocateria Tandem,Carrer d'En Llop 3,Valencia
cafe,39.454881,-0.358288,Turia,NO STREET 9999,Valencia
cafe,39.4618929,-0.3757748,Bluebell Coffee Co.,Carrer de Buenos Aires 3,Valencia
cafe,39.4970233,-0.3534197,La sucrera,NO STREET 9999,Valencia
cafe,39.462907,-0.4255639,Cafetería Berti,Avinguda de la Constitució 9999,Valencia
cafe,39.4633127,-0.427093,Café Les Roques,Carrer de José Iturbi 9999,Valencia
cafe,39.4749589,-0.3493616,La Boutique Del Pan,NO STREET 9999,Valencia
cafe,39.4922646,-0.3588085,Horchateria Rin,NO STREET 9999,Valencia
cafe,39.4830851,-0.3583584,La Ola Fresca,Carrer del Músic Magenti 11,Valencia
cafe,39.4727673,-0.3761638,Pinsa Re,NO STREET 9999,Valencia
cafe,39.4710965,-0.3890549,La taberna de Kalixto,Carrer de Calixt III 29,Valencia
cafe,39.4630998,-0.3745828,Café Berlin,Carrer de Cadis 22,Valencia
cafe,39.45968,-0.3717082,Café Valiente,Carrer dels Centelles 32,Valencia
cafe,39.4627508,-0.3716333,Sweets & Coffee,NO STREET 9999,Valencia
cafe,39.4670638,-0.3303301,Estrella de Mar,NO STREET 9999,Valencia
cafe,39.4643093,-0.3848233,Dulce de Leche,NO STREET 9999,Valencia
cafe,39.4770689,-0.3755858,Cafe de las Horas,Carrer del Comte d'Almodòvar 1,Valencia
cafe,39.4680614,-0.3506597,Cafés Valiente,NO STREET 9999,Valencia
cafe,39.4677897,-0.3511436,Cafeteria la Gavina,NO STREET 9999,Valencia
cafe,39.4774675,-0.383465,NO NAME,NO STREET 9999,Valencia
cafe,39.4596904,-0.3359735,NO NAME,NO STREET 9999,Valencia
cafe,39.4973645,-0.3517431,Orxateria Panach,NO STREET 9999,Valencia
cafe,39.4942346,-0.351072,NO NAME,NO STREET 9999,Valencia
cafe,39.501486,-0.3464834,NO NAME,NO STREET 9999,Valencia
cafe,39.4634712,-0.376319,Le Grand Café,NO STREET 9999,Valencia
cafe,39.4639584,-0.3318105,Cafeteria l'Arbre,Carrer del Rosari 17,Valencia
cafe,39.4705913,-0.3781896,Tims Hortons,NO STREET 9999,Valencia
cafe,39.4710482,-0.3750631,Transits,NO STREET 9999,Valencia
cafe,39.4850737,-0.3589256,El Café de Camilo,NO STREET 9999,Valencia
cafe,39.4862881,-0.3586807,La flor del cafe,NO STREET 9999,Valencia
cafe,39.4645389,-0.3575273,Bosca29 Cafeteria,NO STREET 9999,Valencia
cafe,39.4627527,-0.3644983,Cafes Montecelio,NO STREET 9999,Valencia
cafe,39.4630962,-0.3675249,Alma de Cafe,NO STREET 9999,Valencia
cafe,39.4703852,-0.3783495,dulce de leche San Vicente,NO STREET 9999,Valencia
cafe,39.4836433,-0.3574742,Cafés Valiente,NO STREET 9999,Valencia
cafe,39.4824917,-0.3704866,Panas,Carrer d'Alboraia 9999,Valencia
cafe,39.4859103,-0.3616082,Café Maysa,NO STREET 9999,Valencia
cafe,39.4824816,-0.3589949,Cafetería Zafiro,NO STREET 9999,Valencia
cafe,39.4863437,-0.3614102,Cafés Valiente,NO STREET 9999,Valencia
cafe,39.4810609,-0.3626985,Barocco,NO STREET 9999,Valencia
cafe,39.4727472,-0.377623,NO NAME,NO STREET 9999,Valencia
cafe,39.4828058,-0.3703375,El Bar del Super,NO STREET 9999,Valencia
cafe,39.4886105,-0.3665184,Soul Coffee,NO STREET 9999,Valencia
cafe,39.4648237,-0.4606324,El raconet,Plaza de la Constitución 9999,Valencia
cafe,39.4730428,-0.3786066,Central Rico - Latin Food,Carrer d'En Gall 7,Valencia
cafe,39.4821713,-0.3715709,Mayan Coffees,NO STREET 9999,Valencia
cafe,39.5371383,-0.3084887,NO NAME,NO STREET 9999,Valencia
cafe,39.4394679,-0.458876,Cafeteria Canela,Carrer de Músico José Ortí Soriano 18,Valencia
cafe,39.4347272,-0.4657437,Taberna Trakatra,Plaça de Sant Jaume 16,Valencia
cafe,39.438705,-0.463995,Cafeteria Como Quieras,Carrer del Doctor Gómez Ferrer 34,Valencia
cafe,39.4282653,-0.4757777,Cafeteria La Conquista,Carrer del Pare Méndez 154,Valencia
cafe,39.4333541,-0.4714718,Cafeteria Carreras,Carrer de Sant Fermí 4,Valencia
cafe,39.4364515,-0.4655919,Cafeteria Panaderia 7 Artesanales,Plaça del Bisbe Benlloch 7,Valencia
cafe,39.43634,-0.462276,Café Bolero,Carrer de Cervantes 7,Valencia
cafe,39.438408,-0.46012,Cafetería Keniche,Carrer de Nicolás Andreu 17,Valencia
cafe,39.4356279,-0.4667092,Cafeteria Montecarlo,Avinguda Al Vedat 21,Valencia
cafe,39.4308032,-0.474302,Cafeteria Legal,Avinguda Al Vedat 115,Valencia
cafe,39.4301755,-0.4734882,Cafeteria Cerveceria Juzgados,Plaça de la Llibertat 2,Valencia
cafe,39.437119,-0.466937,Cafetería L'horta,Carrer de Ramón y Cajal 13,Valencia
cafe,39.4347848,-0.4750789,Cafetería Guille,Carrer del Pintor Ribera 29,Valencia
cafe,39.4363218,-0.4663786,Cafeteria Caixa Rural,Avinguda Al Vedat 6,Valencia
cafe,39.4362075,-0.4675351,Cafetería Gala,Plaça Corts Valencianes 12,Valencia
cafe,39.4336784,-0.4704672,Cafeteria Boncafe,Avinguda Al Vedat 64,Valencia
cafe,39.4356283,-0.4678336,Cafes Valiente,Plaça Corts Valencianes 5,Valencia
cafe,39.4349516,-0.4754109,Café La Cremeta,Carrer de Pintor Renau 4,Valencia
cafe,39.440525,-0.46199,Café Quijote,Carrer de la Mare de Déu de la Purificació 9,Valencia
cafe,39.4346351,-0.4689902,Café Bar Pick-up,Avinguda Al Vedat 44,Valencia
cafe,39.4714915,-0.397779,Espresso Pastel,NO STREET 9999,Valencia
cafe,39.4338377,-0.4680431,Coneiximent,NO STREET 9999,Valencia
cafe,39.4354119,-0.4672077,Liao Pastel,Avinguda Al Vedat 29,Valencia
cafe,39.46064,-0.3771248,Café Madrigal,Carrer de Puerto Rico 41,Valencia
cafe,39.4530752,-0.4642689,Oporto café e vinho,NO STREET 9999,Valencia
cafe,39.453827,-0.462433,Naguara Bar-Tapería,Calle de Antonio Sancho Bueno 9999,Valencia
cafe,39.4769716,-0.3756427,Brunch Corner La Virgen,Carrer del Comte d'Almodòvar 1,Valencia
cafe,39.4695341,-0.3798044,Holbox,NO STREET 9999,Valencia
cafe,39.4592465,-0.3753056,Los Picos Café,NO STREET 9999,Valencia
cafe,39.4741854,-0.3750252,Chocolatería Valor,NO STREET 9999,Valencia
cafe,39.4649374,-0.3675139,Marabú,Carrer de l'Almirall Cadarso 21,Valencia
cafe,39.4660701,-0.3536523,Bar Boca2,NO STREET 9999,Valencia
cafe,39.4663211,-0.3545379,Cervecería Taxi-Driver,NO STREET 9999,Valencia
cafe,39.4664374,-0.3549137,Cerveceria Tamesis,NO STREET 9999,Valencia
cafe,39.4575524,-0.3551813,NO NAME,NO STREET 9999,Valencia
cafe,39.5297403,-0.441607,NO NAME,NO STREET 9999,Valencia
cafe,39.5117037,-0.4100299,NO NAME,NO STREET 9999,Valencia
cafe,39.4598736,-0.351638,Dulce de Leche (Francia),Avinguda de França 8,Valencia
cafe,39.471442,-0.417394,Bar Knopfler,NO STREET 9999,Valencia
cafe,39.4590798,-0.3850158,Cafetería Trafi,Carrer de Móra de Rubiols 3,Valencia
cafe,39.4684497,-0.3699431,POPPYNS Café,Carrer d'Isabel la Catòlica 21,Valencia
cafe,39.5376414,-0.3702472,Mossets,NO STREET 9999,Valencia
cafe,39.4723348,-0.3378673,Venu's Coffee,NO STREET 9999,Valencia
cafe,39.4731823,-0.335677,Camino del Cabañal,Camí del Cabanyal 34,Valencia
cafe,39.4668289,-0.3775323,Anar I tornar,NO STREET 9999,Valencia
cafe,39.4668143,-0.3769302,De pans,NO STREET 9999,Valencia
cinema,39.4696945,-0.3572292,Cines Babel,Carrer de Vicent Sancho Tello 10,Valencia
cinema,39.5303813,-0.4405437,Kinepolis Valencia,NO STREET 9999,Valencia
cinema,39.5451658,-0.397519,Centro Cultural Blasco Ibáñez,NO STREET 9999,Valencia
cinema,39.4570005,-0.3453609,Cine Oscar Ocine Aqua,NO STREET 9999,Valencia
cinema,39.468647,-0.3752243,Cines Lys,paseo ruzafa 3,Valencia
cinema,39.4692344,-0.3728872,ABC Park,Carrer de Roger de Llória 21,Valencia
cinema,39.4774,-0.3953685,Yelmo Cines,NO STREET 9999,Valencia
cinema,39.4681751,-0.3598632,Aragó Cinema,Avinguda del Port 1,Valencia
theatre,39.4715046,-0.3812925,Teatro Círculo,NO STREET 9999,Valencia
theatre,39.4654995,-0.456681,Teatre i Auditori Municipal d'Aldaia,NO STREET 9999,Valencia
theatre,39.4708613,-0.3780014,Olympia,Carrer de Sant Vicent Màrtir 44,Valencia
theatre,39.4845064,-0.4438066,Auditori Molí de Vila,NO STREET 9999,Valencia
theatre,39.4824157,-0.4422158,Teatro de El Casino,NO STREET 9999,Valencia
theatre,39.4737737,-0.4166595,Centro Cultural de Mislata,NO STREET 9999,Valencia
theatre,39.4349317,-0.4358882,Centro Cultural Municipal,NO STREET 9999,Valencia
theatre,39.4832742,-0.4411016,Casa de Cultura,NO STREET 9999,Valencia
theatre,39.4622893,-0.3766261,Sala Russafa,NO STREET 9999,Valencia
theatre,39.499774,-0.3491795,Teatro L'Agrícola,NO STREET 9999,Valencia
theatre,39.4709809,-0.3762721,Teatro Rialto,NO STREET 9999,Valencia
theatre,39.4120971,-0.3974505,Auditorio Massanassa,NO STREET 9999,Valencia
theatre,39.4784079,-0.3834019,NO NAME,NO STREET 9999,Valencia
theatre,39.4765878,-0.3780089,Teatre Talia,Calle Cavallers 31,Valencia
theatre,39.4673715,-0.3849011,Sala Ultramar,NO STREET 9999,Valencia
theatre,39.4784462,-0.3862452,Teatro de Marionetas La estrella,NO STREET 9999,Valencia
theatre,39.4854008,-0.3553408,Teatro Círculo,Carrer de Prudenci Alcon i Mateu 3,Valencia
theatre,39.4646479,-0.3321189,Teatre El Musical,NO STREET 9999,Valencia
theatre,39.4357182,-0.4750752,GTI Grup de Teatre,Camí Reial 35,Valencia
